{"type":"FeatureCollection","metadata":{"coordinateSpace":"regional-local","datasetId":"country-008/mainland-southwest","derivedFrom":"region-label-points.geojson","inverseOfRejectedTransform":{"method":"target transform-component bbox scale/translation; one common affine transform","localLandBoundsPx":[127,304,1891,1664],"transformComponentBoundsWorld":[472.0,812.0,632.0,896.0],"targetTerritoryBoundsWorld":[466.0,812.0,632.0,922.0],"scaleX":0.09070294784580499,"scaleY":0.061764705882352944,"offsetX":460.48072562358277,"offsetY":793.2235294117647}},"features":[{"type":"Feature","id":"country-008-mainland-southwest-region-001-label","properties":{"id":"country-008-mainland-southwest-region-001","number":1,"name":"Инсел","type":"region","countryId":"country-008","targetComponentId":"mainland-southwest","datasetId":"country-008/mainland-southwest","styleIndex":0,"isCapital":false,"capital":false,"labelRank":1,"importance":1,"areaWorld":530.4929971988811,"labelPointMethod":"representative-point","source":"regions/country-008/mainland-southwest/regions-source.png"},"geometry":{"type":"Point","coordinates":[353.5,498.5000000000018]}},{"type":"Feature","id":"country-008-mainland-southwest-region-002-label","properties":{"id":"country-008-mainland-southwest-region-002","number":2,"name":"Хэйлищланд","type":"region","countryId":"country-008","targetComponentId":"mainland-southwest","datasetId":"country-008/mainland-southwest","styleIndex":1,"isCapital":false,"capital":false,"labelRank":2,"importance":2,"areaWorld":273.2941176470589,"labelPointMethod":"representative-point","source":"regions/country-008/mainland-southwest/regions-source.png"},"geometry":{"type":"Point","coordinates":[403.5,1041.5000000000018]}},{"type":"Feature","id":"country-008-mainland-southwest-region-003-label","properties":{"id":"country-008-mainland-southwest-region-003","number":3,"name":"Исгеция","type":"region","countryId":"country-008","targetComponentId":"mainland-southwest","datasetId":"country-008/mainland-southwest","styleIndex":2,"isCapital":false,"capital":false,"labelRank":1,"importance":1,"areaWorld":792.9187675070028,"labelPointMethod":"representative-point","source":"regions/country-008/mainland-southwest/regions-source.png"},"geometry":{"type":"Point","coordinates":[661.0,1417.5000000000018]}},{"type":"Feature","id":"country-008-mainland-southwest-region-004-label","properties":{"id":"country-008-mainland-southwest-region-004","number":4,"name":"Кудос","type":"region","countryId":"country-008","targetComponentId":"mainland-southwest","datasetId":"country-008/mainland-southwest","styleIndex":3,"isCapital":false,"capital":false,"labelRank":1,"importance":1,"areaWorld":360.6162464985994,"labelPointMethod":"representative-point","source":"regions/country-008/mainland-southwest/regions-source.png"},"geometry":{"type":"Point","coordinates":[1113.5,1144.5]}},{"type":"Feature","id":"country-008-mainland-southwest-region-005-label","properties":{"id":"country-008-mainland-southwest-region-005","number":5,"name":"Штифтерланд","type":"region","countryId":"country-008","targetComponentId":"mainland-southwest","datasetId":"country-008/mainland-southwest","styleIndex":4,"isCapital":false,"capital":false,"labelRank":2,"importance":2,"areaWorld":340.1512605042019,"labelPointMethod":"representative-point","source":"regions/country-008/mainland-southwest/regions-source.png"},"geometry":{"type":"Point","coordinates":[773.8750000000009,1044.5]}},{"type":"Feature","id":"country-008-mainland-southwest-region-006-label","properties":{"id":"country-008-mainland-southwest-region-006","number":6,"name":"Револьн","type":"region","countryId":"country-008","targetComponentId":"mainland-southwest","datasetId":"country-008/mainland-southwest","styleIndex":0,"isCapital":false,"capital":false,"labelRank":2,"importance":2,"areaWorld":318.2633053221284,"labelPointMethod":"representative-point","source":"regions/country-008/mainland-southwest/regions-source.png"},"geometry":{"type":"Point","coordinates":[565.0000000000009,873.0000000000018]}},{"type":"Feature","id":"country-008-mainland-southwest-region-007-label","properties":{"id":"country-008-mainland-southwest-region-007","number":7,"name":"Веренланд","type":"region","countryId":"country-008","targetComponentId":"mainland-southwest","datasetId":"country-008/mainland-southwest","styleIndex":1,"isCapital":false,"capital":false,"labelRank":2,"importance":2,"areaWorld":241.05322128851552,"labelPointMethod":"representative-point","source":"regions/country-008/mainland-southwest/regions-source.png"},"geometry":{"type":"Point","coordinates":[801.5000000000009,784.5]}},{"type":"Feature","id":"country-008-mainland-southwest-region-008-label","properties":{"id":"country-008-mainland-southwest-region-008","number":8,"name":"Норланд","type":"region","countryId":"country-008","targetComponentId":"mainland-southwest","datasetId":"country-008/mainland-southwest","styleIndex":2,"isCapital":false,"capital":false,"labelRank":1,"importance":1,"areaWorld":518.4313725490194,"labelPointMethod":"representative-point","source":"regions/country-008/mainland-southwest/regions-source.png"},"geometry":{"type":"Point","coordinates":[1121.499999999999,798.5000000000018]}},{"type":"Feature","id":"country-008-mainland-southwest-region-009-label","properties":{"id":"country-008-mainland-southwest-region-009","number":9,"name":"Кюстен","type":"region","countryId":"country-008","targetComponentId":"mainland-southwest","datasetId":"country-008/mainland-southwest","styleIndex":3,"isCapital":false,"capital":false,"labelRank":2,"importance":2,"areaWorld":272.36414565826374,"labelPointMethod":"representative-point","source":"regions/country-008/mainland-southwest/regions-source.png"},"geometry":{"type":"Point","coordinates":[1690.000000000001,963.5]}},{"type":"Feature","id":"country-008-mainland-southwest-region-010-label","properties":{"id":"country-008-mainland-southwest-region-010","number":10,"name":"Интермариум","type":"region","countryId":"country-008","targetComponentId":"mainland-southwest","datasetId":"country-008/mainland-southwest","styleIndex":4,"isCapital":false,"capital":false,"labelRank":3,"importance":3,"areaWorld":161.29411764705844,"labelPointMethod":"representative-point","source":"regions/country-008/mainland-southwest/regions-source.png"},"geometry":{"type":"Point","coordinates":[1340.5,1101.5]}},{"type":"Feature","id":"country-008-mainland-southwest-region-011-label","properties":{"id":"country-008-mainland-southwest-region-011","number":11,"name":"Джюдион","type":"region","countryId":"country-008","targetComponentId":"mainland-southwest","datasetId":"country-008/mainland-southwest","styleIndex":0,"isCapital":false,"capital":false,"labelRank":1,"importance":1,"areaWorld":488.4537815126053,"labelPointMethod":"representative-point","source":"regions/country-008/mainland-southwest/regions-source.png"},"geometry":{"type":"Point","coordinates":[1592.0,1254.0000000000018]}},{"type":"Feature","id":"country-008-mainland-southwest-region-012-label","properties":{"id":"country-008-mainland-southwest-region-012","number":12,"name":"Немланд","type":"region","countryId":"country-008","targetComponentId":"mainland-southwest","datasetId":"country-008/mainland-southwest","styleIndex":1,"isCapital":false,"capital":false,"labelRank":3,"importance":3,"areaWorld":40.91316526610636,"labelPointMethod":"representative-point","source":"regions/country-008/mainland-southwest/regions-source.png"},"geometry":{"type":"Point","coordinates":[894.5,952.5000000000018]}},{"type":"Feature","id":"country-008-mainland-southwest-region-013-label","properties":{"id":"country-008-mainland-southwest-region-013","number":13,"name":"Мительланд","type":"region","countryId":"country-008","targetComponentId":"mainland-southwest","datasetId":"country-008/mainland-southwest","styleIndex":2,"isCapital":false,"capital":false,"labelRank":3,"importance":3,"areaWorld":193.12044817927156,"labelPointMethod":"representative-point","source":"regions/country-008/mainland-southwest/regions-source.png"},"geometry":{"type":"Point","coordinates":[1089.249999999999,974.0000000000018]}},{"type":"Feature","id":"country-008-mainland-southwest-region-014-label","properties":{"id":"country-008-mainland-southwest-region-014","number":14,"name":"Немецк","type":"region","countryId":"country-008","targetComponentId":"mainland-southwest","datasetId":"country-008/mainland-southwest","styleIndex":3,"isCapital":true,"capital":true,"labelRank":3,"importance":3,"areaWorld":46.31372549019595,"labelPointMethod":"representative-point","source":"regions/country-008/mainland-southwest/regions-source.png"},"geometry":{"type":"Point","coordinates":[934.4999999999991,895.0]}}]}