{"type":"FeatureCollection","metadata":{"coordinateSpace":"regional-local","datasetId":"country-008/mainland-southwest","derivedFrom":"region-borders.geojson","inverseOfRejectedTransform":{"method":"target transform-component bbox scale/translation; one common affine transform","localLandBoundsPx":[127,304,1891,1664],"transformComponentBoundsWorld":[472.0,812.0,632.0,896.0],"targetTerritoryBoundsWorld":[466.0,812.0,632.0,922.0],"scaleX":0.09070294784580499,"scaleY":0.061764705882352944,"offsetX":460.48072562358277,"offsetY":793.2235294117647}},"features":[{"type":"Feature","id":"country-008-mainland-southwest-region-border-004-005-001","properties":{"id":"country-008-mainland-southwest-region-border-004-005-001","type":"region-border","countryId":"country-008","targetComponentId":"mainland-southwest","datasetId":"country-008/mainland-southwest","leftRegionId":"country-008-mainland-southwest-region-004","rightRegionId":"country-008-mainland-southwest-region-005"},"geometry":{"type":"LineString","coordinates":[[915.0,1014.0],[915.0,1031.0],[916.0,1031.0],[916.0,1037.0],[917.0,1037.0],[917.0,1039.0],[918.0000000000009,1039.0],[918.0000000000009,1041.0],[919.0,1041.0],[919.0,1043.0],[920.0,1043.0],[920.0,1044.0],[921.0,1044.0],[921.0,1045.0],[922.0,1045.0],[922.9999999999991,1047.0],[925.0,1047.0],[925.0,1048.0],[926.0,1048.0],[926.0,1049.0],[927.0,1049.0],[927.0,1050.0],[928.0,1050.0],[928.0,1051.0],[929.0000000000009,1051.0],[929.0000000000009,1052.0],[931.0,1053.0],[931.0,1055.0],[932.0,1055.0],[932.0,1056.0],[933.0,1056.0],[933.0,1057.0],[935.0000000000009,1058.0],[935.0000000000009,1060.0],[936.0,1060.0],[936.0,1061.0],[937.0,1061.0],[937.0,1063.0],[938.0,1063.0],[938.0,1080.0000000000018],[937.0,1080.0000000000018],[937.0,1085.0],[936.0,1085.0],[936.0,1088.0000000000018],[935.0000000000009,1088.0000000000018],[935.0000000000009,1091.0],[933.9999999999991,1091.0],[933.9999999999991,1094.0000000000018],[933.0,1094.0000000000018],[933.0,1103.0],[933.9999999999991,1103.0],[933.9999999999991,1104.0000000000018],[936.0,1104.0000000000018],[937.0,1106.0],[939.0,1106.0],[939.0,1107.0],[941.0,1107.0],[942.0,1109.0],[944.0,1109.0],[944.0,1110.0],[944.9999999999991,1110.0],[946.0000000000009,1112.0000000000018],[948.0,1112.0000000000018],[948.0,1113.0],[949.0,1113.0],[949.0,1115.0],[951.0000000000009,1115.0],[951.0000000000009,1116.0000000000018],[952.0,1116.0000000000018],[952.0,1117.0],[953.0,1117.0],[953.0,1118.0],[954.0,1118.0],[954.0,1119.0],[955.0,1119.0],[955.0,1120.0000000000018],[955.9999999999991,1120.0000000000018],[957.0000000000009,1122.0],[959.0,1122.0],[959.0,1123.0],[961.0,1124.0],[961.0,1126.0],[962.0000000000009,1126.0],[962.0000000000009,1129.0],[961.0,1129.0],[961.0,1131.0],[960.0,1131.0],[960.0,1133.0],[959.0,1133.0],[959.0,1135.0],[958.0,1135.0],[958.0,1139.0],[957.0000000000009,1139.0],[957.0000000000009,1143.0],[955.9999999999991,1143.0],[955.9999999999991,1146.0],[955.0,1146.0],[955.0,1147.0],[954.0,1147.0],[953.0,1149.0],[936.0,1149.0]]}},{"type":"Feature","id":"country-008-mainland-southwest-region-border-004-010-001","properties":{"id":"country-008-mainland-southwest-region-border-004-010-001","type":"region-border","countryId":"country-008","targetComponentId":"mainland-southwest","datasetId":"country-008/mainland-southwest","leftRegionId":"country-008-mainland-southwest-region-004","rightRegionId":"country-008-mainland-southwest-region-010"},"geometry":{"type":"LineString","coordinates":[[1234.0,1018.0],[1235.0,1018.0],[1235.0,1020.0],[1236.0,1020.0],[1236.0,1022.0],[1237.0,1022.0],[1237.0,1025.0],[1238.000000000001,1025.0],[1238.000000000001,1031.0],[1239.0,1031.0],[1239.0,1037.0],[1240.0,1037.0],[1240.0,1043.0],[1241.0,1043.0],[1241.0,1046.0],[1242.0,1046.0],[1242.0,1050.0],[1242.999999999999,1050.0],[1242.999999999999,1053.0],[1244.000000000001,1053.0],[1244.000000000001,1058.0],[1245.0,1058.0],[1245.0,1062.0],[1246.0,1062.0],[1246.0,1068.0000000000018],[1247.0,1068.0000000000018],[1247.0,1073.0],[1248.0,1073.0],[1248.0,1078.0000000000018],[1249.000000000001,1078.0000000000018],[1249.000000000001,1081.0],[1250.0,1081.0],[1250.0,1086.0000000000018],[1251.0,1086.0000000000018],[1251.0,1089.0],[1252.0,1089.0],[1252.0,1093.0],[1253.0,1093.0],[1253.0,1097.0],[1253.999999999999,1097.0],[1253.999999999999,1100.0000000000018],[1255.000000000001,1100.0000000000018],[1255.000000000001,1103.0],[1256.0,1103.0],[1256.0,1106.0],[1257.0,1106.0],[1257.0,1109.0],[1258.0,1109.0],[1258.0,1111.0],[1259.0,1111.0],[1259.0,1114.0],[1260.000000000001,1114.0],[1260.000000000001,1116.0000000000018],[1261.0,1116.0000000000018],[1261.0,1118.0],[1262.0,1118.0],[1262.0,1122.0],[1263.0,1122.0],[1263.0,1124.0],[1264.0,1124.0],[1264.0,1126.0],[1264.999999999999,1126.0],[1264.999999999999,1129.0],[1266.000000000001,1129.0],[1266.000000000001,1132.0],[1267.0,1132.0],[1267.0,1135.0],[1268.0,1135.0],[1268.0,1138.0],[1269.0,1138.0],[1269.0,1141.0],[1270.0,1141.0],[1270.0,1143.0],[1271.000000000001,1143.0],[1271.000000000001,1146.0],[1272.0,1146.0],[1272.0,1150.0],[1273.0,1150.0],[1273.0,1153.0000000000018],[1274.0,1153.0000000000018],[1274.0,1156.0],[1275.0,1156.0],[1275.0,1158.0],[1275.999999999999,1158.0],[1275.999999999999,1163.0000000000018],[1277.000000000001,1163.0000000000018],[1277.000000000001,1165.0000000000018],[1278.0,1165.0000000000018],[1278.0,1168.0],[1279.0,1168.0],[1279.0,1170.0],[1280.0,1170.0],[1280.0,1172.0],[1281.0,1172.0],[1281.0,1174.0],[1282.000000000001,1174.0],[1282.000000000001,1175.0000000000018],[1283.0,1175.0000000000018],[1283.0,1177.0000000000018],[1285.0,1178.0],[1285.0,1180.0]]}},{"type":"Feature","id":"country-008-mainland-southwest-region-border-004-013-001","properties":{"id":"country-008-mainland-southwest-region-border-004-013-001","type":"region-border","countryId":"country-008","targetComponentId":"mainland-southwest","datasetId":"country-008/mainland-southwest","leftRegionId":"country-008-mainland-southwest-region-004","rightRegionId":"country-008-mainland-southwest-region-013"},"geometry":{"type":"LineString","coordinates":[[915.0,1014.0],[918.0000000000009,1014.0],[918.0000000000009,1015.0000000000018],[925.0,1015.0000000000018],[925.0,1016.0],[933.0,1016.0],[933.0,1017.0000000000018],[938.0,1017.0000000000018],[938.0,1018.0],[939.0,1018.0],[939.0,1017.0000000000018],[955.9999999999991,1017.0000000000018],[955.9999999999991,1018.0],[965.0,1018.0],[965.0,1019.0000000000018],[971.0,1019.0000000000018],[971.0,1020.0],[974.0,1020.0],[974.0,1021.0],[976.0,1021.0],[977.0,1023.0000000000018],[979.0000000000009,1023.0000000000018],[979.0000000000009,1024.0],[980.0,1024.0],[980.0,1025.0],[982.0,1025.0],[983.0,1027.0000000000018],[985.0000000000009,1027.0000000000018],[985.0000000000009,1028.0],[987.0,1028.0],[987.0,1029.0],[989.0,1029.0],[990.0000000000009,1031.0],[993.0,1031.0],[993.0,1032.0],[997.0,1032.0],[997.0,1033.0],[1000.0,1033.0],[1000.0,1034.0],[1006.0000000000009,1034.0],[1006.0000000000009,1035.0],[1039.000000000001,1035.0],[1039.000000000001,1036.0],[1046.0,1036.0],[1046.0,1037.0],[1049.0,1037.0],[1049.0,1038.0],[1052.0,1038.0],[1052.0,1039.0],[1055.999999999999,1039.0],[1055.999999999999,1040.0],[1059.0,1040.0],[1059.0,1041.0],[1062.000000000001,1041.0],[1062.000000000001,1042.0],[1064.0,1042.0],[1064.0,1043.0],[1066.0,1043.0],[1066.0,1044.0],[1068.0,1044.0],[1068.0,1045.0],[1070.0,1045.0],[1070.0,1046.0],[1072.000000000001,1046.0],[1072.000000000001,1047.0],[1074.0,1047.0],[1074.0,1048.0],[1075.0,1048.0],[1075.0,1049.0],[1077.0,1049.0],[1077.999999999999,1051.0],[1080.0,1051.0],[1080.0,1052.0],[1082.0,1052.0],[1082.0,1053.0],[1085.0,1053.0],[1085.0,1054.0],[1088.999999999999,1054.0],[1088.999999999999,1055.0],[1107.0,1055.0],[1107.0,1054.0],[1109.0,1054.0],[1109.0,1053.0],[1110.999999999999,1053.0],[1110.999999999999,1052.0],[1112.0,1052.0],[1112.0,1051.0],[1114.0,1050.0],[1114.0,1048.0],[1115.0,1048.0],[1115.0,1045.0],[1116.000000000001,1045.0],[1116.000000000001,1035.0],[1117.000000000001,1035.0],[1117.000000000001,1029.0],[1118.0,1029.0],[1118.0,1023.0000000000018],[1119.0,1023.0000000000018],[1119.0,1021.0],[1120.0,1021.0],[1120.0,1020.0],[1121.0,1020.0],[1121.999999999999,1018.0],[1124.0,1018.0],[1124.0,1017.0000000000018],[1126.0,1017.0000000000018],[1126.0,1016.0],[1128.000000000001,1016.0],[1128.000000000001,1015.0000000000018],[1132.0,1015.0000000000018],[1132.0,1014.0],[1136.0,1014.0],[1136.0,1013.0000000000018],[1137.0,1013.0000000000018],[1137.0,1012.0],[1139.000000000001,1011.0000000000018],[1139.000000000001,1002.0],[1140.0,1002.0],[1140.0,1000.0],[1142.0,1000.0],[1142.0,999.0000000000018],[1156.0,999.0000000000018],[1156.0,1000.0],[1164.0,1000.0],[1164.0,1001.0000000000018],[1170.0,1001.0000000000018],[1170.0,1002.0],[1174.0,1002.0],[1174.0,1003.0000000000018],[1176.0,1003.0000000000018],[1176.999999999999,1005.0000000000018],[1179.0,1005.0000000000018],[1179.0,1007.0000000000018],[1180.0,1007.0000000000018],[1180.0,1009.0000000000018],[1181.0,1009.0000000000018],[1181.0,1021.0],[1181.999999999999,1021.0],[1181.999999999999,1023.0000000000018],[1183.000000000001,1023.0000000000018],[1184.0,1025.0],[1186.0,1025.0],[1186.0,1026.0],[1197.0,1026.0],[1197.0,1025.0],[1205.000000000001,1025.0],[1205.000000000001,1024.0],[1209.999999999999,1024.0],[1209.999999999999,1023.0000000000018],[1212.0,1023.0000000000018],[1212.0,1022.0],[1218.0,1022.0],[1218.0,1021.0],[1222.000000000001,1021.0],[1222.000000000001,1020.0],[1227.000000000001,1020.0],[1227.000000000001,1019.0000000000018],[1231.999999999999,1019.0000000000018],[1231.999999999999,1018.0],[1234.0,1018.0]]}},{"type":"Feature","id":"country-008-mainland-southwest-region-border-005-006-001","properties":{"id":"country-008-mainland-southwest-region-border-005-006-001","type":"region-border","countryId":"country-008","targetComponentId":"mainland-southwest","datasetId":"country-008/mainland-southwest","leftRegionId":"country-008-mainland-southwest-region-005","rightRegionId":"country-008-mainland-southwest-region-006"},"geometry":{"type":"LineString","coordinates":[[722.0,906.0000000000018],[722.0,909.0],[723.0,909.0],[723.0,915.0],[724.0,915.0],[724.0,919.0],[724.9999999999991,919.0],[724.9999999999991,923.0],[726.0,923.0],[726.0,940.0],[724.9999999999991,940.0],[724.9999999999991,943.0],[724.0,943.0],[724.0,948.0],[723.0,948.0],[723.0,950.0],[722.0,950.0],[722.0,952.0],[721.0,952.0],[721.0,954.0],[720.0000000000009,954.0],[720.0000000000009,956.0],[718.9999999999991,956.0],[718.9999999999991,957.0],[717.0,958.0],[717.0,960.0],[715.0,961.0],[715.0,963.0],[713.0,963.0],[713.0,965.0],[712.0,965.0],[712.0,966.0],[711.0,966.0],[711.0,967.0],[710.0,967.0],[710.0,968.0],[709.0000000000009,968.0],[709.0000000000009,969.0],[707.9999999999991,969.0],[707.9999999999991,970.0],[707.0,970.0],[706.0,972.0],[704.0,972.0],[704.0,973.0],[702.9999999999991,973.0],[702.0,975.0],[700.0,975.0],[700.0,976.0],[699.0,976.0],[698.0000000000009,978.0],[696.0,978.0],[695.0,980.0],[693.0,980.0],[693.0,981.0000000000018],[691.9999999999991,981.0000000000018],[691.0,983.0000000000018],[689.0,983.0000000000018],[689.0,984.0],[688.0,984.0],[687.0000000000009,986.0],[685.0,986.0],[685.0,987.0000000000018],[683.0,987.0000000000018],[683.0,988.0],[680.9999999999991,988.0],[680.9999999999991,989.0000000000018],[680.0,989.0000000000018],[679.0,991.0000000000018],[677.0,991.0000000000018],[677.0,992.0],[674.9999999999991,992.0],[674.0,994.0],[672.0,994.0],[672.0,995.0000000000018],[670.0000000000009,995.0000000000018],[670.0000000000009,996.0],[668.0,996.0],[667.0,998.0],[665.0000000000009,998.0],[665.0000000000009,999.0000000000018],[663.0,999.0000000000018],[663.0,1000.0],[661.0,1000.0],[660.0,1002.0],[658.0,1002.0],[658.0,1003.0000000000018],[656.0,1003.0000000000018],[656.0,1004.0],[654.0000000000009,1004.0],[654.0000000000009,1005.0000000000018],[652.0,1005.0000000000018],[652.0,1006.0],[650.0,1006.0],[650.0,1007.0000000000018],[648.0000000000009,1007.0000000000018],[648.0000000000009,1008.0],[646.0,1008.0],[646.0,1009.0000000000018],[645.0,1009.0000000000018],[645.0,1010.0],[644.0,1010.0],[644.0,1011.0000000000018],[643.0000000000009,1011.0000000000018],[643.0000000000009,1012.0],[641.9999999999991,1012.0],[641.9999999999991,1013.0000000000018],[640.0,1014.0],[640.0,1016.0],[639.0,1016.0],[639.0,1018.0],[638.0,1018.0],[638.0,1020.0],[637.0000000000009,1020.0],[637.0000000000009,1022.0],[636.0,1022.0],[636.0,1025.0],[635.0,1025.0],[635.0,1027.0000000000018],[634.0,1027.0000000000018],[634.0,1031.0],[633.0,1031.0],[633.0,1033.0],[632.0000000000009,1033.0],[632.0000000000009,1040.0],[630.0,1041.0],[630.0,1043.0],[629.0,1043.0],[629.0,1044.0],[627.0,1044.0],[626.0000000000009,1046.0],[624.0,1046.0],[624.0,1047.0],[622.0,1047.0],[622.0,1048.0],[619.9999999999991,1048.0],[619.9999999999991,1049.0],[618.0,1049.0],[618.0,1050.0],[616.0,1050.0],[616.0,1051.0],[614.0,1051.0],[614.0,1052.0],[612.0,1052.0],[612.0,1053.0],[610.0000000000009,1053.0],[610.0000000000009,1054.0],[608.0,1054.0],[608.0,1055.0],[605.0,1055.0],[605.0,1056.0],[602.0,1056.0],[602.0,1057.0],[599.0000000000009,1057.0],[599.0000000000009,1058.0],[597.0,1058.0],[596.0,1060.0],[594.0,1060.0],[594.0,1061.0],[592.0,1062.0]]}},{"type":"Feature","id":"country-008-mainland-southwest-region-border-005-007-001","properties":{"id":"country-008-mainland-southwest-region-border-005-007-001","type":"region-border","countryId":"country-008","targetComponentId":"mainland-southwest","datasetId":"country-008/mainland-southwest","leftRegionId":"country-008-mainland-southwest-region-005","rightRegionId":"country-008-mainland-southwest-region-007"},"geometry":{"type":"LineString","coordinates":[[722.0,906.0000000000018],[723.0,906.0000000000018],[723.0,905.0],[746.9999999999991,905.0],[746.9999999999991,904.0000000000018],[750.0,904.0000000000018],[750.0,903.0],[753.0000000000009,903.0],[753.0000000000009,902.0000000000018],[757.0,902.0000000000018],[757.0,901.0],[759.0,901.0],[759.0,900.0000000000018],[762.0,900.0000000000018],[762.0,899.0],[765.0,899.0],[765.0,898.0000000000018],[770.0,898.0000000000018],[770.0,897.0],[788.0,897.0],[788.0,898.0000000000018],[793.0,898.0000000000018],[793.0,899.0],[796.0,899.0],[796.0,900.0000000000018],[798.0,900.0000000000018],[798.0,901.0],[801.0,901.0],[801.0,902.0000000000018],[804.0,902.0000000000018],[804.0,903.0],[806.0,903.0],[806.0,904.0000000000018],[809.0,904.0000000000018],[809.0,905.0],[811.0,905.0],[811.0,906.0000000000018],[812.9999999999991,906.0000000000018],[812.9999999999991,907.0],[816.0,907.0],[816.0,908.0000000000018],[821.0,908.0000000000018],[821.0,909.0],[825.0000000000009,909.0],[825.0000000000009,910.0000000000018],[826.0,910.0000000000018]]}},{"type":"Feature","id":"country-008-mainland-southwest-region-border-005-012-001","properties":{"id":"country-008-mainland-southwest-region-border-005-012-001","type":"region-border","countryId":"country-008","targetComponentId":"mainland-southwest","datasetId":"country-008/mainland-southwest","leftRegionId":"country-008-mainland-southwest-region-005","rightRegionId":"country-008-mainland-southwest-region-012"},"geometry":{"type":"LineString","coordinates":[[826.0,910.0000000000018],[826.0,911.0],[827.0,911.0],[827.0,931.0],[826.0,931.0],[826.0,945.0],[827.0,945.0],[827.0,946.0],[828.0,946.0],[828.0,947.0],[829.0,947.0],[830.0000000000009,949.0],[832.0,949.0],[832.0,950.0],[834.9999999999991,950.0],[834.9999999999991,951.0],[840.0,951.0],[840.0,952.0],[851.0,952.0],[851.0,953.0],[856.0,953.0],[856.0,954.0],[858.0000000000009,954.0],[858.0000000000009,955.0],[860.0,955.0],[860.0,956.0],[861.0,956.0],[861.0,957.0],[863.0000000000009,958.0],[863.0000000000009,971.0],[864.0,971.0],[864.0,975.0],[865.0,975.0],[865.0,977.0],[866.0,977.0],[866.0,978.0],[867.0,978.0],[867.0,979.0],[867.9999999999991,979.0],[867.9999999999991,980.0],[869.0000000000009,980.0],[869.0000000000009,981.0000000000018],[870.0,981.0000000000018],[870.0,982.0],[871.0,982.0],[872.0,984.0],[874.0000000000009,984.0],[874.0000000000009,985.0000000000018],[876.0,986.0],[876.0,988.0],[878.0,989.0000000000018],[878.0,991.0000000000018],[878.9999999999991,991.0000000000018],[878.9999999999991,993.0000000000018],[880.0000000000009,993.0000000000018],[880.0000000000009,996.0],[881.0,996.0],[881.0,1004.0],[882.0,1004.0],[882.0,1010.0],[883.0,1010.0],[883.0,1012.0],[884.0,1012.0],[884.0,1013.0000000000018],[885.0000000000009,1013.0000000000018],[886.0,1015.0000000000018],[891.0000000000009,1015.0000000000018],[891.0000000000009,1016.0],[902.0000000000009,1016.0],[902.0000000000009,1015.0000000000018],[905.0,1015.0000000000018],[905.0,1014.0],[910.0,1014.0],[910.0,1013.0000000000018],[915.0,1013.0000000000018]]}},{"type":"Feature","id":"country-008-mainland-southwest-region-border-005-013-001","properties":{"id":"country-008-mainland-southwest-region-border-005-013-001","type":"region-border","countryId":"country-008","targetComponentId":"mainland-southwest","datasetId":"country-008/mainland-southwest","leftRegionId":"country-008-mainland-southwest-region-005","rightRegionId":"country-008-mainland-southwest-region-013"},"geometry":{"type":"LineString","coordinates":[[915.0,1013.0000000000018],[915.0,1014.0]]}},{"type":"Feature","id":"country-008-mainland-southwest-region-border-006-007-001","properties":{"id":"country-008-mainland-southwest-region-border-006-007-001","type":"region-border","countryId":"country-008","targetComponentId":"mainland-southwest","datasetId":"country-008/mainland-southwest","leftRegionId":"country-008-mainland-southwest-region-006","rightRegionId":"country-008-mainland-southwest-region-007"},"geometry":{"type":"LineString","coordinates":[[656.0,747.0],[656.0,748.0000000000018],[655.0,748.0000000000018],[655.0,750.0000000000018],[654.0000000000009,750.0000000000018],[654.0000000000009,753.0],[652.9999999999991,753.0],[652.9999999999991,755.0],[651.0,756.0000000000018],[651.0,758.0000000000018],[650.0,758.0000000000018],[650.0,761.0],[649.0,761.0],[649.0,771.0],[650.0,771.0],[650.0,776.0],[651.0,776.0],[651.0,780.0],[652.0,780.0],[652.0,781.0],[652.9999999999991,781.0],[652.9999999999991,783.0],[654.0000000000009,783.0],[654.0000000000009,784.0],[655.0,784.0],[655.0,785.0],[656.0,785.0],[656.0,786.0],[658.0,787.0],[658.0,792.0],[657.0,792.0],[657.0,794.0],[656.0,794.0],[656.0,795.0],[655.0,795.0],[654.0000000000009,797.0],[652.0,797.0],[651.0,799.0],[649.0,799.0],[649.0,800.0],[647.0,800.0],[647.0,801.0],[644.0,801.0],[644.0,802.0],[641.9999999999991,802.0],[641.9999999999991,803.0],[640.0,803.0],[640.0,804.0],[638.0,804.0],[638.0,805.0],[637.0000000000009,805.0],[637.0000000000009,806.0],[636.0,806.0],[636.0,807.0],[635.0,807.0],[635.0,808.0],[633.0,809.0],[633.0,819.0000000000018],[634.0,819.0000000000018],[634.0,822.0],[636.0,823.0000000000018],[636.0,826.0],[637.0000000000009,826.0],[637.0000000000009,827.0000000000018],[639.0,828.0],[639.0,830.0],[641.0,830.0],[641.9999999999991,832.0],[644.0,832.0],[644.0,833.0000000000018],[646.0,833.0000000000018],[646.0,834.0],[648.0000000000009,834.0],[649.0,836.0],[651.0,836.0],[651.0,837.0000000000018],[652.9999999999991,837.0000000000018],[654.0000000000009,839.0000000000018],[656.0,839.0000000000018],[656.0,840.0],[657.0,840.0],[658.0,842.0],[660.0,842.0],[661.0,844.0],[663.0,844.0],[663.0,845.0000000000018],[665.0000000000009,845.0000000000018],[665.0000000000009,846.0],[668.0,846.0],[668.0,847.0000000000018],[672.0,847.0000000000018],[672.0,848.0],[674.0,848.0],[674.0,849.0000000000018],[677.0,849.0000000000018],[677.0,850.0],[682.0,850.0],[682.0,851.0],[684.0,851.0],[684.0,852.0],[685.0,852.0],[685.0,853.0000000000018],[687.0000000000009,854.0],[687.0000000000009,855.0],[685.9999999999991,855.0],[685.9999999999991,858.0],[685.0,858.0],[685.0,860.0],[684.0,860.0],[684.0,862.0],[683.0,862.0],[683.0,863.0],[682.0,863.0],[680.9999999999991,865.0],[679.0,865.0],[679.0,866.0],[677.0,867.0],[677.0,870.0],[676.0000000000009,870.0],[676.0000000000009,882.0],[678.0,883.0],[678.0,885.0],[679.0,885.0],[679.0,886.0],[680.0,886.0],[680.0,887.0],[680.9999999999991,887.0],[680.9999999999991,888.0],[682.0,888.0],[682.0,889.0],[683.0,889.0],[684.0,891.0],[685.9999999999991,891.0],[685.9999999999991,892.0],[687.0000000000009,892.0],[688.0,894.0],[690.0,894.0],[690.0,895.0],[691.0,895.0],[691.0,896.0000000000018],[691.9999999999991,896.0000000000018],[693.0,898.0000000000018],[695.0,898.0000000000018],[696.0,900.0000000000018],[702.0,900.0000000000018],[702.0,901.0],[710.0,901.0],[710.0,902.0000000000018],[716.0,902.0000000000018],[716.0,903.0],[718.0,903.0],[718.0,904.0000000000018],[720.0000000000009,904.0000000000018],[720.0000000000009,905.0],[722.0,905.0],[722.0,906.0000000000018]]}},{"type":"Feature","id":"country-008-mainland-southwest-region-border-007-008-001","properties":{"id":"country-008-mainland-southwest-region-border-007-008-001","type":"region-border","countryId":"country-008","targetComponentId":"mainland-southwest","datasetId":"country-008/mainland-southwest","leftRegionId":"country-008-mainland-southwest-region-007","rightRegionId":"country-008-mainland-southwest-region-008"},"geometry":{"type":"LineString","coordinates":[[977.0,730.0000000000018],[977.0,731.0],[975.0,732.0000000000018],[975.0,734.0000000000018],[974.0,734.0000000000018],[974.0,736.0000000000018],[972.0,737.0],[972.0,739.0],[971.0,739.0],[971.0,742.0000000000018],[970.0,742.0000000000018],[970.0,752.0000000000018],[969.0,752.0000000000018],[969.0,755.0],[968.0000000000009,755.0],[968.0000000000009,758.0000000000018],[966.9999999999991,758.0000000000018],[966.9999999999991,761.0],[966.0,761.0],[966.0,765.0],[965.0,765.0],[965.0,767.0],[964.0,767.0],[964.0,770.0],[963.0,770.0],[963.0,771.0],[962.0000000000009,771.0],[962.0000000000009,772.0000000000018],[961.0,772.0000000000018],[961.0,773.0],[960.0,773.0],[960.0,774.0],[959.0,774.0],[959.0,775.0],[958.0,775.0],[957.0000000000009,777.0],[955.0,777.0],[955.0,779.0],[953.0,779.0],[953.0,780.0],[951.0000000000009,780.0],[951.0000000000009,781.0],[949.0,782.0],[949.0,784.0],[947.0,785.0],[947.0,787.0],[946.0000000000009,787.0],[946.0000000000009,789.0],[944.9999999999991,789.0],[944.9999999999991,791.0],[944.0,791.0],[944.0,795.0],[943.0,795.0],[943.0,798.0],[942.0,798.0],[942.0,802.0],[941.0,802.0],[941.0,805.0],[940.0000000000009,805.0],[940.0000000000009,809.0],[939.0,809.0],[939.0,813.0000000000018],[938.0,813.0000000000018],[938.0,818.0],[937.0,818.0],[937.0,820.0],[936.0,820.0],[936.0,824.0],[935.0000000000009,824.0],[935.0000000000009,826.0],[933.9999999999991,826.0],[933.9999999999991,829.0000000000018],[933.0,829.0000000000018],[933.0,832.0]]}},{"type":"Feature","id":"country-008-mainland-southwest-region-border-007-012-001","properties":{"id":"country-008-mainland-southwest-region-border-007-012-001","type":"region-border","countryId":"country-008","targetComponentId":"mainland-southwest","datasetId":"country-008/mainland-southwest","leftRegionId":"country-008-mainland-southwest-region-007","rightRegionId":"country-008-mainland-southwest-region-012"},"geometry":{"type":"LineString","coordinates":[[826.0,910.0000000000018],[827.0,910.0000000000018],[827.0,909.0],[828.0,909.0],[829.0,907.0],[832.0,907.0],[832.0,906.0000000000018],[834.0,906.0000000000018],[834.0,905.0],[837.0,905.0],[837.0,904.0000000000018],[840.0,904.0000000000018],[840.0,903.0],[842.0,903.0],[842.0,902.0000000000018],[845.0,902.0000000000018],[845.0,901.0],[847.0000000000009,901.0],[847.0000000000009,900.0000000000018],[850.0,900.0000000000018],[850.0,899.0],[852.0000000000009,899.0],[852.0000000000009,898.0000000000018],[855.0,898.0000000000018],[855.0,897.0],[856.9999999999991,897.0],[856.9999999999991,896.0000000000018],[860.0,896.0000000000018],[860.0,895.0],[862.0,895.0],[862.0,894.0],[864.0,894.0],[864.0,893.0],[867.0,893.0],[867.0,892.0],[869.0000000000009,892.0],[869.0000000000009,891.0],[873.0,891.0],[873.0,890.0],[876.0,890.0],[876.0,889.0],[885.0000000000009,889.0],[885.0000000000009,890.0],[886.0,890.0]]}},{"type":"Feature","id":"country-008-mainland-southwest-region-border-007-014-001","properties":{"id":"country-008-mainland-southwest-region-border-007-014-001","type":"region-border","countryId":"country-008","targetComponentId":"mainland-southwest","datasetId":"country-008/mainland-southwest","leftRegionId":"country-008-mainland-southwest-region-007","rightRegionId":"country-008-mainland-southwest-region-014"},"geometry":{"type":"LineString","coordinates":[[933.0,832.0],[932.0,832.0],[932.0,833.0000000000018],[929.0000000000009,833.0000000000018],[929.0000000000009,834.0],[927.0,834.0],[927.0,835.0000000000018],[915.0,835.0000000000018],[915.0,836.0],[911.0,836.0],[911.0,837.0000000000018],[908.0,837.0000000000018],[908.0,838.0],[906.0,838.0],[905.0,840.0],[903.0,840.0],[903.0,841.0000000000018],[900.9999999999991,841.0000000000018],[900.9999999999991,842.0],[900.0,842.0],[899.0,844.0],[897.0,844.0],[897.0,845.0000000000018],[896.0000000000009,845.0000000000018],[896.0000000000009,846.0],[895.0,846.0],[894.0,848.0],[891.0000000000009,848.0],[891.0000000000009,849.0000000000018],[889.0,849.0000000000018],[889.0,850.0],[888.0,850.0],[888.0,852.0],[887.0,852.0],[887.0,854.0],[886.0,854.0],[886.0,863.0],[887.0,863.0],[887.0,865.0],[888.0,865.0],[888.0,868.0],[889.0,868.0],[889.0,870.0],[889.9999999999991,870.0],[889.9999999999991,873.0],[891.0000000000009,873.0],[891.0000000000009,877.0],[892.0,877.0],[892.0,878.0],[891.0000000000009,878.0],[891.0000000000009,882.0],[889.9999999999991,882.0],[889.9999999999991,885.0],[889.0,885.0],[889.0,887.0],[888.0,887.0],[888.0,888.0],[887.0,888.0],[886.0,890.0]]}},{"type":"Feature","id":"country-008-mainland-southwest-region-border-008-013-001","properties":{"id":"country-008-mainland-southwest-region-border-008-013-001","type":"region-border","countryId":"country-008","targetComponentId":"mainland-southwest","datasetId":"country-008/mainland-southwest","leftRegionId":"country-008-mainland-southwest-region-008","rightRegionId":"country-008-mainland-southwest-region-013"},"geometry":{"type":"LineString","coordinates":[[966.9999999999991,921.0],[966.9999999999991,922.0000000000018],[968.0000000000009,922.0000000000018],[968.0000000000009,923.0],[969.0,923.0],[969.0,924.0000000000018],[970.0,924.0000000000018],[970.0,925.0],[971.0,925.0],[971.0,926.0000000000018],[972.0,926.0000000000018],[972.0,927.0],[973.0000000000009,927.0],[973.0000000000009,928.0000000000018],[974.0,928.0000000000018],[974.0,929.0],[975.0,929.0],[975.0,930.0000000000018],[976.0,930.0000000000018],[977.0,932.0000000000018],[979.0000000000009,932.0000000000018],[979.0000000000009,933.0],[980.0,933.0],[980.0,934.0000000000018],[981.0,934.0000000000018],[982.0,936.0],[984.0000000000009,936.0],[985.0000000000009,938.0000000000018],[987.0,938.0000000000018],[987.0,939.0],[989.0,939.0],[989.0,940.0],[991.0,940.0],[991.0,941.0],[993.0,941.0],[993.0,942.0000000000018],[996.0000000000009,942.0000000000018],[996.0000000000009,943.0],[1003.0,943.0],[1003.0,944.0],[1011.0,944.0],[1011.0,943.0],[1013.0,943.0],[1013.0,942.0000000000018],[1015.0,942.0000000000018],[1015.0,941.0],[1017.0000000000009,941.0],[1018.0000000000009,939.0],[1020.0,939.0],[1020.0,938.0000000000018],[1021.0,938.0000000000018],[1022.0,936.0],[1024.0,936.0],[1024.0,935.0],[1025.0,935.0],[1026.0,933.0],[1028.000000000001,933.0],[1028.000000000001,932.0000000000018],[1029.000000000001,932.0000000000018],[1030.0,930.0000000000018],[1032.0,930.0000000000018],[1032.0,929.0],[1033.0,929.0],[1033.0,928.0000000000018],[1034.000000000001,928.0000000000018],[1034.000000000001,927.0],[1035.0,927.0],[1035.0,926.0000000000018],[1036.0,926.0000000000018],[1036.0,925.0],[1037.0,925.0],[1037.0,924.0000000000018],[1038.0,924.0000000000018],[1038.0,923.0],[1039.000000000001,923.0],[1039.000000000001,922.0000000000018],[1040.000000000001,922.0000000000018],[1040.000000000001,921.0],[1041.0,921.0],[1041.0,920.0000000000018],[1042.0,920.0000000000018],[1042.0,919.0],[1043.0,919.0],[1043.0,918.0000000000018],[1044.0,918.0000000000018],[1044.0,917.0],[1044.999999999999,917.0],[1046.0,915.0],[1048.0,915.0],[1048.0,914.0000000000018],[1049.0,914.0000000000018],[1050.000000000001,912.0000000000018],[1052.0,912.0000000000018],[1052.0,911.0],[1054.0,911.0],[1054.0,910.0000000000018],[1055.999999999999,910.0000000000018],[1055.999999999999,909.0],[1059.0,909.0],[1059.0,908.0000000000018],[1063.0,908.0000000000018],[1063.0,907.0],[1071.0,907.0],[1071.0,908.0000000000018],[1075.0,908.0000000000018],[1075.0,909.0],[1077.999999999999,909.0],[1077.999999999999,910.0000000000018],[1083.000000000001,910.0000000000018],[1083.000000000001,911.0],[1086.0,911.0],[1086.0,912.0000000000018],[1090.0,912.0000000000018],[1090.0,913.0],[1092.0,913.0],[1092.0,914.0000000000018],[1094.000000000001,914.0000000000018],[1094.000000000001,915.0],[1096.0,915.0],[1096.0,916.0000000000018],[1098.0,916.0000000000018],[1098.0,917.0],[1099.999999999999,917.0],[1099.999999999999,918.0000000000018],[1102.0,918.0000000000018],[1102.0,919.0],[1105.000000000001,919.0],[1105.000000000001,920.0000000000018],[1108.0,920.0000000000018],[1108.0,921.0],[1112.0,921.0],[1112.0,922.0000000000018],[1119.0,922.0000000000018],[1119.0,923.0],[1120.0,923.0],[1120.0,922.0000000000018],[1124.0,922.0000000000018],[1124.0,921.0],[1126.0,921.0],[1126.0,920.0000000000018],[1126.999999999999,920.0000000000018],[1126.999999999999,919.0],[1128.000000000001,919.0],[1128.000000000001,918.0000000000018],[1129.0,918.0000000000018],[1129.0,917.0],[1130.0,917.0],[1130.0,916.0000000000018],[1132.0,915.0],[1132.0,913.0],[1134.0,912.0000000000018],[1134.0,910.0000000000018],[1135.0,910.0000000000018],[1135.0,908.0000000000018],[1136.0,908.0000000000018],[1136.0,907.0],[1137.0,907.0],[1137.0,906.0000000000018],[1139.000000000001,905.0],[1139.000000000001,903.0],[1140.0,903.0],[1140.0,902.0000000000018],[1141.0,902.0000000000018],[1141.0,901.0],[1142.0,901.0],[1143.0,899.0],[1145.0,899.0],[1145.0,898.0000000000018],[1154.0,898.0000000000018],[1154.0,899.0],[1156.0,899.0],[1156.0,900.0000000000018],[1158.0,900.0000000000018],[1158.0,901.0],[1159.0,901.0],[1159.0,902.0000000000018],[1159.999999999999,902.0000000000018],[1159.999999999999,903.0],[1161.000000000001,903.0],[1161.000000000001,904.0000000000018],[1163.0,905.0],[1163.0,907.0],[1165.0,908.0000000000018],[1165.0,910.0000000000018],[1165.999999999999,910.0000000000018],[1165.999999999999,911.0],[1167.0,911.0],[1167.0,912.0000000000018],[1168.0,912.0000000000018],[1168.0,913.0],[1169.0,913.0],[1169.0,914.0000000000018],[1170.0,914.0000000000018],[1170.0,915.0],[1170.999999999999,915.0],[1170.999999999999,916.0000000000018],[1172.000000000001,916.0000000000018],[1172.000000000001,917.0],[1173.0,917.0],[1174.0,919.0],[1176.0,919.0],[1176.0,920.0000000000018],[1176.999999999999,920.0000000000018],[1176.999999999999,921.0],[1179.0,921.0],[1179.0,922.0000000000018],[1181.999999999999,922.0000000000018],[1181.999999999999,923.0],[1186.0,923.0],[1186.0,924.0000000000018],[1189.000000000001,924.0000000000018],[1189.000000000001,923.0],[1193.0,923.0],[1193.0,922.0000000000018],[1195.0,922.0000000000018],[1195.0,921.0],[1198.0,921.0],[1198.0,920.0000000000018],[1201.0,920.0000000000018],[1201.0,919.0],[1203.0,919.0],[1203.0,918.0000000000018],[1204.0,918.0000000000018],[1204.0,917.0],[1206.0,916.0000000000018],[1206.0,912.0000000000018],[1207.0,912.0000000000018],[1207.0,902.0000000000018],[1208.0,902.0000000000018],[1208.0,901.0],[1209.999999999999,901.0],[1209.999999999999,900.0000000000018],[1216.000000000001,900.0000000000018],[1216.000000000001,899.0],[1220.999999999999,899.0],[1220.999999999999,898.0000000000018],[1224.0,898.0000000000018],[1225.0,896.0000000000018],[1227.000000000001,896.0000000000018],[1227.000000000001,895.0],[1228.0,895.0],[1228.0,894.0],[1230.0,893.0]]}},{"type":"Feature","id":"country-008-mainland-southwest-region-border-008-014-001","properties":{"id":"country-008-mainland-southwest-region-border-008-014-001","type":"region-border","countryId":"country-008","targetComponentId":"mainland-southwest","datasetId":"country-008/mainland-southwest","leftRegionId":"country-008-mainland-southwest-region-008","rightRegionId":"country-008-mainland-southwest-region-014"},"geometry":{"type":"LineString","coordinates":[[933.0,832.0],[933.0,833.0000000000018],[935.0000000000009,833.0000000000018],[935.0000000000009,834.0],[937.0,834.0],[938.0,836.0],[940.0000000000009,836.0],[940.0000000000009,837.0000000000018],[942.0,837.0000000000018],[943.0,839.0000000000018],[944.9999999999991,839.0000000000018],[944.9999999999991,840.0],[946.0000000000009,840.0],[946.0000000000009,841.0000000000018],[947.0,841.0000000000018],[947.0,842.0],[948.0,842.0],[948.0,843.0000000000018],[949.0,843.0000000000018],[949.0,844.0],[950.0,844.0],[950.0,845.0000000000018],[951.0000000000009,845.0000000000018],[951.0000000000009,846.0],[952.0,846.0],[953.0,848.0],[955.0,848.0],[955.9999999999991,850.0],[959.0,850.0],[960.0,852.0],[962.0000000000009,852.0],[962.0000000000009,853.0000000000018],[964.0,853.0000000000018],[964.0,854.0],[965.0,854.0],[966.0,856.0],[968.0000000000009,856.0],[968.0000000000009,857.0000000000018],[970.0,858.0],[970.0,860.0],[972.0,861.0],[972.0,863.0],[974.0,864.0],[974.0,866.0],[975.0,866.0],[975.0,868.0],[977.0,869.0],[977.0,871.0],[979.0000000000009,872.0],[979.0000000000009,875.0],[980.0,875.0],[980.0,877.0],[981.0,877.0],[981.0,879.0],[982.0,879.0],[982.0,882.0],[983.0,882.0],[983.0,889.0],[984.0000000000009,889.0],[984.0000000000009,890.0],[983.0,890.0],[983.0,900.0000000000018],[982.0,900.0000000000018],[982.0,902.0000000000018],[981.0,902.0000000000018],[981.0,904.0000000000018],[980.0,904.0000000000018],[980.0,906.0000000000018],[979.0000000000009,906.0000000000018],[979.0000000000009,907.0],[977.9999999999991,907.0],[977.9999999999991,908.0000000000018],[977.0,908.0000000000018],[977.0,909.0],[975.0,910.0000000000018],[975.0,912.0000000000018],[974.0,912.0000000000018],[974.0,913.0],[973.0000000000009,913.0],[973.0000000000009,914.0000000000018],[972.0,914.0000000000018],[972.0,915.0],[971.0,915.0],[971.0,916.0000000000018],[970.0,916.0000000000018],[970.0,917.0],[969.0,917.0],[969.0,918.0000000000018],[966.9999999999991,919.0],[966.9999999999991,921.0]]}},{"type":"Feature","id":"country-008-mainland-southwest-region-border-009-010-001","properties":{"id":"country-008-mainland-southwest-region-border-009-010-001","type":"region-border","countryId":"country-008","targetComponentId":"mainland-southwest","datasetId":"country-008/mainland-southwest","leftRegionId":"country-008-mainland-southwest-region-009","rightRegionId":"country-008-mainland-southwest-region-010"},"geometry":{"type":"LineString","coordinates":[[1256.0,995.0000000000018],[1259.0,995.0000000000018],[1259.0,994.0],[1261.0,994.0],[1261.0,993.0000000000018],[1264.0,993.0000000000018],[1264.0,992.0],[1266.000000000001,992.0],[1266.000000000001,991.0000000000018],[1270.0,991.0000000000018],[1270.0,990.0],[1272.0,990.0],[1272.0,989.0000000000018],[1274.0,989.0000000000018],[1274.0,988.0],[1277.000000000001,988.0],[1278.0,986.0],[1280.0,986.0],[1281.0,984.0],[1284.0,984.0],[1284.0,983.0000000000018],[1292.0,983.0000000000018],[1292.0,984.0],[1295.0,984.0],[1295.0,985.0000000000018],[1297.999999999999,985.0000000000018],[1297.999999999999,986.0],[1300.0,986.0],[1300.0,987.0000000000018],[1302.0,987.0000000000018],[1302.0,988.0],[1304.000000000001,988.0],[1304.000000000001,989.0000000000018],[1306.0,989.0000000000018],[1307.0,991.0000000000018],[1308.999999999999,991.0000000000018],[1308.999999999999,992.0],[1310.000000000001,992.0],[1310.000000000001,993.0000000000018],[1312.0,993.0000000000018],[1313.0,995.0000000000018],[1315.000000000001,995.0000000000018],[1315.000000000001,996.0],[1318.0,996.0],[1318.0,997.0000000000018],[1319.999999999999,997.0000000000018],[1319.999999999999,998.0],[1323.0,998.0],[1323.0,999.0000000000018],[1326.000000000001,999.0000000000018],[1326.000000000001,1000.0],[1329.0,1000.0],[1329.0,1001.0000000000018],[1341.0,1001.0000000000018],[1341.0,1000.0],[1349.0,1000.0],[1349.0,999.0000000000018],[1355.0,999.0000000000018],[1355.0,998.0],[1359.000000000001,998.0],[1359.000000000001,997.0000000000018],[1363.0,997.0000000000018],[1363.0,996.0],[1366.0,996.0],[1366.0,995.0000000000018],[1369.0,995.0000000000018],[1369.0,994.0],[1374.0,994.0]]}},{"type":"Feature","id":"country-008-mainland-southwest-region-border-009-013-001","properties":{"id":"country-008-mainland-southwest-region-border-009-013-001","type":"region-border","countryId":"country-008","targetComponentId":"mainland-southwest","datasetId":"country-008/mainland-southwest","leftRegionId":"country-008-mainland-southwest-region-009","rightRegionId":"country-008-mainland-southwest-region-013"},"geometry":{"type":"LineString","coordinates":[[1269.0,948.0],[1269.0,950.0],[1268.0,950.0],[1268.0,961.0],[1267.0,961.0],[1267.0,963.0],[1266.000000000001,963.0],[1266.000000000001,965.0],[1264.999999999999,965.0],[1264.999999999999,966.0],[1263.0,966.0],[1263.0,967.0],[1261.0,967.0],[1261.0,968.0],[1259.0,968.0],[1259.0,969.0],[1258.0,969.0],[1258.0,970.0],[1257.0,970.0],[1256.0,972.0],[1253.0,972.0],[1253.0,973.0],[1252.0,973.0],[1251.0,975.0],[1249.000000000001,975.0],[1249.000000000001,976.0],[1248.0,976.0],[1248.0,979.0],[1247.0,979.0],[1247.0,981.0000000000018],[1248.0,981.0000000000018],[1248.0,985.0000000000018],[1249.000000000001,985.0000000000018],[1249.000000000001,986.0],[1250.0,986.0],[1250.0,987.0000000000018],[1251.0,987.0000000000018],[1251.0,988.0],[1253.0,989.0000000000018],[1253.0,991.0000000000018],[1255.000000000001,992.0],[1255.000000000001,994.0],[1256.0,994.0],[1256.0,995.0000000000018]]}},{"type":"Feature","id":"country-008-mainland-southwest-region-border-010-011-001","properties":{"id":"country-008-mainland-southwest-region-border-010-011-001","type":"region-border","countryId":"country-008","targetComponentId":"mainland-southwest","datasetId":"country-008/mainland-southwest","leftRegionId":"country-008-mainland-southwest-region-010","rightRegionId":"country-008-mainland-southwest-region-011"},"geometry":{"type":"LineString","coordinates":[[1359.000000000001,1190.0],[1359.000000000001,1182.0],[1360.0,1182.0],[1360.0,1178.0],[1361.0,1178.0],[1361.0,1176.0],[1362.0,1176.0],[1362.0,1174.0],[1363.999999999999,1173.0000000000018],[1363.999999999999,1171.0000000000018],[1366.0,1170.0],[1366.0,1168.0],[1367.0,1168.0],[1368.0,1166.0],[1370.000000000001,1166.0],[1371.0,1164.0],[1373.0,1164.0],[1374.0,1162.0],[1376.000000000001,1162.0],[1377.0,1160.0],[1379.0,1160.0],[1379.0,1159.0000000000018],[1381.000000000001,1159.0000000000018],[1382.0,1157.0000000000018],[1384.0,1157.0000000000018],[1384.0,1156.0],[1387.000000000001,1156.0],[1387.000000000001,1155.0000000000018],[1390.0,1155.0000000000018],[1390.0,1154.0],[1392.000000000001,1154.0],[1392.000000000001,1153.0000000000018],[1396.999999999999,1153.0000000000018],[1396.999999999999,1152.0],[1400.0,1152.0],[1400.0,1151.0],[1428.0,1151.0],[1428.0,1152.0],[1441.999999999999,1152.0],[1441.999999999999,1151.0],[1446.0,1151.0],[1446.0,1150.0],[1450.0,1150.0],[1450.0,1149.0],[1452.0,1149.0],[1452.0,1148.0],[1454.0,1148.0],[1455.0,1146.0],[1457.0,1146.0],[1457.0,1145.0],[1459.000000000001,1145.0],[1460.0,1143.0],[1462.0,1143.0],[1462.0,1142.0],[1463.999999999999,1142.0],[1463.999999999999,1141.0],[1466.0,1141.0],[1466.0,1140.0],[1467.0,1140.0],[1467.0,1139.0],[1468.0,1139.0],[1468.0,1138.0],[1469.000000000001,1138.0],[1470.000000000001,1136.0],[1472.0,1136.0],[1473.0,1134.0],[1474.999999999999,1134.0],[1474.999999999999,1132.0],[1477.0,1131.0],[1477.0,1128.0],[1478.0,1128.0],[1478.0,1126.0],[1479.0,1126.0],[1479.0,1121.0]]}},{"type":"Feature","id":"country-008-mainland-southwest-region-border-010-013-001","properties":{"id":"country-008-mainland-southwest-region-border-010-013-001","type":"region-border","countryId":"country-008","targetComponentId":"mainland-southwest","datasetId":"country-008/mainland-southwest","leftRegionId":"country-008-mainland-southwest-region-010","rightRegionId":"country-008-mainland-southwest-region-013"},"geometry":{"type":"LineString","coordinates":[[1256.0,995.0000000000018],[1256.0,997.0000000000018],[1255.000000000001,997.0000000000018],[1255.000000000001,999.0000000000018],[1253.999999999999,999.0000000000018],[1253.999999999999,1000.0],[1253.0,1000.0],[1252.0,1002.0],[1249.000000000001,1002.0],[1249.000000000001,1003.0000000000018],[1246.0,1003.0000000000018],[1246.0,1004.0],[1240.0,1004.0],[1240.0,1005.0000000000018],[1237.0,1005.0000000000018],[1237.0,1006.0],[1236.0,1006.0],[1236.0,1010.0],[1235.0,1010.0],[1235.0,1016.0],[1234.0,1016.0],[1234.0,1018.0]]}},{"type":"Feature","id":"country-008-mainland-southwest-region-border-012-013-001","properties":{"id":"country-008-mainland-southwest-region-border-012-013-001","type":"region-border","countryId":"country-008","targetComponentId":"mainland-southwest","datasetId":"country-008/mainland-southwest","leftRegionId":"country-008-mainland-southwest-region-012","rightRegionId":"country-008-mainland-southwest-region-013"},"geometry":{"type":"LineString","coordinates":[[939.0,950.0],[939.0,952.0],[938.0,952.0],[938.0,956.0],[937.0,956.0],[937.0,959.0],[936.0,959.0],[936.0,962.0],[933.9999999999991,963.0],[933.9999999999991,965.0],[932.0,966.0],[932.0,968.0],[931.0,968.0],[931.0,969.0],[929.0000000000009,970.0],[929.0000000000009,972.0],[927.0,973.0],[927.0,975.0],[926.0,975.0],[926.0,976.0],[925.0,976.0],[925.0,978.0],[924.0000000000009,978.0],[924.0000000000009,981.0000000000018],[922.9999999999991,981.0000000000018],[922.9999999999991,984.0],[922.0,984.0],[922.0,988.0],[921.0,988.0],[921.0,991.0000000000018],[920.0,991.0000000000018],[920.0,996.0],[919.0,996.0],[919.0,998.0],[918.0000000000009,998.0],[918.0000000000009,1002.0],[917.0,1002.0],[917.0,1007.0000000000018],[916.0,1007.0000000000018],[916.0,1010.0],[915.0,1010.0],[915.0,1013.0000000000018]]}},{"type":"Feature","id":"country-008-mainland-southwest-region-border-012-014-001","properties":{"id":"country-008-mainland-southwest-region-border-012-014-001","type":"region-border","countryId":"country-008","targetComponentId":"mainland-southwest","datasetId":"country-008/mainland-southwest","leftRegionId":"country-008-mainland-southwest-region-012","rightRegionId":"country-008-mainland-southwest-region-014"},"geometry":{"type":"LineString","coordinates":[[886.0,890.0],[886.0,900.0000000000018],[885.0000000000009,900.0000000000018],[885.0000000000009,904.0000000000018],[884.0,904.0000000000018],[884.0,909.0],[883.0,909.0],[883.0,917.0],[884.0,917.0],[884.0,920.0000000000018],[885.0000000000009,920.0000000000018],[886.0,922.0000000000018],[888.0,922.0000000000018],[888.0,923.0],[893.0,923.0],[893.0,924.0000000000018],[897.0,924.0000000000018],[897.0,925.0],[902.0000000000009,925.0],[902.0000000000009,926.0000000000018],[904.0,926.0000000000018],[904.0,927.0],[906.0,927.0],[906.0,929.0],[907.0000000000009,929.0],[907.0000000000009,932.0000000000018],[908.0,932.0000000000018],[908.0,934.0000000000018],[909.0,934.0000000000018],[909.0,936.0],[910.0,936.0],[910.0,938.0000000000018],[911.0,938.0000000000018],[911.0,939.0],[911.9999999999991,939.0],[911.9999999999991,940.0],[913.0000000000009,940.0],[913.0000000000009,941.0],[914.0,941.0],[914.0,942.0000000000018],[915.0,942.0000000000018],[915.0,943.0],[916.0,943.0],[917.0,945.0],[919.0,945.0],[919.0,946.0],[922.0,946.0],[922.0,947.0],[927.0,947.0],[927.0,948.0],[931.0,948.0],[931.0,949.0],[937.0,949.0],[937.0,950.0],[939.0,950.0]]}},{"type":"Feature","id":"country-008-mainland-southwest-region-border-013-014-001","properties":{"id":"country-008-mainland-southwest-region-border-013-014-001","type":"region-border","countryId":"country-008","targetComponentId":"mainland-southwest","datasetId":"country-008/mainland-southwest","leftRegionId":"country-008-mainland-southwest-region-013","rightRegionId":"country-008-mainland-southwest-region-014"},"geometry":{"type":"LineString","coordinates":[[966.9999999999991,921.0],[961.0,921.0],[961.0,922.0000000000018],[960.0,922.0000000000018],[960.0,923.0],[959.0,923.0],[959.0,924.0000000000018],[957.0000000000009,925.0],[957.0000000000009,927.0],[955.0,928.0000000000018],[955.0,930.0000000000018],[954.0,930.0000000000018],[954.0,931.0],[953.0,931.0],[953.0,933.0],[951.0000000000009,934.0000000000018],[951.0000000000009,936.0],[950.0,936.0],[950.0,938.0000000000018],[949.0,938.0000000000018],[949.0,940.0],[948.0,940.0],[948.0,941.0],[946.0000000000009,942.0000000000018],[946.0000000000009,944.0],[944.9999999999991,944.0],[944.9999999999991,945.0],[944.0,945.0],[944.0,946.0],[943.0,946.0],[943.0,947.0],[942.0,947.0],[942.0,948.0],[941.0,948.0],[941.0,949.0],[939.0,950.0]]}}]}