{"type":"FeatureCollection","features":[{"type":"Feature","id":"border-002-007-0001","properties":{"id":"border-002-007-0001","type":"international","leftCountry":"country-002","rightCountry":"country-007"},"geometry":{"type":"LineString","coordinates":[[972.0,448.0],[972.0,449.0],[973.0,449.0],[973.0,450.0],[974.0,450.0],[974.0,451.0],[975.0,451.0],[975.0,452.0],[976.0,452.0],[976.0,453.0],[977.0,453.0],[977.0,454.0],[978.0,454.0],[978.0,455.0],[979.0,455.0],[979.0,456.0],[980.0,456.0],[980.0,457.0],[982.0,458.0],[982.0,460.0],[983.0,460.0],[983.0,461.0],[982.0,461.0],[982.0,463.0],[983.0,463.0],[983.0,466.0],[982.0,466.0],[982.0,468.0],[981.0,468.0],[981.0,469.0],[979.0,469.0],[979.0,470.0],[977.0,471.0],[977.0,473.0],[976.0,473.0],[976.0,474.0],[975.0,474.0],[975.0,475.0],[974.0,475.0],[974.0,476.0],[972.0,477.0],[972.0,484.0]]}},{"type":"Feature","id":"border-002-009-0001","properties":{"id":"border-002-009-0001","type":"international","leftCountry":"country-002","rightCountry":"country-009"},"geometry":{"type":"LineString","coordinates":[[973.0,423.0],[973.0,440.0],[972.0,440.0],[972.0,448.0]]}},{"type":"Feature","id":"border-003-006-0001","properties":{"id":"border-003-006-0001","type":"international","leftCountry":"country-003","rightCountry":"country-006"},"geometry":{"type":"MultiLineString","coordinates":[[[338.0,504.0],[338.0,505.0]],[[338.0,505.0],[339.0,505.0],[339.0,508.0],[338.0,508.0],[338.0,510.0],[336.0,511.0],[336.0,513.0],[334.0,514.0],[334.0,516.0],[333.0,516.0],[333.0,517.0],[332.0,517.0],[332.0,518.0],[330.0,519.0],[330.0,522.0],[328.0,523.0],[328.0,525.0],[327.0,525.0],[327.0,526.0],[326.0,526.0],[326.0,528.0],[324.0,529.0],[324.0,534.0],[323.0,534.0],[323.0,536.0],[324.0,536.0],[324.0,542.0],[325.0,542.0],[325.0,547.0],[326.0,547.0],[326.0,553.0],[327.0,553.0],[327.0,556.0],[328.0,556.0],[328.0,557.0],[327.0,557.0],[327.0,559.0]],[[327.0,559.0],[327.0,562.0]],[[327.0,562.0],[326.0,562.0]],[[326.0,562.0],[326.0,563.0]]]}},{"type":"Feature","id":"border-004-005-0001","properties":{"id":"border-004-005-0001","type":"international","leftCountry":"country-004","rightCountry":"country-005"},"geometry":{"type":"LineString","coordinates":[[301.0,742.0],[301.0,739.0],[302.0,739.0],[302.0,738.0],[303.0,738.0],[303.0,737.0],[304.0,737.0],[305.0,735.0],[311.0,735.0],[312.0,737.0],[315.0,737.0],[315.0,738.0],[316.0,738.0],[316.0,739.0],[317.0,739.0],[317.0,740.0],[318.0,740.0],[319.0,742.0],[321.0,742.0],[321.0,743.0],[325.0,743.0],[325.0,744.0],[326.0,744.0],[326.0,743.0],[328.0,743.0],[328.0,742.0],[334.0,742.0],[334.0,743.0],[335.0,743.0],[335.0,744.0],[336.0,744.0],[336.0,745.0],[338.0,746.0]]}},{"type":"Feature","id":"border-004-006-0001","properties":{"id":"border-004-006-0001","type":"international","leftCountry":"country-004","rightCountry":"country-006"},"geometry":{"type":"LineString","coordinates":[[387.0,621.0],[391.0,621.0],[391.0,620.0],[393.0,619.0],[393.0,617.0],[406.0,617.0],[406.0,616.0],[407.0,616.0],[407.0,615.0],[408.0,615.0],[408.0,614.0],[409.0,614.0],[409.0,613.0],[410.0,613.0],[411.0,611.0],[414.0,611.0],[414.0,610.0],[420.0,610.0],[420.0,609.0],[439.0,609.0],[439.0,610.0],[441.0,610.0],[441.0,611.0],[444.0,611.0],[444.0,612.0],[445.0,612.0],[446.0,614.0],[451.0,614.0],[451.0,613.0],[453.0,613.0],[453.0,612.0],[463.0,612.0],[463.0,611.0],[464.0,611.0]]}},{"type":"Feature","id":"border-004-013-0001","properties":{"id":"border-004-013-0001","type":"international","leftCountry":"country-004","rightCountry":"country-013"},"geometry":{"type":"MultiLineString","coordinates":[[[464.0,611.0],[464.0,612.0],[465.0,612.0],[465.0,613.0],[467.0,614.0],[467.0,620.0],[466.0,620.0],[465.0,624.0],[463.0,625.0],[463.0,627.0],[462.0,627.0],[462.0,628.0],[461.0,628.0],[460.0,630.0],[458.0,630.0],[457.0,632.0],[455.0,632.0],[455.0,634.0],[454.0,634.0],[454.0,635.0],[452.0,636.0],[452.0,639.0],[451.0,639.0],[451.0,646.0],[452.0,646.0],[452.0,647.0],[454.0,648.0],[454.0,663.0],[453.0,663.0],[453.0,665.0],[452.0,665.0],[452.0,666.0],[451.0,666.0],[451.0,667.0],[450.0,667.0],[449.0,669.0],[444.0,669.0],[443.0,671.0],[441.0,671.0],[441.0,672.0],[440.0,672.0],[440.0,673.0],[439.0,673.0],[439.0,674.0],[438.0,674.0],[438.0,675.0],[437.0,675.0],[436.0,677.0],[431.0,677.0],[431.0,678.0],[429.0,679.0],[429.0,681.0],[428.0,681.0],[428.0,683.0],[427.0,683.0],[427.0,686.0],[426.0,686.0],[425.0,690.0],[423.0,691.0],[423.0,693.0],[422.0,693.0],[422.0,694.0],[421.0,694.0],[421.0,695.0],[420.0,695.0],[420.0,696.0],[419.0,696.0],[419.0,697.0],[418.0,697.0],[417.0,699.0],[415.0,699.0],[415.0,700.0],[414.0,700.0],[414.0,702.0],[413.0,702.0],[413.0,713.0],[412.0,713.0],[412.0,716.0],[413.0,716.0],[413.0,718.0],[415.0,719.0],[415.0,721.0],[416.0,721.0],[416.0,722.0],[418.0,722.0],[418.0,723.0],[432.0,723.0],[432.0,724.0],[433.0,724.0],[434.0,726.0],[438.0,726.0],[438.0,727.0],[440.0,728.0],[440.0,732.0],[441.0,732.0],[441.0,733.0],[443.0,733.0],[443.0,734.0]],[[443.0,734.0],[443.0,735.0]]]}},{"type":"Feature","id":"border-006-013-0001","properties":{"id":"border-006-013-0001","type":"international","leftCountry":"country-006","rightCountry":"country-013"},"geometry":{"type":"LineString","coordinates":[[464.0,611.0],[464.0,610.0],[466.0,609.0],[466.0,606.0],[468.0,605.0],[469.0,601.0],[470.0,601.0],[470.0,600.0],[471.0,600.0],[471.0,598.0],[473.0,597.0],[473.0,593.0],[472.0,593.0],[472.0,592.0],[482.0,592.0],[482.0,593.0],[488.0,593.0],[488.0,595.0],[489.0,595.0],[489.0,596.0],[494.0,596.0],[494.0,597.0],[496.0,597.0],[496.0,599.0],[497.0,599.0],[497.0,600.0],[500.0,600.0],[500.0,602.0],[501.0,602.0],[501.0,603.0],[502.0,603.0],[502.0,602.0],[503.0,602.0],[504.0,600.0],[506.0,600.0],[506.0,601.0],[507.0,601.0],[507.0,600.0],[509.0,599.0]]}},{"type":"Feature","id":"border-006-017-0001","properties":{"id":"border-006-017-0001","type":"international","leftCountry":"country-006","rightCountry":"country-017"},"geometry":{"type":"MultiLineString","coordinates":[[[485.0,503.0],[485.0,504.0]],[[485.0,504.0],[485.0,505.0],[486.0,505.0],[486.0,508.0],[487.0,508.0],[487.0,512.0],[488.0,512.0],[487.0,520.0],[486.0,520.0],[486.0,522.0],[484.0,523.0],[484.0,526.0],[483.0,526.0],[483.0,527.0],[482.0,527.0],[481.0,529.0],[479.0,529.0],[478.0,533.0],[476.0,534.0],[476.0,536.0],[475.0,536.0],[475.0,538.0],[474.0,538.0],[474.0,540.0],[473.0,540.0],[473.0,546.0],[474.0,546.0],[474.0,549.0],[476.0,549.0],[476.0,550.0],[479.0,550.0],[479.0,551.0],[482.0,551.0],[482.0,552.0],[483.0,552.0],[483.0,553.0],[484.0,553.0],[484.0,554.0],[485.0,554.0],[485.0,555.0],[486.0,555.0],[486.0,556.0],[487.0,556.0],[487.0,557.0],[488.0,557.0],[489.0,559.0],[491.0,559.0],[491.0,560.0],[493.0,560.0],[493.0,561.0],[497.0,561.0],[497.0,562.0],[498.0,562.0],[498.0,563.0],[499.0,563.0],[500.0,565.0],[502.0,565.0],[502.0,566.0],[504.0,567.0],[504.0,571.0],[505.0,571.0],[505.0,573.0],[506.0,573.0],[506.0,574.0],[509.0,574.0],[509.0,575.0],[512.0,575.0],[512.0,576.0],[514.0,576.0],[514.0,577.0],[512.0,578.0],[512.0,580.0],[511.0,580.0],[511.0,581.0],[512.0,581.0],[512.0,583.0],[511.0,583.0],[511.0,584.0],[509.0,585.0],[509.0,588.0],[510.0,588.0],[510.0,589.0],[511.0,589.0],[511.0,591.0],[512.0,591.0],[512.0,593.0],[511.0,593.0],[511.0,594.0],[509.0,595.0],[509.0,599.0]]]}},{"type":"Feature","id":"border-007-008-0001","properties":{"id":"border-007-008-0001","type":"international","leftCountry":"country-007","rightCountry":"country-008"},"geometry":{"type":"LineString","coordinates":[[850.0,488.0],[851.0,488.0],[851.0,489.0]]}},{"type":"Feature","id":"border-007-008-0002","properties":{"id":"border-007-008-0002","type":"international","leftCountry":"country-007","rightCountry":"country-008"},"geometry":{"type":"LineString","coordinates":[[852.0,490.0],[852.0,491.0]]}},{"type":"Feature","id":"border-007-008-0003","properties":{"id":"border-007-008-0003","type":"international","leftCountry":"country-007","rightCountry":"country-008"},"geometry":{"type":"LineString","coordinates":[[853.0,511.0],[853.0,516.0],[854.0,516.0],[854.0,520.0],[855.0,520.0],[855.0,521.0]]}},{"type":"Feature","id":"border-007-008-0004","properties":{"id":"border-007-008-0004","type":"international","leftCountry":"country-007","rightCountry":"country-008"},"geometry":{"type":"LineString","coordinates":[[854.0,494.0],[855.0,494.0]]}},{"type":"Feature","id":"border-007-008-0005","properties":{"id":"border-007-008-0005","type":"international","leftCountry":"country-007","rightCountry":"country-008"},"geometry":{"type":"LineString","coordinates":[[854.0,508.0],[854.0,509.0]]}},{"type":"Feature","id":"border-007-008-0006","properties":{"id":"border-007-008-0006","type":"international","leftCountry":"country-007","rightCountry":"country-008"},"geometry":{"type":"LineString","coordinates":[[856.0,495.0],[858.0,495.0],[859.0,497.0]]}},{"type":"Feature","id":"border-007-008-0007","properties":{"id":"border-007-008-0007","type":"international","leftCountry":"country-007","rightCountry":"country-008"},"geometry":{"type":"LineString","coordinates":[[856.0,504.0],[856.0,505.0]]}},{"type":"Feature","id":"border-007-008-0008","properties":{"id":"border-007-008-0008","type":"international","leftCountry":"country-007","rightCountry":"country-008"},"geometry":{"type":"LineString","coordinates":[[857.0,502.0],[857.0,503.0]]}},{"type":"Feature","id":"border-007-008-0009","properties":{"id":"border-007-008-0009","type":"international","leftCountry":"country-007","rightCountry":"country-008"},"geometry":{"type":"LineString","coordinates":[[859.0,498.0],[859.0,501.0],[858.0,501.0]]}},{"type":"Feature","id":"border-007-008-0010","properties":{"id":"border-007-008-0010","type":"international","leftCountry":"country-007","rightCountry":"country-008"},"geometry":{"type":"LineString","coordinates":[[861.0,526.0],[862.0,526.0],[862.0,527.0],[864.0,528.0],[864.0,533.0],[863.0,533.0],[863.0,535.0],[862.0,535.0]]}},{"type":"Feature","id":"border-007-009-0001","properties":{"id":"border-007-009-0001","type":"international","leftCountry":"country-007","rightCountry":"country-009"},"geometry":{"type":"LineString","coordinates":[[906.0,446.0],[907.0,448.0],[911.0,448.0],[911.0,447.0],[914.0,447.0],[914.0,446.0],[920.0,446.0],[920.0,445.0],[925.0,445.0],[925.0,444.0],[928.0,444.0],[928.0,445.0],[929.0,445.0],[929.0,444.0],[932.0,444.0],[932.0,445.0],[934.0,446.0],[934.0,449.0],[936.0,450.0],[936.0,449.0],[937.0,449.0],[937.0,448.0],[938.0,448.0],[938.0,447.0],[939.0,447.0],[939.0,446.0],[940.0,446.0],[940.0,445.0],[941.0,445.0],[941.0,444.0],[942.0,444.0],[943.0,442.0],[953.0,442.0],[955.0,446.0],[961.0,446.0],[962.0,448.0],[965.0,448.0],[965.0,449.0],[971.0,449.0],[971.0,448.0],[972.0,448.0]]}},{"type":"Feature","id":"border-007-010-0001","properties":{"id":"border-007-010-0001","type":"international","leftCountry":"country-007","rightCountry":"country-010"},"geometry":{"type":"LineString","coordinates":[[858.0,472.0],[858.0,476.0],[857.0,476.0],[857.0,477.0],[856.0,477.0],[855.0,479.0],[847.0,479.0],[847.0,480.0],[846.0,480.0],[846.0,482.0],[848.0,483.0],[848.0,487.0]]}},{"type":"Feature","id":"border-007-010-0002","properties":{"id":"border-007-010-0002","type":"international","leftCountry":"country-007","rightCountry":"country-010"},"geometry":{"type":"LineString","coordinates":[[859.0,471.0],[859.0,470.0],[860.0,470.0],[861.0,468.0],[865.0,467.0],[865.0,466.0],[866.0,466.0],[866.0,465.0],[867.0,465.0],[867.0,464.0],[868.0,464.0],[869.0,462.0],[871.0,462.0],[871.0,461.0],[872.0,461.0],[873.0,459.0],[876.0,459.0],[877.0,457.0],[879.0,457.0],[879.0,458.0],[880.0,458.0],[880.0,457.0],[887.0,457.0],[887.0,456.0],[890.0,456.0],[890.0,455.0],[892.0,455.0],[893.0,453.0],[897.0,452.0],[897.0,451.0],[898.0,451.0],[898.0,450.0],[899.0,450.0],[900.0,448.0],[903.0,448.0],[903.0,447.0],[905.0,447.0],[905.0,446.0],[906.0,446.0]]}},{"type":"Feature","id":"border-007-019-0001","properties":{"id":"border-007-019-0001","type":"international","leftCountry":"country-007","rightCountry":"country-019"},"geometry":{"type":"LineString","coordinates":[[864.0,538.0],[866.0,538.0],[866.0,537.0],[871.0,537.0],[871.0,536.0],[875.0,536.0],[875.0,537.0],[876.0,537.0],[876.0,536.0],[880.0,536.0],[880.0,535.0],[881.0,535.0],[881.0,534.0],[882.0,534.0],[882.0,533.0],[883.0,533.0],[883.0,532.0],[884.0,532.0],[884.0,531.0],[885.0,531.0],[886.0,529.0],[888.0,529.0],[888.0,530.0],[890.0,530.0],[890.0,531.0],[891.0,531.0],[892.0,533.0],[894.0,533.0],[894.0,534.0],[895.0,534.0],[895.0,536.0],[896.0,536.0],[897.0,538.0],[901.0,539.0],[901.0,540.0],[902.0,540.0],[903.0,542.0],[905.0,542.0],[905.0,543.0],[907.0,544.0]]}},{"type":"Feature","id":"border-008-010-0001","properties":{"id":"border-008-010-0001","type":"international","leftCountry":"country-008","rightCountry":"country-010"},"geometry":{"type":"LineString","coordinates":[[758.0,513.0],[759.0,513.0],[759.0,512.0],[760.0,512.0],[760.0,511.0],[761.0,511.0],[761.0,510.0],[762.0,510.0],[762.0,509.0],[764.0,508.0],[764.0,505.0],[763.0,505.0],[763.0,503.0],[762.0,503.0],[762.0,498.0],[763.0,498.0],[763.0,494.0],[764.0,494.0],[764.0,490.0],[763.0,490.0],[763.0,486.0],[764.0,486.0],[764.0,484.0],[776.0,484.0],[776.0,485.0],[782.0,486.0],[782.0,487.0],[784.0,487.0],[784.0,488.0],[787.0,488.0],[787.0,489.0],[789.0,489.0],[789.0,490.0],[796.0,490.0],[796.0,489.0],[797.0,489.0],[797.0,488.0],[798.0,488.0],[798.0,487.0],[799.0,487.0],[800.0,485.0],[802.0,485.0],[802.0,484.0],[803.0,484.0]]}},{"type":"Feature","id":"border-008-010-0002","properties":{"id":"border-008-010-0002","type":"international","leftCountry":"country-008","rightCountry":"country-010"},"geometry":{"type":"LineString","coordinates":[[817.0,490.0],[818.0,490.0],[818.0,491.0],[821.0,491.0],[821.0,492.0],[823.0,492.0]]}},{"type":"Feature","id":"border-008-010-0003","properties":{"id":"border-008-010-0003","type":"international","leftCountry":"country-008","rightCountry":"country-010"},"geometry":{"type":"LineString","coordinates":[[827.0,494.0],[827.0,495.0],[829.0,495.0],[829.0,496.0],[841.0,496.0],[841.0,495.0],[843.0,495.0],[843.0,494.0],[844.0,494.0],[844.0,493.0],[846.0,492.0],[846.0,490.0],[847.0,490.0],[848.0,488.0]]}},{"type":"Feature","id":"border-008-013-0001","properties":{"id":"border-008-013-0001","type":"international","leftCountry":"country-008","rightCountry":"country-013"},"geometry":{"type":"LineString","coordinates":[[455.0,726.0],[455.0,725.0],[456.0,725.0],[456.0,724.0],[457.0,724.0],[457.0,723.0],[458.0,723.0],[458.0,722.0],[459.0,722.0],[460.0,720.0],[469.0,718.0],[469.0,716.0],[470.0,716.0],[470.0,713.0],[471.0,713.0]]}},{"type":"Feature","id":"border-008-013-0002","properties":{"id":"border-008-013-0002","type":"international","leftCountry":"country-008","rightCountry":"country-013"},"geometry":{"type":"LineString","coordinates":[[473.0,712.0],[475.0,712.0],[475.0,711.0],[476.0,711.0]]}},{"type":"Feature","id":"border-008-013-0003","properties":{"id":"border-008-013-0003","type":"international","leftCountry":"country-008","rightCountry":"country-013"},"geometry":{"type":"LineString","coordinates":[[483.0,711.0],[483.0,714.0],[484.0,714.0],[484.0,716.0],[485.0,716.0],[485.0,717.0],[487.0,718.0],[488.0,722.0]]}},{"type":"Feature","id":"border-008-014-0001","properties":{"id":"border-008-014-0001","type":"international","leftCountry":"country-008","rightCountry":"country-014"},"geometry":{"type":"LineString","coordinates":[[764.0,780.0],[766.0,780.0],[766.0,779.0],[768.0,779.0],[768.0,778.0],[775.0,778.0]]}},{"type":"Feature","id":"border-008-014-0002","properties":{"id":"border-008-014-0002","type":"international","leftCountry":"country-008","rightCountry":"country-014"},"geometry":{"type":"LineString","coordinates":[[776.0,778.0],[779.0,778.0],[779.0,777.0],[786.0,777.0],[787.0,775.0]]}},{"type":"Feature","id":"border-008-015-0001","properties":{"id":"border-008-015-0001","type":"international","leftCountry":"country-008","rightCountry":"country-015"},"geometry":{"type":"LineString","coordinates":[[788.0,775.0],[788.0,776.0],[789.0,776.0],[789.0,782.0],[790.0,782.0],[790.0,793.0]]}},{"type":"Feature","id":"border-008-017-0001","properties":{"id":"border-008-017-0001","type":"international","leftCountry":"country-008","rightCountry":"country-017"},"geometry":{"type":"LineString","coordinates":[[758.0,513.0],[759.0,519.0],[760.0,519.0],[760.0,521.0],[761.0,521.0],[761.0,523.0],[762.0,523.0],[762.0,525.0],[763.0,525.0],[763.0,527.0],[764.0,527.0],[764.0,531.0]]}},{"type":"Feature","id":"border-008-018-0001","properties":{"id":"border-008-018-0001","type":"international","leftCountry":"country-008","rightCountry":"country-018"},"geometry":{"type":"LineString","coordinates":[[987.0,777.0],[987.0,778.0],[988.0,778.0],[988.0,779.0],[989.0,779.0],[989.0,780.0],[990.0,780.0],[991.0,782.0],[993.0,782.0]]}},{"type":"Feature","id":"border-008-018-0002","properties":{"id":"border-008-018-0002","type":"international","leftCountry":"country-008","rightCountry":"country-018"},"geometry":{"type":"LineString","coordinates":[[994.0,782.0],[1003.0,782.0]]}},{"type":"Feature","id":"border-008-018-0003","properties":{"id":"border-008-018-0003","type":"international","leftCountry":"country-008","rightCountry":"country-018"},"geometry":{"type":"LineString","coordinates":[[1004.0,781.0],[1007.0,781.0],[1007.0,780.0],[1009.0,780.0],[1010.0,778.0]]}},{"type":"Feature","id":"border-008-019-0001","properties":{"id":"border-008-019-0001","type":"international","leftCountry":"country-008","rightCountry":"country-019"},"geometry":{"type":"LineString","coordinates":[[818.0,562.0],[818.0,563.0],[817.0,563.0],[817.0,565.0],[816.0,565.0],[816.0,566.0],[815.0,566.0],[815.0,567.0],[814.0,567.0],[814.0,568.0],[813.0,568.0],[812.0,570.0],[810.0,570.0],[809.0,572.0],[805.0,573.0],[805.0,574.0],[804.0,574.0],[804.0,575.0],[802.0,576.0],[802.0,579.0]]}},{"type":"Feature","id":"border-008-019-0002","properties":{"id":"border-008-019-0002","type":"international","leftCountry":"country-008","rightCountry":"country-019"},"geometry":{"type":"LineString","coordinates":[[819.0,560.0],[819.0,561.0]]}},{"type":"Feature","id":"border-008-019-0003","properties":{"id":"border-008-019-0003","type":"international","leftCountry":"country-008","rightCountry":"country-019"},"geometry":{"type":"LineString","coordinates":[[826.0,550.0],[826.0,551.0],[824.0,552.0],[824.0,554.0],[823.0,554.0],[823.0,555.0],[821.0,556.0],[821.0,558.0],[820.0,558.0],[820.0,559.0]]}},{"type":"Feature","id":"border-008-019-0004","properties":{"id":"border-008-019-0004","type":"international","leftCountry":"country-008","rightCountry":"country-019"},"geometry":{"type":"LineString","coordinates":[[830.0,543.0],[830.0,542.0],[831.0,542.0],[831.0,540.0],[832.0,540.0],[833.0,538.0],[835.0,538.0],[835.0,537.0],[839.0,536.0]]}},{"type":"Feature","id":"border-008-019-0005","properties":{"id":"border-008-019-0005","type":"international","leftCountry":"country-008","rightCountry":"country-019"},"geometry":{"type":"LineString","coordinates":[[852.0,536.0],[855.0,536.0]]}},{"type":"Feature","id":"border-008-019-0006","properties":{"id":"border-008-019-0006","type":"international","leftCountry":"country-008","rightCountry":"country-019"},"geometry":{"type":"LineString","coordinates":[[856.0,537.0],[859.0,537.0]]}},{"type":"Feature","id":"border-008-019-0007","properties":{"id":"border-008-019-0007","type":"international","leftCountry":"country-008","rightCountry":"country-019"},"geometry":{"type":"LineString","coordinates":[[926.0,694.0],[928.0,693.0]]}},{"type":"Feature","id":"border-008-019-0008","properties":{"id":"border-008-019-0008","type":"international","leftCountry":"country-008","rightCountry":"country-019"},"geometry":{"type":"LineString","coordinates":[[929.0,693.0],[933.0,694.0]]}},{"type":"Feature","id":"border-008-019-0009","properties":{"id":"border-008-019-0009","type":"international","leftCountry":"country-008","rightCountry":"country-019"},"geometry":{"type":"LineString","coordinates":[[935.0,694.0],[936.0,694.0],[936.0,692.0],[937.0,692.0]]}},{"type":"Feature","id":"border-008-019-0010","properties":{"id":"border-008-019-0010","type":"international","leftCountry":"country-008","rightCountry":"country-019"},"geometry":{"type":"LineString","coordinates":[[938.0,691.0],[939.0,691.0],[939.0,690.0]]}},{"type":"Feature","id":"border-008-019-0011","properties":{"id":"border-008-019-0011","type":"international","leftCountry":"country-008","rightCountry":"country-019"},"geometry":{"type":"LineString","coordinates":[[1268.0,67.0],[1268.0,68.0],[1269.0,68.0],[1269.0,69.0],[1268.0,69.0],[1268.0,89.0],[1267.0,89.0],[1267.0,90.0],[1266.0,90.0],[1266.0,92.0],[1265.0,92.0]]}},{"type":"Feature","id":"border-008-019-0012","properties":{"id":"border-008-019-0012","type":"international","leftCountry":"country-008","rightCountry":"country-019"},"geometry":{"type":"LineString","coordinates":[[1693.0,277.0],[1695.0,277.0],[1695.0,275.0],[1696.0,275.0],[1696.0,274.0],[1697.0,274.0],[1697.0,272.0],[1698.0,272.0]]}},{"type":"Feature","id":"border-008-019-0013","properties":{"id":"border-008-019-0013","type":"international","leftCountry":"country-008","rightCountry":"country-019"},"geometry":{"type":"LineString","coordinates":[[1703.0,272.0],[1704.0,272.0],[1704.0,273.0],[1706.0,273.0],[1707.0,275.0],[1711.0,275.0]]}},{"type":"Feature","id":"border-008-019-0014","properties":{"id":"border-008-019-0014","type":"international","leftCountry":"country-008","rightCountry":"country-019"},"geometry":{"type":"LineString","coordinates":[[1712.0,275.0],[1715.0,275.0]]}},{"type":"Feature","id":"border-008-019-0015","properties":{"id":"border-008-019-0015","type":"international","leftCountry":"country-008","rightCountry":"country-019"},"geometry":{"type":"LineString","coordinates":[[1720.0,274.0],[1723.0,274.0],[1723.0,275.0],[1726.0,275.0],[1726.0,276.0],[1728.0,276.0],[1728.0,280.0],[1727.0,280.0],[1727.0,281.0],[1725.0,282.0],[1725.0,285.0],[1726.0,285.0],[1726.0,287.0],[1727.0,287.0],[1727.0,288.0],[1731.0,288.0],[1731.0,287.0],[1732.0,287.0],[1732.0,285.0]]}},{"type":"Feature","id":"border-008-019-0016","properties":{"id":"border-008-019-0016","type":"international","leftCountry":"country-008","rightCountry":"country-019"},"geometry":{"type":"LineString","coordinates":[[1734.0,281.0],[1734.0,282.0],[1733.0,282.0],[1733.0,284.0]]}},{"type":"Feature","id":"border-008-019-0017","properties":{"id":"border-008-019-0017","type":"international","leftCountry":"country-008","rightCountry":"country-019"},"geometry":{"type":"LineString","coordinates":[[1744.0,281.0],[1746.0,281.0]]}},{"type":"Feature","id":"border-008-019-0018","properties":{"id":"border-008-019-0018","type":"international","leftCountry":"country-008","rightCountry":"country-019"},"geometry":{"type":"LineString","coordinates":[[1747.0,282.0],[1748.0,282.0]]}},{"type":"Feature","id":"border-008-019-0019","properties":{"id":"border-008-019-0019","type":"international","leftCountry":"country-008","rightCountry":"country-019"},"geometry":{"type":"LineString","coordinates":[[1749.0,283.0],[1751.0,283.0],[1751.0,284.0],[1753.0,284.0],[1753.0,285.0],[1755.0,285.0],[1755.0,286.0],[1757.0,287.0]]}},{"type":"Feature","id":"border-008-019-0020","properties":{"id":"border-008-019-0020","type":"international","leftCountry":"country-008","rightCountry":"country-019"},"geometry":{"type":"LineString","coordinates":[[1758.0,288.0],[1759.0,288.0],[1759.0,289.0],[1761.0,290.0]]}},{"type":"Feature","id":"border-008-019-0021","properties":{"id":"border-008-019-0021","type":"international","leftCountry":"country-008","rightCountry":"country-019"},"geometry":{"type":"LineString","coordinates":[[1761.0,292.0],[1761.0,294.0]]}},{"type":"Feature","id":"border-008-019-0022","properties":{"id":"border-008-019-0022","type":"international","leftCountry":"country-008","rightCountry":"country-019"},"geometry":{"type":"LineString","coordinates":[[1761.0,295.0],[1761.0,297.0],[1764.0,297.0]]}},{"type":"Feature","id":"border-008-019-0023","properties":{"id":"border-008-019-0023","type":"international","leftCountry":"country-008","rightCountry":"country-019"},"geometry":{"type":"LineString","coordinates":[[1765.0,298.0],[1770.0,298.0]]}},{"type":"Feature","id":"border-008-019-0024","properties":{"id":"border-008-019-0024","type":"international","leftCountry":"country-008","rightCountry":"country-019"},"geometry":{"type":"LineString","coordinates":[[1774.0,298.0],[1775.0,298.0]]}},{"type":"Feature","id":"border-008-019-0025","properties":{"id":"border-008-019-0025","type":"international","leftCountry":"country-008","rightCountry":"country-019"},"geometry":{"type":"LineString","coordinates":[[1778.0,297.0],[1781.0,297.0],[1781.0,296.0]]}},{"type":"Feature","id":"border-008-019-0026","properties":{"id":"border-008-019-0026","type":"international","leftCountry":"country-008","rightCountry":"country-019"},"geometry":{"type":"LineString","coordinates":[[1792.0,296.0],[1793.0,296.0],[1794.0,298.0]]}},{"type":"Feature","id":"border-008-019-0027","properties":{"id":"border-008-019-0027","type":"international","leftCountry":"country-008","rightCountry":"country-019"},"geometry":{"type":"LineString","coordinates":[[1796.0,300.0],[1797.0,302.0],[1799.0,302.0],[1799.0,303.0],[1801.0,303.0],[1801.0,304.0],[1804.0,304.0]]}},{"type":"Feature","id":"border-008-019-0028","properties":{"id":"border-008-019-0028","type":"international","leftCountry":"country-008","rightCountry":"country-019"},"geometry":{"type":"LineString","coordinates":[[1805.0,305.0],[1809.0,306.0],[1809.0,307.0],[1811.0,308.0],[1812.0,312.0],[1814.0,313.0]]}},{"type":"Feature","id":"border-008-019-0029","properties":{"id":"border-008-019-0029","type":"international","leftCountry":"country-008","rightCountry":"country-019"},"geometry":{"type":"LineString","coordinates":[[1816.0,315.0],[1816.0,316.0]]}},{"type":"Feature","id":"border-008-019-0030","properties":{"id":"border-008-019-0030","type":"international","leftCountry":"country-008","rightCountry":"country-019"},"geometry":{"type":"LineString","coordinates":[[1839.0,411.0],[1839.0,412.0],[1841.0,412.0],[1842.0,414.0],[1844.0,414.0]]}},{"type":"Feature","id":"border-008-019-0031","properties":{"id":"border-008-019-0031","type":"international","leftCountry":"country-008","rightCountry":"country-019"},"geometry":{"type":"LineString","coordinates":[[1845.0,415.0],[1847.0,415.0]]}},{"type":"Feature","id":"border-008-019-0032","properties":{"id":"border-008-019-0032","type":"international","leftCountry":"country-008","rightCountry":"country-019"},"geometry":{"type":"LineString","coordinates":[[1848.0,416.0],[1855.0,416.0]]}},{"type":"Feature","id":"border-008-019-0033","properties":{"id":"border-008-019-0033","type":"international","leftCountry":"country-008","rightCountry":"country-019"},"geometry":{"type":"LineString","coordinates":[[1860.0,417.0],[1863.0,417.0],[1863.0,418.0],[1864.0,418.0],[1864.0,419.0],[1865.0,419.0],[1865.0,420.0],[1867.0,421.0],[1867.0,423.0],[1868.0,423.0],[1868.0,424.0],[1870.0,425.0]]}},{"type":"Feature","id":"border-008-019-0034","properties":{"id":"border-008-019-0034","type":"international","leftCountry":"country-008","rightCountry":"country-019"},"geometry":{"type":"LineString","coordinates":[[1872.0,427.0],[1874.0,427.0]]}},{"type":"Feature","id":"border-008-021-0001","properties":{"id":"border-008-021-0001","type":"international","leftCountry":"country-008","rightCountry":"country-021"},"geometry":{"type":"LineString","coordinates":[[764.0,531.0],[765.0,531.0],[765.0,532.0],[767.0,532.0],[767.0,533.0],[768.0,533.0],[768.0,535.0],[769.0,535.0],[769.0,537.0],[770.0,537.0],[770.0,540.0],[771.0,540.0],[771.0,543.0],[772.0,543.0],[772.0,547.0],[773.0,547.0],[773.0,552.0],[774.0,552.0],[774.0,555.0],[775.0,555.0],[775.0,558.0],[776.0,558.0],[776.0,561.0],[777.0,561.0],[777.0,563.0],[778.0,563.0],[779.0,567.0],[782.0,567.0],[782.0,568.0],[784.0,568.0],[784.0,569.0],[785.0,569.0],[785.0,570.0],[787.0,570.0],[788.0,572.0],[792.0,573.0],[793.0,575.0],[795.0,575.0],[796.0,577.0],[798.0,577.0],[799.0,579.0],[801.0,579.0]]}},{"type":"Feature","id":"border-009-010-0001","properties":{"id":"border-009-010-0001","type":"international","leftCountry":"country-009","rightCountry":"country-010"},"geometry":{"type":"LineString","coordinates":[]}},{"type":"Feature","id":"border-009-010-0002","properties":{"id":"border-009-010-0002","type":"international","leftCountry":"country-009","rightCountry":"country-010"},"geometry":{"type":"MultiLineString","coordinates":[[[830.0,377.0],[830.0,378.0]],[[830.0,378.0],[832.0,379.0],[832.0,382.0],[833.0,382.0],[833.0,383.0],[834.0,383.0],[834.0,384.0],[835.0,384.0],[835.0,385.0],[836.0,385.0],[836.0,386.0],[838.0,387.0],[838.0,394.0],[842.0,396.0],[842.0,403.0],[843.0,403.0],[843.0,409.0],[844.0,409.0],[844.0,410.0],[848.0,410.0],[849.0,408.0],[855.0,408.0],[855.0,410.0],[861.0,410.0],[861.0,411.0],[865.0,412.0],[865.0,413.0],[866.0,413.0],[866.0,415.0],[870.0,415.0],[870.0,416.0],[877.0,416.0],[877.0,415.0],[879.0,415.0],[879.0,414.0],[885.0,414.0],[885.0,415.0],[886.0,415.0],[886.0,416.0],[887.0,416.0],[887.0,417.0],[888.0,417.0],[888.0,418.0],[889.0,418.0],[890.0,420.0],[892.0,420.0],[892.0,422.0],[893.0,422.0],[893.0,423.0],[894.0,423.0],[894.0,424.0],[896.0,425.0],[896.0,427.0],[898.0,428.0],[898.0,432.0],[899.0,432.0],[899.0,435.0],[900.0,435.0],[901.0,439.0],[903.0,440.0],[903.0,442.0],[904.0,442.0],[904.0,443.0],[906.0,444.0],[906.0,446.0]]]}},{"type":"Feature","id":"border-010-012-0001","properties":{"id":"border-010-012-0001","type":"international","leftCountry":"country-010","rightCountry":"country-012"},"geometry":{"type":"LineString","coordinates":[[737.0,396.0],[735.0,397.0],[734.0,401.0],[732.0,402.0],[732.0,408.0],[733.0,408.0],[733.0,409.0],[732.0,409.0],[732.0,412.0],[731.0,412.0],[731.0,414.0],[730.0,414.0],[730.0,416.0],[729.0,416.0],[729.0,419.0],[728.0,419.0],[728.0,421.0],[727.0,421.0],[727.0,422.0],[725.0,422.0],[725.0,423.0],[724.0,423.0],[724.0,425.0],[722.0,426.0],[722.0,428.0],[720.0,429.0],[720.0,442.0],[719.0,442.0],[719.0,444.0],[717.0,445.0],[717.0,447.0],[716.0,447.0],[716.0,449.0],[715.0,449.0],[715.0,451.0],[714.0,451.0],[714.0,454.0],[712.0,455.0],[712.0,458.0],[711.0,458.0],[711.0,461.0],[713.0,462.0],[713.0,463.0],[712.0,463.0],[712.0,464.0],[713.0,464.0],[713.0,468.0],[712.0,468.0],[712.0,470.0],[711.0,470.0],[711.0,471.0],[710.0,471.0],[710.0,472.0],[709.0,472.0],[709.0,473.0],[708.0,473.0],[708.0,474.0],[707.0,474.0],[707.0,475.0],[706.0,475.0],[705.0,477.0]]}},{"type":"Feature","id":"border-010-017-0001","properties":{"id":"border-010-017-0001","type":"international","leftCountry":"country-010","rightCountry":"country-017"},"geometry":{"type":"LineString","coordinates":[[705.0,477.0],[705.0,479.0],[706.0,479.0],[706.0,481.0],[707.0,481.0],[707.0,484.0],[709.0,485.0],[709.0,487.0],[710.0,487.0],[710.0,488.0],[711.0,488.0],[712.0,490.0],[716.0,491.0],[716.0,492.0],[718.0,493.0],[718.0,495.0],[719.0,495.0],[720.0,497.0],[722.0,497.0],[722.0,498.0],[726.0,498.0],[726.0,499.0],[732.0,499.0],[732.0,500.0],[733.0,500.0],[733.0,499.0],[739.0,500.0],[739.0,501.0],[743.0,502.0],[743.0,503.0],[744.0,503.0],[745.0,505.0],[747.0,505.0],[747.0,506.0],[748.0,506.0],[749.0,508.0],[751.0,508.0],[751.0,509.0],[755.0,510.0],[755.0,511.0],[756.0,511.0],[756.0,512.0],[758.0,513.0]]}},{"type":"Feature","id":"border-011-013-0001","properties":{"id":"border-011-013-0001","type":"international","leftCountry":"country-011","rightCountry":"country-013"},"geometry":{"type":"LineString","coordinates":[[592.0,627.0],[595.0,627.0],[595.0,628.0],[596.0,628.0],[597.0,630.0],[599.0,630.0],[599.0,631.0],[601.0,631.0],[601.0,632.0],[607.0,632.0],[607.0,631.0],[609.0,630.0],[609.0,628.0],[611.0,628.0],[611.0,629.0],[613.0,630.0],[613.0,635.0],[614.0,635.0],[614.0,636.0],[620.0,636.0],[620.0,635.0],[623.0,635.0]]}},{"type":"Feature","id":"border-011-017-0001","properties":{"id":"border-011-017-0001","type":"international","leftCountry":"country-011","rightCountry":"country-017"},"geometry":{"type":"LineString","coordinates":[[592.0,627.0],[592.0,625.0],[591.0,625.0],[591.0,614.0],[593.0,613.0],[593.0,611.0],[596.0,611.0],[596.0,610.0],[599.0,610.0],[599.0,609.0],[605.0,608.0],[605.0,607.0],[607.0,607.0],[607.0,606.0],[610.0,606.0],[610.0,605.0],[628.0,605.0],[628.0,606.0],[633.0,606.0],[633.0,605.0],[643.0,605.0],[643.0,606.0],[644.0,606.0],[644.0,605.0],[645.0,605.0]]}},{"type":"Feature","id":"border-011-021-0001","properties":{"id":"border-011-021-0001","type":"international","leftCountry":"country-011","rightCountry":"country-021"},"geometry":{"type":"LineString","coordinates":[[645.0,605.0],[646.0,607.0],[653.0,607.0],[653.0,612.0],[652.0,612.0],[652.0,613.0],[650.0,613.0],[650.0,620.0],[649.0,620.0],[649.0,621.0],[647.0,621.0],[647.0,622.0],[645.0,622.0],[645.0,624.0],[644.0,624.0],[644.0,626.0],[643.0,626.0],[643.0,628.0],[642.0,628.0],[642.0,631.0],[641.0,631.0],[640.0,633.0],[635.0,633.0],[635.0,631.0],[634.0,631.0],[633.0,629.0],[627.0,629.0],[627.0,630.0],[626.0,630.0],[626.0,631.0],[624.0,632.0],[624.0,634.0],[623.0,634.0],[623.0,635.0]]}},{"type":"Feature","id":"border-012-017-0001","properties":{"id":"border-012-017-0001","type":"international","leftCountry":"country-012","rightCountry":"country-017"},"geometry":{"type":"LineString","coordinates":[[623.0,475.0],[623.0,477.0],[625.0,477.0],[625.0,478.0],[627.0,479.0],[627.0,481.0],[631.0,482.0],[631.0,483.0],[632.0,483.0],[632.0,484.0],[633.0,484.0],[633.0,485.0],[634.0,485.0],[634.0,486.0],[636.0,487.0],[636.0,489.0],[637.0,489.0],[637.0,490.0],[643.0,490.0],[643.0,491.0],[644.0,491.0],[644.0,498.0],[647.0,498.0],[647.0,497.0],[654.0,497.0],[654.0,498.0],[656.0,499.0],[656.0,501.0],[658.0,501.0],[658.0,500.0],[659.0,500.0],[659.0,499.0],[660.0,499.0],[661.0,497.0],[667.0,497.0],[667.0,494.0],[666.0,494.0],[666.0,485.0],[665.0,485.0],[665.0,486.0],[663.0,486.0],[663.0,485.0],[661.0,485.0],[661.0,484.0],[656.0,484.0],[656.0,480.0],[657.0,480.0],[658.0,478.0],[665.0,478.0],[665.0,477.0],[666.0,477.0],[667.0,475.0],[671.0,475.0],[671.0,476.0],[675.0,476.0],[675.0,477.0],[680.0,477.0],[680.0,478.0],[681.0,478.0],[681.0,480.0],[682.0,480.0],[683.0,482.0],[686.0,482.0],[686.0,481.0],[688.0,481.0],[688.0,480.0],[690.0,479.0],[690.0,477.0],[691.0,477.0],[691.0,476.0],[692.0,476.0],[693.0,474.0],[699.0,474.0],[699.0,475.0],[702.0,475.0],[702.0,476.0],[704.0,476.0],[704.0,477.0],[705.0,477.0]]}},{"type":"Feature","id":"border-013-017-0001","properties":{"id":"border-013-017-0001","type":"international","leftCountry":"country-013","rightCountry":"country-017"},"geometry":{"type":"LineString","coordinates":[[509.0,599.0],[509.0,600.0],[510.0,600.0],[510.0,601.0],[512.0,602.0],[512.0,609.0],[513.0,609.0],[513.0,611.0],[515.0,612.0],[515.0,614.0],[516.0,614.0],[516.0,615.0],[517.0,615.0],[518.0,617.0],[520.0,617.0],[521.0,619.0],[523.0,619.0],[523.0,620.0],[524.0,620.0],[525.0,622.0],[538.0,622.0],[538.0,623.0],[545.0,623.0],[545.0,624.0],[547.0,624.0],[547.0,625.0],[548.0,625.0],[548.0,626.0],[549.0,626.0],[549.0,627.0],[550.0,627.0],[550.0,628.0],[551.0,628.0],[551.0,629.0],[553.0,630.0],[553.0,636.0],[554.0,636.0],[554.0,637.0],[557.0,637.0],[558.0,635.0],[564.0,635.0],[564.0,636.0],[565.0,636.0],[565.0,638.0],[567.0,638.0],[567.0,637.0],[568.0,637.0],[568.0,636.0],[569.0,636.0],[570.0,634.0],[574.0,634.0],[574.0,633.0],[575.0,633.0],[576.0,631.0],[583.0,631.0],[583.0,632.0],[586.0,632.0],[586.0,631.0],[588.0,631.0],[588.0,630.0],[589.0,630.0],[589.0,629.0],[590.0,629.0],[590.0,628.0],[592.0,627.0]]}},{"type":"Feature","id":"border-013-021-0001","properties":{"id":"border-013-021-0001","type":"international","leftCountry":"country-013","rightCountry":"country-021"},"geometry":{"type":"LineString","coordinates":[[623.0,635.0],[623.0,637.0],[625.0,638.0],[625.0,643.0],[624.0,643.0],[624.0,644.0],[622.0,645.0],[622.0,649.0],[624.0,650.0],[624.0,654.0],[623.0,654.0],[623.0,656.0],[622.0,656.0],[621.0,658.0],[606.0,658.0],[606.0,659.0],[603.0,659.0],[603.0,660.0],[601.0,660.0],[601.0,661.0],[598.0,661.0],[598.0,662.0],[594.0,663.0],[594.0,664.0],[592.0,665.0],[592.0,667.0],[591.0,667.0],[591.0,670.0],[590.0,670.0],[590.0,672.0],[589.0,672.0],[589.0,675.0],[588.0,675.0],[588.0,677.0],[587.0,677.0],[587.0,678.0],[585.0,678.0],[585.0,679.0],[584.0,679.0],[583.0,681.0],[581.0,681.0],[580.0,683.0],[578.0,683.0],[578.0,684.0],[577.0,684.0],[577.0,685.0],[576.0,685.0],[576.0,686.0],[575.0,686.0],[574.0,688.0]]}},{"type":"Feature","id":"border-014-015-0001","properties":{"id":"border-014-015-0001","type":"international","leftCountry":"country-014","rightCountry":"country-015"},"geometry":{"type":"LineString","coordinates":[[784.0,719.0],[784.0,720.0],[785.0,720.0],[784.0,728.0],[783.0,728.0],[783.0,729.0],[781.0,730.0],[781.0,733.0],[780.0,733.0],[780.0,735.0],[779.0,735.0],[778.0,737.0],[771.0,737.0],[771.0,744.0],[772.0,744.0],[772.0,745.0],[774.0,745.0],[775.0,747.0],[778.0,747.0],[779.0,749.0],[781.0,749.0],[781.0,750.0],[782.0,750.0],[782.0,751.0],[784.0,752.0],[784.0,754.0],[785.0,754.0],[785.0,755.0],[787.0,756.0],[787.0,758.0],[788.0,758.0],[788.0,760.0],[789.0,760.0],[789.0,773.0],[788.0,773.0],[788.0,774.0]]}},{"type":"Feature","id":"border-014-019-0001","properties":{"id":"border-014-019-0001","type":"international","leftCountry":"country-014","rightCountry":"country-019"},"geometry":{"type":"MultiLineString","coordinates":[[[186.0,600.0],[186.0,601.0]],[[186.0,601.0],[186.0,605.0]]]}},{"type":"Feature","id":"border-014-021-0001","properties":{"id":"border-014-021-0001","type":"international","leftCountry":"country-014","rightCountry":"country-021"},"geometry":{"type":"MultiLineString","coordinates":[[[691.0,674.0],[691.0,671.0],[692.0,671.0],[692.0,670.0],[693.0,670.0],[693.0,669.0],[694.0,669.0],[695.0,667.0],[698.0,667.0],[698.0,666.0],[702.0,666.0],[702.0,665.0],[711.0,665.0],[711.0,666.0],[716.0,666.0],[716.0,667.0],[720.0,667.0],[720.0,668.0],[728.0,668.0],[728.0,667.0],[733.0,667.0],[733.0,668.0],[735.0,669.0],[735.0,672.0],[736.0,672.0],[736.0,675.0],[737.0,675.0],[737.0,677.0],[738.0,677.0],[738.0,678.0],[740.0,679.0],[740.0,681.0],[743.0,681.0],[743.0,683.0]],[[743.0,683.0],[744.0,683.0]]]}},{"type":"Feature","id":"border-015-019-0001","properties":{"id":"border-015-019-0001","type":"international","leftCountry":"country-015","rightCountry":"country-019"},"geometry":{"type":"LineString","coordinates":[[848.0,736.0],[850.0,735.0]]}},{"type":"Feature","id":"border-015-019-0002","properties":{"id":"border-015-019-0002","type":"international","leftCountry":"country-015","rightCountry":"country-019"},"geometry":{"type":"LineString","coordinates":[[850.0,729.0],[851.0,731.0]]}},{"type":"Feature","id":"border-015-019-0003","properties":{"id":"border-015-019-0003","type":"international","leftCountry":"country-015","rightCountry":"country-019"},"geometry":{"type":"LineString","coordinates":[[857.0,727.0],[856.0,727.0],[856.0,729.0],[855.0,729.0],[854.0,731.0]]}},{"type":"Feature","id":"border-015-019-0004","properties":{"id":"border-015-019-0004","type":"international","leftCountry":"country-015","rightCountry":"country-019"},"geometry":{"type":"LineString","coordinates":[[854.0,734.0],[855.0,734.0]]}},{"type":"Feature","id":"border-015-019-0005","properties":{"id":"border-015-019-0005","type":"international","leftCountry":"country-015","rightCountry":"country-019"},"geometry":{"type":"LineString","coordinates":[[856.0,735.0],[856.0,736.0],[858.0,737.0]]}},{"type":"Feature","id":"border-017-021-0001","properties":{"id":"border-017-021-0001","type":"international","leftCountry":"country-017","rightCountry":"country-021"},"geometry":{"type":"LineString","coordinates":[[645.0,605.0],[652.0,605.0],[652.0,604.0],[654.0,604.0],[654.0,603.0],[656.0,603.0],[656.0,602.0],[658.0,602.0],[658.0,601.0],[660.0,601.0],[660.0,600.0],[663.0,600.0],[663.0,599.0],[670.0,599.0],[671.0,597.0],[673.0,597.0],[673.0,596.0],[676.0,596.0],[676.0,595.0],[678.0,595.0],[679.0,593.0],[681.0,593.0],[682.0,591.0],[684.0,591.0],[684.0,590.0],[685.0,590.0],[686.0,588.0],[688.0,588.0],[688.0,587.0],[689.0,587.0],[689.0,586.0],[690.0,586.0],[691.0,584.0],[699.0,584.0],[699.0,583.0],[700.0,583.0]]}},{"type":"Feature","id":"border-017-021-0002","properties":{"id":"border-017-021-0002","type":"international","leftCountry":"country-017","rightCountry":"country-021"},"geometry":{"type":"LineString","coordinates":[[703.0,581.0],[705.0,581.0],[706.0,579.0],[709.0,579.0],[709.0,578.0],[711.0,577.0],[711.0,572.0],[713.0,572.0],[713.0,571.0],[716.0,571.0],[716.0,570.0],[718.0,570.0],[718.0,569.0],[722.0,568.0],[723.0,566.0],[725.0,566.0],[725.0,565.0],[727.0,565.0],[727.0,564.0],[731.0,563.0],[732.0,561.0],[734.0,561.0],[734.0,560.0],[735.0,560.0],[735.0,559.0],[737.0,558.0],[737.0,555.0],[738.0,555.0],[738.0,553.0],[740.0,552.0],[741.0,548.0],[743.0,548.0],[744.0,546.0],[746.0,546.0],[747.0,544.0],[749.0,544.0],[750.0,542.0],[752.0,542.0],[753.0,540.0],[755.0,540.0],[755.0,539.0],[756.0,539.0],[756.0,537.0],[757.0,537.0],[757.0,535.0],[758.0,535.0],[758.0,534.0],[759.0,534.0],[759.0,533.0],[760.0,533.0],[761.0,531.0],[764.0,531.0]]}},{"type":"Feature","id":"border-019-021-0001","properties":{"id":"border-019-021-0001","type":"international","leftCountry":"country-019","rightCountry":"country-021"},"geometry":{"type":"LineString","coordinates":[[802.0,580.0],[802.0,583.0],[803.0,583.0],[803.0,584.0],[804.0,584.0],[804.0,585.0],[805.0,585.0],[805.0,586.0],[806.0,586.0],[806.0,587.0],[808.0,588.0],[808.0,590.0],[809.0,590.0],[809.0,600.0],[810.0,600.0],[810.0,602.0],[811.0,602.0],[811.0,603.0],[812.0,603.0],[812.0,605.0],[813.0,605.0],[813.0,609.0],[812.0,609.0],[812.0,611.0],[811.0,611.0],[810.0,613.0],[808.0,613.0],[806.0,617.0],[807.0,617.0],[808.0,619.0],[812.0,620.0],[812.0,621.0]]}},{"type":"Feature","id":"border-019-021-0002","properties":{"id":"border-019-021-0002","type":"international","leftCountry":"country-019","rightCountry":"country-021"},"geometry":{"type":"LineString","coordinates":[[812.0,622.0],[812.0,623.0],[810.0,623.0],[810.0,624.0],[807.0,624.0],[807.0,625.0],[802.0,625.0],[802.0,626.0],[801.0,626.0],[801.0,628.0],[800.0,628.0],[800.0,630.0],[799.0,630.0],[799.0,636.0],[800.0,636.0],[800.0,637.0],[801.0,637.0],[801.0,638.0],[803.0,639.0],[803.0,643.0],[802.0,643.0],[802.0,645.0]]}},{"type":"Feature","id":"border-019-022-0001","properties":{"id":"border-019-022-0001","type":"international","leftCountry":"country-019","rightCountry":"country-022"},"geometry":{"type":"LineString","coordinates":[[1146.0,761.0],[1146.0,767.0],[1147.0,767.0],[1147.0,769.0],[1149.0,769.0],[1150.0,771.0],[1153.0,771.0],[1153.0,772.0],[1154.0,772.0],[1154.0,773.0],[1155.0,773.0],[1155.0,774.0],[1157.0,775.0],[1157.0,777.0]]}},{"type":"Feature","id":"border-019-022-0002","properties":{"id":"border-019-022-0002","type":"international","leftCountry":"country-019","rightCountry":"country-022"},"geometry":{"type":"LineString","coordinates":[[1149.0,749.0],[1149.0,754.0],[1148.0,754.0],[1148.0,757.0],[1147.0,757.0],[1147.0,758.0]]}},{"type":"Feature","id":"border-019-022-0003","properties":{"id":"border-019-022-0003","type":"international","leftCountry":"country-019","rightCountry":"country-022"},"geometry":{"type":"LineString","coordinates":[[1159.0,735.0],[1156.0,735.0],[1156.0,736.0],[1155.0,736.0],[1154.0,738.0],[1150.0,739.0],[1150.0,741.0],[1149.0,741.0],[1149.0,748.0]]}},{"type":"Feature","id":"border-019-022-0004","properties":{"id":"border-019-022-0004","type":"international","leftCountry":"country-019","rightCountry":"country-022"},"geometry":{"type":"LineString","coordinates":[[1183.0,701.0],[1183.0,702.0],[1185.0,702.0],[1185.0,703.0],[1186.0,703.0],[1186.0,709.0],[1185.0,709.0],[1185.0,711.0],[1183.0,712.0],[1182.0,716.0],[1180.0,717.0],[1180.0,719.0],[1179.0,719.0],[1179.0,720.0],[1177.0,721.0],[1177.0,723.0],[1176.0,723.0],[1176.0,724.0],[1175.0,724.0],[1175.0,725.0],[1174.0,725.0],[1174.0,726.0],[1173.0,726.0],[1173.0,727.0],[1172.0,727.0],[1172.0,728.0],[1171.0,728.0],[1171.0,729.0],[1170.0,729.0],[1170.0,730.0],[1169.0,730.0],[1168.0,732.0],[1166.0,732.0],[1165.0,734.0],[1161.0,734.0]]}},{"type":"Feature","id":"border-019-022-0005","properties":{"id":"border-019-022-0005","type":"international","leftCountry":"country-019","rightCountry":"country-022"},"geometry":{"type":"LineString","coordinates":[[1182.0,700.0],[1182.0,699.0],[1181.0,699.0],[1181.0,696.0],[1182.0,696.0],[1182.0,695.0],[1183.0,695.0],[1183.0,694.0],[1184.0,694.0],[1184.0,693.0],[1185.0,693.0],[1186.0,691.0],[1188.0,691.0],[1189.0,689.0],[1191.0,689.0],[1191.0,688.0],[1194.0,688.0]]}},{"type":"Feature","id":"border-019-022-0006","properties":{"id":"border-019-022-0006","type":"international","leftCountry":"country-019","rightCountry":"country-022"},"geometry":{"type":"LineString","coordinates":[[1196.0,688.0],[1199.0,688.0],[1200.0,690.0],[1203.0,690.0]]}},{"type":"Feature","id":"border-019-022-0007","properties":{"id":"border-019-022-0007","type":"international","leftCountry":"country-019","rightCountry":"country-022"},"geometry":{"type":"LineString","coordinates":[[1204.0,690.0],[1206.0,689.0]]}},{"type":"Feature","id":"border-019-022-0008","properties":{"id":"border-019-022-0008","type":"international","leftCountry":"country-019","rightCountry":"country-022"},"geometry":{"type":"LineString","coordinates":[[1207.0,688.0],[1211.0,688.0],[1211.0,687.0],[1213.0,687.0],[1213.0,686.0],[1219.0,685.0],[1219.0,684.0],[1223.0,683.0],[1224.0,681.0],[1226.0,681.0],[1226.0,680.0],[1228.0,680.0],[1228.0,679.0],[1232.0,678.0]]}},{"type":"Feature","id":"border-019-022-0009","properties":{"id":"border-019-022-0009","type":"international","leftCountry":"country-019","rightCountry":"country-022"},"geometry":{"type":"LineString","coordinates":[[1233.0,677.0],[1236.0,677.0],[1236.0,676.0],[1238.0,676.0],[1238.0,674.0]]}},{"type":"Feature","id":"border-019-022-0010","properties":{"id":"border-019-022-0010","type":"international","leftCountry":"country-019","rightCountry":"country-022"},"geometry":{"type":"LineString","coordinates":[[1239.0,670.0],[1239.0,671.0]]}},{"type":"Feature","id":"border-019-022-0011","properties":{"id":"border-019-022-0011","type":"international","leftCountry":"country-019","rightCountry":"country-022"},"geometry":{"type":"LineString","coordinates":[[1240.0,669.0],[1240.0,668.0],[1241.0,668.0],[1241.0,667.0],[1243.0,667.0],[1243.0,666.0],[1245.0,666.0],[1245.0,667.0],[1246.0,667.0],[1246.0,670.0],[1247.0,670.0],[1247.0,674.0],[1248.0,674.0],[1248.0,675.0],[1250.0,675.0],[1250.0,677.0],[1251.0,677.0],[1251.0,681.0],[1252.0,681.0],[1252.0,685.0],[1253.0,685.0],[1253.0,687.0],[1254.0,687.0],[1254.0,688.0],[1256.0,688.0],[1256.0,689.0],[1258.0,690.0],[1258.0,692.0],[1259.0,692.0],[1259.0,693.0],[1261.0,693.0]]}},{"type":"Feature","id":"border-019-022-0012","properties":{"id":"border-019-022-0012","type":"international","leftCountry":"country-019","rightCountry":"country-022"},"geometry":{"type":"LineString","coordinates":[[1262.0,693.0],[1264.0,693.0],[1264.0,691.0],[1265.0,691.0],[1265.0,690.0],[1268.0,690.0]]}},{"type":"Feature","id":"border-019-022-0013","properties":{"id":"border-019-022-0013","type":"international","leftCountry":"country-019","rightCountry":"country-022"},"geometry":{"type":"LineString","coordinates":[[1276.0,635.0],[1276.0,637.0],[1278.0,637.0],[1279.0,639.0],[1281.0,639.0],[1281.0,640.0],[1282.0,640.0],[1282.0,641.0],[1284.0,642.0],[1284.0,647.0],[1283.0,647.0],[1282.0,649.0],[1278.0,650.0],[1278.0,651.0],[1277.0,651.0],[1277.0,653.0],[1276.0,653.0],[1276.0,660.0],[1277.0,660.0],[1277.0,662.0],[1279.0,663.0],[1279.0,667.0],[1278.0,667.0],[1277.0,671.0],[1275.0,671.0],[1275.0,672.0],[1274.0,672.0],[1273.0,674.0],[1271.0,674.0],[1270.0,678.0]]}},{"type":"Feature","id":"border-019-022-0014","properties":{"id":"border-019-022-0014","type":"international","leftCountry":"country-019","rightCountry":"country-022"},"geometry":{"type":"LineString","coordinates":[[1270.0,687.0],[1270.0,688.0]]}},{"type":"Feature","id":"border-019-022-0015","properties":{"id":"border-019-022-0015","type":"international","leftCountry":"country-019","rightCountry":"country-022"},"geometry":{"type":"LineString","coordinates":[[1276.0,634.0],[1277.0,632.0],[1280.0,632.0],[1280.0,631.0],[1282.0,631.0],[1282.0,628.0]]}},{"type":"Feature","id":"border-019-022-0016","properties":{"id":"border-019-022-0016","type":"international","leftCountry":"country-019","rightCountry":"country-022"},"geometry":{"type":"LineString","coordinates":[[1296.0,601.0],[1296.0,605.0],[1295.0,605.0],[1295.0,608.0],[1294.0,608.0],[1294.0,610.0],[1293.0,610.0],[1293.0,612.0],[1292.0,612.0],[1292.0,614.0],[1291.0,614.0],[1290.0,620.0],[1289.0,620.0],[1289.0,622.0],[1288.0,622.0],[1288.0,623.0],[1287.0,623.0],[1287.0,624.0],[1286.0,624.0],[1285.0,626.0],[1283.0,626.0],[1283.0,627.0]]}},{"type":"Feature","id":"border-019-022-0017","properties":{"id":"border-019-022-0017","type":"international","leftCountry":"country-019","rightCountry":"country-022"},"geometry":{"type":"LineString","coordinates":[[1304.0,589.0],[1303.0,589.0],[1303.0,590.0],[1301.0,591.0],[1301.0,593.0],[1300.0,593.0],[1300.0,595.0],[1299.0,595.0],[1299.0,596.0]]}},{"type":"Feature","id":"border-019-022-0018","properties":{"id":"border-019-022-0018","type":"international","leftCountry":"country-019","rightCountry":"country-022"},"geometry":{"type":"LineString","coordinates":[[1306.0,588.0],[1310.0,588.0],[1310.0,587.0],[1311.0,587.0],[1311.0,586.0],[1312.0,586.0],[1312.0,585.0],[1313.0,585.0],[1313.0,584.0],[1314.0,584.0],[1314.0,583.0],[1315.0,583.0],[1315.0,582.0],[1316.0,582.0],[1316.0,581.0],[1318.0,580.0],[1318.0,578.0],[1319.0,578.0],[1319.0,577.0],[1320.0,577.0],[1320.0,576.0],[1321.0,576.0],[1321.0,575.0],[1322.0,575.0],[1323.0,573.0],[1325.0,573.0],[1325.0,572.0],[1326.0,572.0],[1326.0,571.0],[1327.0,571.0],[1327.0,570.0],[1328.0,570.0],[1328.0,569.0],[1329.0,569.0],[1330.0,567.0],[1332.0,567.0],[1332.0,566.0],[1333.0,566.0],[1334.0,564.0],[1346.0,564.0]]}},{"type":"Feature","id":"border-019-022-0019","properties":{"id":"border-019-022-0019","type":"international","leftCountry":"country-019","rightCountry":"country-022"},"geometry":{"type":"LineString","coordinates":[[1347.0,563.0],[1349.0,563.0],[1349.0,562.0],[1351.0,562.0],[1351.0,561.0],[1354.0,561.0],[1354.0,560.0],[1356.0,560.0],[1356.0,559.0],[1357.0,559.0],[1357.0,558.0],[1359.0,558.0],[1359.0,557.0],[1360.0,557.0],[1361.0,555.0],[1363.0,555.0],[1364.0,553.0],[1366.0,553.0]]}},{"type":"Feature","id":"border-019-022-0020","properties":{"id":"border-019-022-0020","type":"international","leftCountry":"country-019","rightCountry":"country-022"},"geometry":{"type":"LineString","coordinates":[[1367.0,552.0],[1369.0,552.0]]}},{"type":"Feature","id":"border-019-022-0021","properties":{"id":"border-019-022-0021","type":"international","leftCountry":"country-019","rightCountry":"country-022"},"geometry":{"type":"LineString","coordinates":[[1370.0,551.0],[1372.0,551.0]]}},{"type":"Feature","id":"border-019-022-0022","properties":{"id":"border-019-022-0022","type":"international","leftCountry":"country-019","rightCountry":"country-022"},"geometry":{"type":"LineString","coordinates":[[1373.0,550.0],[1376.0,550.0]]}},{"type":"Feature","id":"border-019-022-0023","properties":{"id":"border-019-022-0023","type":"international","leftCountry":"country-019","rightCountry":"country-022"},"geometry":{"type":"LineString","coordinates":[[1418.0,497.0],[1418.0,501.0],[1417.0,501.0],[1417.0,503.0],[1416.0,503.0],[1416.0,504.0],[1414.0,505.0],[1414.0,507.0],[1412.0,507.0],[1412.0,508.0],[1411.0,508.0],[1410.0,510.0],[1408.0,510.0],[1408.0,511.0],[1407.0,511.0],[1407.0,512.0],[1406.0,512.0],[1405.0,514.0],[1403.0,514.0],[1403.0,515.0],[1402.0,515.0],[1402.0,516.0],[1400.0,516.0],[1399.0,518.0],[1395.0,519.0],[1395.0,521.0],[1394.0,521.0],[1394.0,523.0],[1393.0,523.0],[1393.0,536.0],[1392.0,536.0],[1392.0,538.0],[1391.0,538.0],[1391.0,539.0],[1390.0,539.0],[1390.0,540.0],[1389.0,540.0],[1389.0,541.0],[1388.0,541.0],[1388.0,542.0],[1387.0,542.0],[1387.0,543.0],[1386.0,543.0],[1386.0,544.0],[1385.0,544.0],[1384.0,546.0],[1382.0,546.0],[1381.0,548.0],[1377.0,549.0]]}},{"type":"Feature","id":"border-019-022-0024","properties":{"id":"border-019-022-0024","type":"international","leftCountry":"country-019","rightCountry":"country-022"},"geometry":{"type":"LineString","coordinates":[[1419.0,491.0],[1420.0,491.0],[1421.0,489.0],[1423.0,489.0],[1423.0,488.0],[1427.0,488.0]]}},{"type":"Feature","id":"border-019-022-0025","properties":{"id":"border-019-022-0025","type":"international","leftCountry":"country-019","rightCountry":"country-022"},"geometry":{"type":"LineString","coordinates":[[1429.0,488.0],[1432.0,488.0]]}},{"type":"Feature","id":"border-019-022-0026","properties":{"id":"border-019-022-0026","type":"international","leftCountry":"country-019","rightCountry":"country-022"},"geometry":{"type":"LineString","coordinates":[[1441.0,481.0],[1440.0,487.0],[1439.0,487.0],[1439.0,488.0],[1436.0,488.0]]}},{"type":"Feature","id":"border-019-023-0001","properties":{"id":"border-019-023-0001","type":"international","leftCountry":"country-019","rightCountry":"country-023"},"geometry":{"type":"LineString","coordinates":[[1093.0,457.0],[1095.0,457.0],[1095.0,456.0],[1097.0,456.0],[1098.0,454.0],[1100.0,454.0],[1100.0,453.0],[1103.0,453.0],[1103.0,452.0],[1105.0,452.0],[1106.0,450.0],[1108.0,450.0],[1108.0,449.0],[1109.0,449.0],[1109.0,447.0],[1111.0,446.0],[1111.0,443.0],[1112.0,443.0],[1112.0,439.0],[1113.0,439.0],[1113.0,436.0],[1114.0,436.0],[1114.0,435.0],[1115.0,435.0],[1115.0,434.0],[1116.0,434.0],[1117.0,432.0],[1119.0,432.0],[1119.0,431.0],[1120.0,431.0],[1120.0,430.0],[1121.0,430.0],[1121.0,429.0],[1122.0,429.0],[1122.0,428.0],[1123.0,428.0],[1123.0,427.0],[1125.0,426.0],[1125.0,424.0],[1127.0,423.0],[1127.0,421.0],[1129.0,420.0],[1129.0,418.0],[1130.0,418.0],[1130.0,416.0],[1131.0,416.0],[1132.0,414.0],[1136.0,414.0]]}},{"type":"Feature","id":"border-019-023-0002","properties":{"id":"border-019-023-0002","type":"international","leftCountry":"country-019","rightCountry":"country-023"},"geometry":{"type":"LineString","coordinates":[[1137.0,414.0],[1138.0,414.0],[1138.0,415.0],[1140.0,415.0],[1140.0,416.0],[1143.0,416.0],[1144.0,418.0],[1149.0,418.0],[1149.0,417.0]]}},{"type":"Feature","id":"border-020-021-0001","properties":{"id":"border-020-021-0001","type":"international","leftCountry":"country-020","rightCountry":"country-021"},"geometry":{"type":"LineString","coordinates":[[654.0,678.0],[654.0,677.0],[655.0,677.0],[655.0,675.0],[656.0,675.0],[656.0,674.0],[658.0,674.0],[658.0,673.0],[660.0,673.0],[660.0,672.0],[668.0,672.0],[668.0,671.0],[669.0,671.0],[670.0,669.0],[672.0,669.0],[672.0,668.0],[673.0,668.0],[673.0,669.0]]}}]}