{"type":"FeatureCollection","features":[{"type":"Feature","id":"region-034-label","properties":{"id":"region-034","number":34,"name":"Гесперидия","type":"region","countryId":"country-019","rgb":[33,67,240],"styleIndex":3,"isCapital":false,"capital":false,"labelRank":1,"importance":1,"areaWorld":3744.7247841022045,"labelPointMethod":"representative-point","source":"regions/country-019/regions-mask.png"},"geometry":{"type":"Point","coordinates":[1090.3224278731523,550.6027491408935]}},{"type":"Feature","id":"region-028-label","properties":{"id":"region-028","number":28,"name":"Монтания","type":"region","countryId":"country-019","rgb":[33,88,240],"styleIndex":2,"isCapital":false,"capital":false,"labelRank":1,"importance":1,"areaWorld":3686.3330822159705,"labelPointMethod":"representative-point","source":"regions/country-019/regions-mask.png"},"geometry":{"type":"Point","coordinates":[1142.9611051502145,711.5]}},{"type":"Feature","id":"region-010-label","properties":{"id":"region-010","number":10,"name":"Клерополь","type":"region","countryId":"country-019","rgb":[33,136,240],"styleIndex":4,"isCapital":true,"capital":true,"labelRank":3,"importance":3,"areaWorld":262.00291598454265,"labelPointMethod":"representative-point","source":"regions/country-019/regions-mask.png"},"geometry":{"type":"Point","coordinates":[1204.4645978630188,512.0285223367698]}},{"type":"Feature","id":"region-020-label","properties":{"id":"region-020","number":20,"name":"Астралия","type":"region","countryId":"country-019","rgb":[33,157,240],"styleIndex":4,"isCapital":false,"capital":false,"labelRank":2,"importance":2,"areaWorld":2689.011335626622,"labelPointMethod":"representative-point","source":"regions/country-019/regions-mask.png"},"geometry":{"type":"Point","coordinates":[1242.2719957081545,665.4199312714777]}},{"type":"Feature","id":"region-005-label","properties":{"id":"region-005","number":5,"name":"Гесперия","type":"region","countryId":"country-019","rgb":[33,205,240],"styleIndex":4,"isCapital":false,"capital":false,"labelRank":2,"importance":2,"areaWorld":2753.789153100223,"labelPointMethod":"representative-point","source":"regions/country-019/regions-mask.png"},"geometry":{"type":"Point","coordinates":[1316.5673283261804,460.5962199312715]}},{"type":"Feature","id":"region-022-label","properties":{"id":"region-022","number":22,"name":"Небулия","type":"region","countryId":"country-019","rgb":[33,226,240],"styleIndex":1,"isCapital":false,"capital":false,"labelRank":2,"importance":2,"areaWorld":2177.9523654926743,"labelPointMethod":"representative-point","source":"regions/country-019/regions-mask.png"},"geometry":{"type":"Point","coordinates":[1169.122921137339,626.3024054982818]}},{"type":"Feature","id":"region-021-label","properties":{"id":"region-021","number":21,"name":"Лимнида","type":"region","countryId":"country-019","rgb":[33,240,33],"styleIndex":0,"isCapital":false,"capital":false,"labelRank":3,"importance":3,"areaWorld":2129.2071317865793,"labelPointMethod":"representative-point","source":"regions/country-019/regions-mask.png"},"geometry":{"type":"Point","coordinates":[1185.925355418455,677.1914089347079]}},{"type":"Feature","id":"region-009-label","properties":{"id":"region-009","number":9,"name":"Наяда","type":"region","countryId":"country-019","rgb":[33,240,47],"styleIndex":3,"isCapital":false,"capital":false,"labelRank":2,"importance":2,"areaWorld":2541.7617551951957,"labelPointMethod":"representative-point","source":"regions/country-019/regions-mask.png"},"geometry":{"type":"Point","coordinates":[1191.4930704577966,513.8395189003436]}},{"type":"Feature","id":"region-030-label","properties":{"id":"region-030","number":30,"name":"Меридиония","type":"region","countryId":"country-019","rgb":[33,240,102],"styleIndex":4,"isCapital":false,"capital":false,"labelRank":2,"importance":2,"areaWorld":2833.9879789754077,"labelPointMethod":"representative-point","source":"regions/country-019/regions-mask.png"},"geometry":{"type":"Point","coordinates":[1102.4739229884808,753.7171821305842]}},{"type":"Feature","id":"region-011-label","properties":{"id":"region-011","number":11,"name":"Солария","type":"region","countryId":"country-019","rgb":[33,240,116],"styleIndex":0,"isCapital":false,"capital":false,"labelRank":1,"importance":1,"areaWorld":3428.988500140113,"labelPointMethod":"representative-point","source":"regions/country-019/regions-mask.png"},"geometry":{"type":"Point","coordinates":[1178.8863555078683,548.06735395189]}},{"type":"Feature","id":"region-018-label","properties":{"id":"region-018","number":18,"name":"Валентия","type":"region","countryId":"country-019","rgb":[33,240,185],"styleIndex":2,"isCapital":false,"capital":false,"labelRank":3,"importance":3,"areaWorld":1932.2872508546145,"labelPointMethod":"representative-point","source":"regions/country-019/regions-mask.png"},"geometry":{"type":"Point","coordinates":[1270.102467811159,594.247766323024]}},{"type":"Feature","id":"region-014-label","properties":{"id":"region-014","number":14,"name":"Нереида","type":"region","countryId":"country-019","rgb":[67,33,240],"styleIndex":3,"isCapital":false,"capital":false,"labelRank":3,"importance":3,"areaWorld":1759.0877086928306,"labelPointMethod":"representative-point","source":"regions/country-019/regions-mask.png"},"geometry":{"type":"Point","coordinates":[1264.609438228081,569.6182130584193]}},{"type":"Feature","id":"region-015-label","properties":{"id":"region-015","number":15,"name":"Альтерия","type":"region","countryId":"country-019","rgb":[88,240,33],"styleIndex":4,"isCapital":false,"capital":false,"labelRank":1,"importance":1,"areaWorld":5258.277805544223,"labelPointMethod":"representative-point","source":"regions/country-019/regions-mask.png"},"geometry":{"type":"Point","coordinates":[1395.8238789852608,485.42783505154637]}},{"type":"Feature","id":"region-019-label","properties":{"id":"region-019","number":19,"name":"Иллирия","type":"region","countryId":"country-019","rgb":[102,240,33],"styleIndex":3,"isCapital":false,"capital":false,"labelRank":2,"importance":2,"areaWorld":2575.472167821886,"labelPointMethod":"representative-point","source":"regions/country-019/regions-mask.png"},"geometry":{"type":"Point","coordinates":[1236.3051307921928,633.4351226492649]}},{"type":"Feature","id":"region-025-label","properties":{"id":"region-025","number":25,"name":"Окцидентия","type":"region","countryId":"country-019","rgb":[136,33,240],"styleIndex":4,"isCapital":false,"capital":false,"labelRank":3,"importance":3,"areaWorld":2055.3838342548943,"labelPointMethod":"representative-point","source":"regions/country-019/regions-mask.png"},"geometry":{"type":"Point","coordinates":[1072.167580482283,619.2536082474227]}},{"type":"Feature","id":"region-008-label","properties":{"id":"region-008","number":8,"name":"Сидерия","type":"region","countryId":"country-019","rgb":[150,33,240],"styleIndex":2,"isCapital":false,"capital":false,"labelRank":1,"importance":1,"areaWorld":3717.2014860289487,"labelPointMethod":"representative-point","source":"regions/country-019/regions-mask.png"},"geometry":{"type":"Point","coordinates":[1186.7383660331084,453.3522336769759]}},{"type":"Feature","id":"region-013-label","properties":{"id":"region-013","number":13,"name":"Аргезия","type":"region","countryId":"country-019","rgb":[171,240,33],"styleIndex":2,"isCapital":false,"capital":false,"labelRank":2,"importance":2,"areaWorld":3053.801893721517,"labelPointMethod":"representative-point","source":"regions/country-019/regions-mask.png"},"geometry":{"type":"Point","coordinates":[1202.3471812410585,594.6099656357387]}},{"type":"Feature","id":"region-024-label","properties":{"id":"region-024","number":24,"name":"Медиолания","type":"region","countryId":"country-019","rgb":[205,33,240],"styleIndex":3,"isCapital":false,"capital":false,"labelRank":2,"importance":2,"areaWorld":2899.228673510021,"labelPointMethod":"representative-point","source":"regions/country-019/regions-mask.png"},"geometry":{"type":"Point","coordinates":[1132.817903126916,661.7979381443299]}},{"type":"Feature","id":"region-003-label","properties":{"id":"region-003","number":3,"name":"Эндоо","type":"region","countryId":"country-019","rgb":[219,33,240],"styleIndex":2,"isCapital":false,"capital":false,"labelRank":1,"importance":1,"areaWorld":7126.024801910319,"labelPointMethod":"representative-point","source":"regions/country-019/regions-mask.png"},"geometry":{"type":"Point","coordinates":[1122.4564150161657,473.9082474226804]}},{"type":"Feature","id":"region-004-label","properties":{"id":"region-004","number":4,"name":"Калантия","type":"region","countryId":"country-019","rgb":[240,33,33],"styleIndex":3,"isCapital":false,"capital":false,"labelRank":1,"importance":1,"areaWorld":8089.31063824106,"labelPointMethod":"representative-point","source":"regions/country-019/regions-mask.png"},"geometry":{"type":"Point","coordinates":[1402.136534334764,391.7783505154639]}},{"type":"Feature","id":"region-023-label","properties":{"id":"region-023","number":23,"name":"Кастелия","type":"region","countryId":"country-019","rgb":[240,33,54],"styleIndex":2,"isCapital":false,"capital":false,"labelRank":3,"importance":3,"areaWorld":1554.5095211915745,"labelPointMethod":"representative-point","source":"regions/country-019/regions-mask.png"},"geometry":{"type":"Point","coordinates":[1117.6655601752504,614.3498281786941]}},{"type":"Feature","id":"region-012-label","properties":{"id":"region-012","number":12,"name":"Селения","type":"region","countryId":"country-019","rgb":[240,33,123],"styleIndex":1,"isCapital":false,"capital":false,"labelRank":2,"importance":2,"areaWorld":2712.2238470274183,"labelPointMethod":"representative-point","source":"regions/country-019/regions-mask.png"},"geometry":{"type":"Point","coordinates":[1128.0081813304719,563.8230240549829]}},{"type":"Feature","id":"region-016-label","properties":{"id":"region-016","number":16,"name":"Сильвания","type":"region","countryId":"country-019","rgb":[240,33,192],"styleIndex":0,"isCapital":false,"capital":false,"labelRank":1,"importance":1,"areaWorld":4501.087590373943,"labelPointMethod":"representative-point","source":"regions/country-019/regions-mask.png"},"geometry":{"type":"Point","coordinates":[1346.2006303648068,515.2883161512027]}},{"type":"Feature","id":"region-029-label","properties":{"id":"region-029","number":29,"name":"Мариния","type":"region","countryId":"country-019","rgb":[240,33,205],"styleIndex":3,"isCapital":false,"capital":false,"labelRank":2,"importance":2,"areaWorld":3044.073821567682,"labelPointMethod":"representative-point","source":"regions/country-019/regions-mask.png"},"geometry":{"type":"Point","coordinates":[1073.0019079039791,706.8553264604811]}},{"type":"Feature","id":"region-026-label","properties":{"id":"region-026","number":26,"name":"Виридия","type":"region","countryId":"country-019","rgb":[240,81,33],"styleIndex":0,"isCapital":false,"capital":false,"labelRank":3,"importance":3,"areaWorld":715.39452991816,"labelPointMethod":"representative-point","source":"regions/country-019/regions-mask.png"},"geometry":{"type":"Point","coordinates":[1091.541979613734,658.3570446735396]}},{"type":"Feature","id":"region-006-label","properties":{"id":"region-006","number":6,"name":"Ориентия","type":"region","countryId":"country-019","rgb":[240,102,33],"styleIndex":0,"isCapital":false,"capital":false,"labelRank":1,"importance":1,"areaWorld":3618.940892149844,"labelPointMethod":"representative-point","source":"regions/country-019/regions-mask.png"},"geometry":{"type":"Point","coordinates":[1271.5562410586554,479.97388316151205]}},{"type":"Feature","id":"region-027-label","properties":{"id":"region-027","number":27,"name":"Тенебрия","type":"region","countryId":"country-019","rgb":[240,150,33],"styleIndex":1,"isCapital":false,"capital":false,"labelRank":3,"importance":3,"areaWorld":1234.2695601529251,"labelPointMethod":"representative-point","source":"regions/country-019/regions-mask.png"},"geometry":{"type":"Point","coordinates":[1090.9281920600858,685.5219931271477]}},{"type":"Feature","id":"region-007-label","properties":{"id":"region-007","number":7,"name":"Люциния","type":"region","countryId":"country-019","rgb":[240,171,33],"styleIndex":1,"isCapital":false,"capital":false,"labelRank":1,"importance":1,"areaWorld":4061.7971402445355,"labelPointMethod":"representative-point","source":"regions/country-019/regions-mask.png"},"geometry":{"type":"Point","coordinates":[1246.7941255364808,505.8711340206185]}},{"type":"Feature","id":"region-031-label","properties":{"id":"region-031","number":31,"name":"Эстерия","type":"region","countryId":"country-019","rgb":[240,219,33],"styleIndex":0,"isCapital":false,"capital":false,"labelRank":3,"importance":3,"areaWorld":1122.9582454081383,"labelPointMethod":"representative-point","source":"regions/country-019/regions-mask.png"},"geometry":{"type":"Point","coordinates":[1140.0,779.6938144329897]}},{"type":"Feature","id":"region-017-label","properties":{"id":"region-017","number":17,"name":"Таврия","type":"region","countryId":"country-019","rgb":[240,240,33],"styleIndex":1,"isCapital":false,"capital":false,"labelRank":3,"importance":3,"areaWorld":2075.957921287463,"labelPointMethod":"representative-point","source":"regions/country-019/regions-mask.png"},"geometry":{"type":"Point","coordinates":[1315.8452253218884,560.2010309278351]}},{"type":"Feature","id":"country-008-mainland-southwest-region-001-label","properties":{"id":"country-008-mainland-southwest-region-001","number":1,"name":"Инсел","type":"region","countryId":"country-008","targetComponentId":"mainland-southwest","datasetId":"country-008/mainland-southwest","styleIndex":0,"isCapital":false,"capital":false,"labelRank":1,"importance":1,"areaWorld":530.4929971988811,"labelPointMethod":"representative-point","source":"regions/country-008/mainland-southwest/regions-source.png"},"geometry":{"type":"Point","coordinates":[465.50256470588283,794.1341411764712]}},{"type":"Feature","id":"country-008-mainland-southwest-region-002-label","properties":{"id":"country-008-mainland-southwest-region-002","number":2,"name":"Хэйлищланд","type":"region","countryId":"country-008","targetComponentId":"mainland-southwest","datasetId":"country-008/mainland-southwest","styleIndex":1,"isCapital":false,"capital":false,"labelRank":2,"importance":2,"areaWorld":273.2941176470589,"labelPointMethod":"representative-point","source":"regions/country-008/mainland-southwest/regions-source.png"},"geometry":{"type":"Point","coordinates":[470.93550588235354,853.1358823529429]}},{"type":"Feature","id":"country-008-mainland-southwest-region-003-label","properties":{"id":"country-008-mainland-southwest-region-003","number":3,"name":"Исгеция","type":"region","countryId":"country-008","targetComponentId":"mainland-southwest","datasetId":"country-008/mainland-southwest","styleIndex":2,"isCapital":false,"capital":false,"labelRank":1,"importance":1,"areaWorld":792.9187675070028,"labelPointMethod":"representative-point","source":"regions/country-008/mainland-southwest/regions-source.png"},"geometry":{"type":"Point","coordinates":[498.91515294117755,893.9916000000024]}},{"type":"Feature","id":"country-008-mainland-southwest-region-004-label","properties":{"id":"country-008-mainland-southwest-region-004","number":4,"name":"Кудос","type":"region","countryId":"country-008","targetComponentId":"mainland-southwest","datasetId":"country-008/mainland-southwest","styleIndex":3,"isCapital":false,"capital":false,"labelRank":1,"importance":1,"areaWorld":360.6162464985994,"labelPointMethod":"representative-point","source":"regions/country-008/mainland-southwest/regions-source.png"},"geometry":{"type":"Point","coordinates":[548.0832705882374,864.3277411764723]}},{"type":"Feature","id":"country-008-mainland-southwest-region-005-label","properties":{"id":"country-008-mainland-southwest-region-005","number":5,"name":"Штифтерланд","type":"region","countryId":"country-008","targetComponentId":"mainland-southwest","datasetId":"country-008/mainland-southwest","styleIndex":4,"isCapital":false,"capital":false,"labelRank":2,"importance":2,"areaWorld":340.1512605042019,"labelPointMethod":"representative-point","source":"regions/country-008/mainland-southwest/regions-source.png"},"geometry":{"type":"Point","coordinates":[511.18001764706025,853.4618588235309]}},{"type":"Feature","id":"country-008-mainland-southwest-region-006-label","properties":{"id":"country-008-mainland-southwest-region-006","number":6,"name":"Револьн","type":"region","countryId":"country-008","targetComponentId":"mainland-southwest","datasetId":"country-008/mainland-southwest","styleIndex":0,"isCapital":false,"capital":false,"labelRank":2,"importance":2,"areaWorld":318.2633053221284,"labelPointMethod":"representative-point","source":"regions/country-008/mainland-southwest/regions-source.png"},"geometry":{"type":"Point","coordinates":[488.48390588235395,834.8268705882366]}},{"type":"Feature","id":"country-008-mainland-southwest-region-007-label","properties":{"id":"country-008-mainland-southwest-region-007","number":7,"name":"Веренланд","type":"region","countryId":"country-008","targetComponentId":"mainland-southwest","datasetId":"country-008/mainland-southwest","styleIndex":1,"isCapital":false,"capital":false,"labelRank":2,"importance":2,"areaWorld":241.05322128851552,"labelPointMethod":"representative-point","source":"regions/country-008/mainland-southwest/regions-source.png"},"geometry":{"type":"Point","coordinates":[514.1817176470603,825.2105647058834]}},{"type":"Feature","id":"country-008-mainland-southwest-region-008-label","properties":{"id":"country-008-mainland-southwest-region-008","number":8,"name":"Норланд","type":"region","countryId":"country-008","targetComponentId":"mainland-southwest","datasetId":"country-008/mainland-southwest","styleIndex":2,"isCapital":false,"capital":false,"labelRank":1,"importance":1,"areaWorld":518.4313725490194,"labelPointMethod":"representative-point","source":"regions/country-008/mainland-southwest/regions-source.png"},"geometry":{"type":"Point","coordinates":[548.9525411764726,826.7317882352953]}},{"type":"Feature","id":"country-008-mainland-southwest-region-009-label","properties":{"id":"country-008-mainland-southwest-region-009","number":9,"name":"Кюстен","type":"region","countryId":"country-008","targetComponentId":"mainland-southwest","datasetId":"country-008/mainland-southwest","styleIndex":3,"isCapital":false,"capital":false,"labelRank":2,"importance":2,"areaWorld":272.36414565826374,"labelPointMethod":"representative-point","source":"regions/country-008/mainland-southwest/regions-source.png"},"geometry":{"type":"Point","coordinates":[610.7250823529445,844.6604941176483]}},{"type":"Feature","id":"country-008-mainland-southwest-region-010-label","properties":{"id":"country-008-mainland-southwest-region-010","number":10,"name":"Интермариум","type":"region","countryId":"country-008","targetComponentId":"mainland-southwest","datasetId":"country-008/mainland-southwest","styleIndex":4,"isCapital":false,"capital":false,"labelRank":3,"importance":3,"areaWorld":161.29411764705844,"labelPointMethod":"representative-point","source":"regions/country-008/mainland-southwest/regions-source.png"},"geometry":{"type":"Point","coordinates":[572.7488235294143,859.6554117647074]}},{"type":"Feature","id":"country-008-mainland-southwest-region-011-label","properties":{"id":"country-008-mainland-southwest-region-011","number":11,"name":"Джюдион","type":"region","countryId":"country-008","targetComponentId":"mainland-southwest","datasetId":"country-008/mainland-southwest","styleIndex":0,"isCapital":false,"capital":false,"labelRank":1,"importance":1,"areaWorld":488.4537815126053,"labelPointMethod":"representative-point","source":"regions/country-008/mainland-southwest/regions-source.png"},"geometry":{"type":"Point","coordinates":[600.0765176470618,876.2258823529432]}},{"type":"Feature","id":"country-008-mainland-southwest-region-012-label","properties":{"id":"country-008-mainland-southwest-region-012","number":12,"name":"Немланд","type":"region","countryId":"country-008","targetComponentId":"mainland-southwest","datasetId":"country-008/mainland-southwest","styleIndex":1,"isCapital":false,"capital":false,"labelRank":3,"importance":3,"areaWorld":40.91316526610636,"labelPointMethod":"representative-point","source":"regions/country-008/mainland-southwest/regions-source.png"},"geometry":{"type":"Point","coordinates":[524.2869882352957,843.4652470588251]}},{"type":"Feature","id":"country-008-mainland-southwest-region-013-label","properties":{"id":"country-008-mainland-southwest-region-013","number":13,"name":"Мительланд","type":"region","countryId":"country-008","targetComponentId":"mainland-southwest","datasetId":"country-008/mainland-southwest","styleIndex":2,"isCapital":false,"capital":false,"labelRank":3,"importance":3,"areaWorld":193.12044817927156,"labelPointMethod":"representative-point","source":"regions/country-008/mainland-southwest/regions-source.png"},"geometry":{"type":"Point","coordinates":[545.448294117649,845.8014117647074]}},{"type":"Feature","id":"country-008-mainland-southwest-region-014-label","properties":{"id":"country-008-mainland-southwest-region-014","number":14,"name":"Немецк","type":"region","countryId":"country-008","targetComponentId":"mainland-southwest","datasetId":"country-008/mainland-southwest","styleIndex":3,"isCapital":true,"capital":true,"labelRank":3,"importance":3,"areaWorld":46.31372549019595,"labelPointMethod":"representative-point","source":"regions/country-008/mainland-southwest/regions-source.png"},"geometry":{"type":"Point","coordinates":[528.6333411764722,837.2173647058835]}}]}