{"type":"FeatureCollection","features":[{"type":"Feature","id":"country-002-production-label","properties":{"id":"country-002-production-label","countryId":"country-002","name":"Асмаин","type":"country-label","stateGroupId":"country-002","labelRank":3,"areaWorld":4071.0,"placementMethod":"largest-component-polylabel","boundaryClearanceWorld":24.28775451809512},"geometry":{"type":"Point","coordinates":[1006.703125,457.703125]}},{"type":"Feature","id":"country-004-production-label","properties":{"id":"country-004-production-label","countryId":"country-004","name":"Роха","type":"country-label","stateGroupId":"country-004","labelRank":2,"areaWorld":14908.0,"placementMethod":"largest-component-polylabel","boundaryClearanceWorld":37.856123134384084},"geometry":{"type":"Point","coordinates":[376.9422607421875,684.1439208984375]}},{"type":"Feature","id":"country-005-production-label","properties":{"id":"country-005-production-label","countryId":"country-005","name":"Этрория","type":"country-label","stateGroupId":"country-005","labelRank":3,"areaWorld":1260.0,"placementMethod":"largest-component-polylabel","boundaryClearanceWorld":12.20305654040096},"geometry":{"type":"Point","coordinates":[329.287109375,755.783203125]}},{"type":"Feature","id":"country-006-production-label","properties":{"id":"country-006-production-label","countryId":"country-006","name":"Ярландия","type":"country-label","stateGroupId":"country-006","labelRank":2,"areaWorld":18300.5,"placementMethod":"largest-component-polylabel","boundaryClearanceWorld":51.656883392789304},"geometry":{"type":"Point","coordinates":[408.92431640625,558.29833984375]}},{"type":"Feature","id":"country-007-production-label","properties":{"id":"country-007-production-label","countryId":"country-007","name":"Хисолия","type":"country-label","stateGroupId":"country-007","labelRank":2,"areaWorld":10703.0,"placementMethod":"largest-component-polylabel","boundaryClearanceWorld":44.05008162686842},"geometry":{"type":"Point","coordinates":[919.76318359375,492.96728515625]}},{"type":"Feature","id":"country-008-production-label","properties":{"id":"country-008-production-label","countryId":"country-008","name":"Негеция","type":"country-label","stateGroupId":"country-008","labelRank":1,"areaWorld":88654.0,"placementMethod":"manual-override","boundaryClearanceWorld":17.88854381999832},"geometry":{"type":"Point","coordinates":[546.0,850.0]}},{"type":"Feature","id":"country-009-production-label","properties":{"id":"country-009-production-label","countryId":"country-009","name":"Пагристан","type":"country-label","stateGroupId":"country-009","labelRank":2,"areaWorld":29039.0,"placementMethod":"largest-component-polylabel","boundaryClearanceWorld":71.04474791997738},"geometry":{"type":"Point","coordinates":[930.992919921875,361.717529296875]}},{"type":"Feature","id":"country-010-production-label","properties":{"id":"country-010-production-label","countryId":"country-010","name":"Гайяна","type":"country-label","stateGroupId":"country-010","labelRank":2,"areaWorld":17534.0,"placementMethod":"largest-component-polylabel","boundaryClearanceWorld":50.47562454956947},"geometry":{"type":"Point","coordinates":[801.7901611328125,433.5115966796875]}},{"type":"Feature","id":"country-011-production-label","properties":{"id":"country-011-production-label","countryId":"country-011","name":"Урия","type":"country-label","stateGroupId":"country-011","labelRank":3,"areaWorld":1392.0,"placementMethod":"largest-component-polylabel","boundaryClearanceWorld":12.8505859375},"geometry":{"type":"Point","coordinates":[620.0927734375,618.8505859375]}},{"type":"Feature","id":"country-012-production-label-1","properties":{"id":"country-012-production-label-1","countryId":"country-012","name":"Просперия","type":"country-label","stateGroupId":"country-012","labelRank":1,"areaWorld":63092.5,"placementMethod":"component-anchor-polylabel","boundaryClearanceWorld":39.67119591647454},"geometry":{"type":"Point","coordinates":[185.350830078125,391.516845703125]}},{"type":"Feature","id":"country-012-production-label-2","properties":{"id":"country-012-production-label-2","countryId":"country-012","name":"Просперия","type":"country-label","stateGroupId":"country-012","labelRank":1,"areaWorld":63092.5,"placementMethod":"component-anchor-polylabel","boundaryClearanceWorld":27.854699635750453},"geometry":{"type":"Point","coordinates":[689.1405029296875,433.3792724609375]}},{"type":"Feature","id":"country-013-production-label","properties":{"id":"country-013-production-label","countryId":"country-013","name":"Эшкирия","type":"country-label","stateGroupId":"country-013","labelRank":2,"areaWorld":15181.0,"placementMethod":"largest-component-polylabel","boundaryClearanceWorld":47.925953938039925},"geometry":{"type":"Point","coordinates":[501.96337890625,664.56787109375]}},{"type":"Feature","id":"country-014-production-label","properties":{"id":"country-014-production-label","countryId":"country-014","name":"Энландия","type":"country-label","stateGroupId":"country-014","labelRank":3,"areaWorld":7122.0,"placementMethod":"largest-component-polylabel","boundaryClearanceWorld":28.59654657414785},"geometry":{"type":"Point","coordinates":[721.4326171875,704.5634765625]}},{"type":"Feature","id":"country-015-production-label","properties":{"id":"country-015-production-label","countryId":"country-015","name":"Гросс","type":"country-label","stateGroupId":"country-015","labelRank":2,"areaWorld":11251.0,"placementMethod":"largest-component-polylabel","boundaryClearanceWorld":30.573146471311226},"geometry":{"type":"Point","coordinates":[829.734375,771.578125]}},{"type":"Feature","id":"country-016-production-label","properties":{"id":"country-016-production-label","countryId":"country-016","name":"Вергилия","type":"country-label","stateGroupId":"country-016","labelRank":1,"areaWorld":65910.0,"placementMethod":"largest-component-polylabel","boundaryClearanceWorld":77.00416550655298},"geometry":{"type":"Point","coordinates":[374.633056640625,903.275146484375]}},{"type":"Feature","id":"country-017-production-label","properties":{"id":"country-017-production-label","countryId":"country-017","name":"Расшатай","type":"country-label","stateGroupId":"country-017","labelRank":1,"areaWorld":31772.0,"placementMethod":"largest-component-polylabel","boundaryClearanceWorld":57.22210009449994},"geometry":{"type":"Point","coordinates":[568.8218383789062,559.6007690429688]}},{"type":"Feature","id":"country-018-production-label","properties":{"id":"country-018-production-label","countryId":"country-018","name":"Эллас","type":"country-label","stateGroupId":"country-018","labelRank":3,"areaWorld":6610.0,"placementMethod":"largest-component-polylabel","boundaryClearanceWorld":28.681339042826274},"geometry":{"type":"Point","coordinates":[993.330078125,816.626953125]}},{"type":"Feature","id":"country-019-production-label","properties":{"id":"country-019-production-label","countryId":"country-019","name":"Люменария","type":"country-label","stateGroupId":"country-019","labelRank":1,"areaWorld":125073.5,"placementMethod":"largest-component-polylabel","boundaryClearanceWorld":113.0686644545591},"geometry":{"type":"Point","coordinates":[1194.4864501953125,551.2052001953125]}},{"type":"Feature","id":"country-020-production-label","properties":{"id":"country-020-production-label","countryId":"country-020","name":"Ферондия","type":"country-label","stateGroupId":"country-020","labelRank":3,"areaWorld":330.0,"placementMethod":"largest-component-polylabel","boundaryClearanceWorld":6.513786953162607},"geometry":{"type":"Point","coordinates":[670.025390625,678.205078125]}},{"type":"Feature","id":"country-021-production-label","properties":{"id":"country-021-production-label","countryId":"country-021","name":"Критания","type":"country-label","stateGroupId":"country-021","labelRank":2,"areaWorld":18059.0,"placementMethod":"largest-component-polylabel","boundaryClearanceWorld":50.36816390156041},"geometry":{"type":"Point","coordinates":[742.39453125,617.60546875]}},{"type":"Feature","id":"country-022-production-label","properties":{"id":"country-022-production-label","countryId":"country-022","name":"Аустра","type":"country-label","stateGroupId":"country-022","labelRank":1,"areaWorld":73348.0,"placementMethod":"largest-component-polylabel","boundaryClearanceWorld":87.40020916920436},"geometry":{"type":"Point","coordinates":[1426.1141357421875,621.2447509765625]}},{"type":"Feature","id":"country-023-production-label","properties":{"id":"country-023-production-label","countryId":"country-023","name":"Новая Кайландия","type":"country-label","stateGroupId":"country-023","labelRank":2,"areaWorld":15047.0,"placementMethod":"largest-component-polylabel","boundaryClearanceWorld":35.46439957889411},"geometry":{"type":"Point","coordinates":[1157.5699462890625,372.5382080078125]}},{"type":"Feature","id":"country-024-production-label","properties":{"id":"country-024-production-label","countryId":"country-024","name":"Южный Сапах","type":"country-label","stateGroupId":"country-024","labelRank":3,"areaWorld":1862.5,"placementMethod":"largest-component-polylabel","boundaryClearanceWorld":11.112216419768183},"geometry":{"type":"Point","coordinates":[314.46484375,547.82421875]}},{"type":"Feature","id":"country-025-production-label","properties":{"id":"country-025-production-label","countryId":"country-025","name":"Северный Сапах","type":"country-label","stateGroupId":"country-025","labelRank":3,"areaWorld":4045.0,"placementMethod":"largest-component-polylabel","boundaryClearanceWorld":20.7626885375133},"geometry":{"type":"Point","coordinates":[311.2626953125,497.0263671875]}}]}