{"type":"FeatureCollection","features":[{"type":"Feature","id":"country-002-debug-label","properties":{"id":"country-002-debug-label","countryId":"country-002","label":"002","type":"country-debug-label","componentCount":3,"selectionMethod":"largest-component-polylabel","questionableAutomaticSelection":false},"geometry":{"type":"Point","coordinates":[1006.5,457.5]}},{"type":"Feature","id":"country-004-debug-label","properties":{"id":"country-004-debug-label","countryId":"country-004","label":"004","type":"country-debug-label","componentCount":3,"selectionMethod":"largest-component-polylabel","questionableAutomaticSelection":false},"geometry":{"type":"Point","coordinates":[377.25,684.0]}},{"type":"Feature","id":"country-005-debug-label","properties":{"id":"country-005-debug-label","countryId":"country-005","label":"005","type":"country-debug-label","componentCount":2,"selectionMethod":"largest-component-polylabel","questionableAutomaticSelection":false},"geometry":{"type":"Point","coordinates":[328.5,755.75]}},{"type":"Feature","id":"country-006-debug-label","properties":{"id":"country-006-debug-label","countryId":"country-006","label":"006","type":"country-debug-label","componentCount":10,"selectionMethod":"largest-component-polylabel","questionableAutomaticSelection":false},"geometry":{"type":"Point","coordinates":[410.25,558.25]}},{"type":"Feature","id":"country-007-debug-label","properties":{"id":"country-007-debug-label","countryId":"country-007","label":"007","type":"country-debug-label","componentCount":2,"selectionMethod":"largest-component-polylabel","questionableAutomaticSelection":false},"geometry":{"type":"Point","coordinates":[916.75,493.25]}},{"type":"Feature","id":"country-008-debug-label","properties":{"id":"country-008-debug-label","countryId":"country-008","label":"008","type":"country-debug-label","componentCount":232,"selectionMethod":"manual-override","questionableAutomaticSelection":false},"geometry":{"type":"Point","coordinates":[546.0,850.0]}},{"type":"Feature","id":"country-009-debug-label","properties":{"id":"country-009-debug-label","countryId":"country-009","label":"009","type":"country-debug-label","componentCount":3,"selectionMethod":"largest-component-polylabel","questionableAutomaticSelection":false},"geometry":{"type":"Point","coordinates":[928.5,359.75]}},{"type":"Feature","id":"country-010-debug-label","properties":{"id":"country-010-debug-label","countryId":"country-010","label":"010","type":"country-debug-label","componentCount":4,"selectionMethod":"largest-component-polylabel","questionableAutomaticSelection":false},"geometry":{"type":"Point","coordinates":[801.75,433.5]}},{"type":"Feature","id":"country-011-debug-label","properties":{"id":"country-011-debug-label","countryId":"country-011","label":"011","type":"country-debug-label","componentCount":1,"selectionMethod":"largest-component-polylabel","questionableAutomaticSelection":false},"geometry":{"type":"Point","coordinates":[619.5,618.75]}},{"type":"Feature","id":"country-024-debug-label","properties":{"id":"country-024-debug-label","countryId":"country-024","label":"024","type":"country-debug-label","componentCount":5,"selectionMethod":"largest-component-polylabel","questionableAutomaticSelection":true},"geometry":{"type":"Point","coordinates":[314.25,547.75]}},{"type":"Feature","id":"country-012-debug-label","properties":{"id":"country-012-debug-label","countryId":"country-012","label":"012","type":"country-debug-label","componentCount":32,"selectionMethod":"largest-component-polylabel","questionableAutomaticSelection":true},"geometry":{"type":"Point","coordinates":[184.5,390.5]}},{"type":"Feature","id":"country-013-debug-label","properties":{"id":"country-013-debug-label","countryId":"country-013","label":"013","type":"country-debug-label","componentCount":2,"selectionMethod":"largest-component-polylabel","questionableAutomaticSelection":false},"geometry":{"type":"Point","coordinates":[501.25,664.75]}},{"type":"Feature","id":"country-014-debug-label","properties":{"id":"country-014-debug-label","countryId":"country-014","label":"014","type":"country-debug-label","componentCount":3,"selectionMethod":"largest-component-polylabel","questionableAutomaticSelection":false},"geometry":{"type":"Point","coordinates":[720.75,703.75]}},{"type":"Feature","id":"country-015-debug-label","properties":{"id":"country-015-debug-label","countryId":"country-015","label":"015","type":"country-debug-label","componentCount":7,"selectionMethod":"largest-component-polylabel","questionableAutomaticSelection":false},"geometry":{"type":"Point","coordinates":[835.0,770.5]}},{"type":"Feature","id":"country-025-debug-label","properties":{"id":"country-025-debug-label","countryId":"country-025","label":"025","type":"country-debug-label","componentCount":3,"selectionMethod":"largest-component-polylabel","questionableAutomaticSelection":false},"geometry":{"type":"Point","coordinates":[311.5,497.0]}},{"type":"Feature","id":"country-016-debug-label","properties":{"id":"country-016-debug-label","countryId":"country-016","label":"016","type":"country-debug-label","componentCount":22,"selectionMethod":"largest-component-polylabel","questionableAutomaticSelection":true},"geometry":{"type":"Point","coordinates":[374.25,902.75]}},{"type":"Feature","id":"country-017-debug-label","properties":{"id":"country-017-debug-label","countryId":"country-017","label":"017","type":"country-debug-label","componentCount":5,"selectionMethod":"largest-component-polylabel","questionableAutomaticSelection":false},"geometry":{"type":"Point","coordinates":[568.0,558.75]}},{"type":"Feature","id":"country-018-debug-label","properties":{"id":"country-018-debug-label","countryId":"country-018","label":"018","type":"country-debug-label","componentCount":2,"selectionMethod":"largest-component-polylabel","questionableAutomaticSelection":false},"geometry":{"type":"Point","coordinates":[993.5,816.5]}},{"type":"Feature","id":"country-019-debug-label","properties":{"id":"country-019-debug-label","countryId":"country-019","label":"019","type":"country-debug-label","componentCount":347,"selectionMethod":"largest-component-polylabel","questionableAutomaticSelection":true},"geometry":{"type":"Point","coordinates":[1194.5,548.75]}},{"type":"Feature","id":"country-020-debug-label","properties":{"id":"country-020-debug-label","countryId":"country-020","label":"020","type":"country-debug-label","componentCount":3,"selectionMethod":"largest-component-polylabel","questionableAutomaticSelection":false},"geometry":{"type":"Point","coordinates":[671.0,679.0]}},{"type":"Feature","id":"country-021-debug-label","properties":{"id":"country-021-debug-label","countryId":"country-021","label":"021","type":"country-debug-label","componentCount":4,"selectionMethod":"largest-component-polylabel","questionableAutomaticSelection":false},"geometry":{"type":"Point","coordinates":[741.25,618.75]}},{"type":"Feature","id":"country-022-debug-label","properties":{"id":"country-022-debug-label","countryId":"country-022","label":"022","type":"country-debug-label","componentCount":9,"selectionMethod":"largest-component-polylabel","questionableAutomaticSelection":false},"geometry":{"type":"Point","coordinates":[1426.0,621.5]}},{"type":"Feature","id":"country-023-debug-label","properties":{"id":"country-023-debug-label","countryId":"country-023","label":"023","type":"country-debug-label","componentCount":6,"selectionMethod":"largest-component-polylabel","questionableAutomaticSelection":false},"geometry":{"type":"Point","coordinates":[1157.75,372.0]}}]}