{"type":"FeatureCollection","features":[{"type":"Feature","id":"border-002-007-0001","properties":{"id":"border-002-007-0001","type":"international","leftCountry":"country-002","rightCountry":"country-007"},"geometry":{"type":"MultiLineString","coordinates":[[[971.0,448.0],[972.0,448.0],[972.0,449.0],[973.0,449.0],[973.0,450.0],[974.0,450.0],[974.0,451.0],[975.0,451.0],[975.0,452.0],[976.0,452.0],[976.0,453.0],[977.0,453.0],[977.0,454.0],[978.0,454.0],[978.0,455.0],[979.0,455.0],[979.0,456.0],[980.0,456.0],[980.0,457.0],[982.0,458.0],[982.0,463.0],[983.0,463.0],[983.0,464.0],[982.0,464.0],[982.0,467.0],[981.0,467.0],[980.0,469.0],[978.0,469.0],[978.0,471.0],[976.0,472.0],[976.0,474.0],[975.0,474.0],[975.0,475.0],[974.0,475.0],[974.0,476.0],[972.0,477.0],[972.0,484.0]],[[972.0,484.0],[973.0,484.0],[973.0,485.0]]]}},{"type":"Feature","id":"border-002-009-0001","properties":{"id":"border-002-009-0001","type":"international","leftCountry":"country-002","rightCountry":"country-009"},"geometry":{"type":"LineString","coordinates":[[973.0,422.0],[973.0,428.0],[972.0,428.0],[972.0,446.0],[971.0,446.0],[971.0,448.0]]}},{"type":"Feature","id":"border-004-005-0001","properties":{"id":"border-004-005-0001","type":"international","leftCountry":"country-004","rightCountry":"country-005"},"geometry":{"type":"LineString","coordinates":[[301.0,742.0],[301.0,740.0],[302.0,740.0],[302.0,739.0],[303.0,739.0],[303.0,738.0],[304.0,738.0],[305.0,736.0],[312.0,736.0],[312.0,737.0],[316.0,738.0],[316.0,739.0],[317.0,739.0],[317.0,740.0],[318.0,740.0],[319.0,742.0],[321.0,742.0],[321.0,743.0],[325.0,743.0],[325.0,744.0],[326.0,744.0],[327.0,742.0],[334.0,742.0],[334.0,743.0],[335.0,743.0],[335.0,745.0],[339.0,746.0]]}},{"type":"Feature","id":"border-004-006-0001","properties":{"id":"border-004-006-0001","type":"international","leftCountry":"country-004","rightCountry":"country-006"},"geometry":{"type":"LineString","coordinates":[[386.0,621.0],[390.0,620.0],[390.0,619.0],[391.0,619.0],[391.0,618.0],[393.0,618.0],[393.0,617.0],[406.0,617.0],[406.0,616.0],[407.0,616.0],[407.0,615.0],[409.0,614.0],[409.0,612.0],[411.0,612.0],[411.0,611.0],[413.0,611.0],[413.0,610.0],[419.0,610.0],[419.0,609.0],[439.0,609.0],[439.0,610.0],[442.0,610.0],[442.0,611.0],[446.0,612.0],[446.0,617.0],[447.0,617.0],[447.0,619.0],[448.0,619.0],[448.0,620.0],[452.0,620.0],[452.0,619.0],[453.0,619.0],[453.0,618.0],[454.0,618.0],[455.0,616.0],[457.0,616.0],[457.0,615.0],[461.0,615.0],[461.0,614.0],[462.0,614.0],[462.0,613.0],[463.0,613.0],[464.0,611.0],[465.0,611.0],[466.0,613.0],[468.0,613.0]]}},{"type":"Feature","id":"border-004-013-0001","properties":{"id":"border-004-013-0001","type":"international","leftCountry":"country-004","rightCountry":"country-013"},"geometry":{"type":"LineString","coordinates":[[468.0,613.0],[468.0,614.0],[467.0,614.0],[467.0,621.0],[465.0,622.0],[465.0,625.0],[463.0,626.0],[463.0,628.0],[462.0,628.0],[461.0,630.0],[459.0,630.0],[458.0,632.0],[456.0,632.0],[456.0,633.0],[455.0,633.0],[455.0,635.0],[454.0,635.0],[454.0,636.0],[452.0,637.0],[452.0,640.0],[451.0,640.0],[451.0,646.0],[452.0,646.0],[452.0,647.0],[454.0,648.0],[454.0,663.0],[453.0,663.0],[453.0,666.0],[452.0,666.0],[452.0,667.0],[451.0,667.0],[450.0,669.0],[444.0,669.0],[443.0,671.0],[441.0,671.0],[441.0,673.0],[440.0,673.0],[440.0,674.0],[439.0,674.0],[438.0,676.0],[435.0,676.0],[435.0,673.0],[434.0,673.0],[434.0,672.0],[432.0,672.0],[432.0,671.0],[427.0,671.0],[427.0,672.0],[425.0,672.0],[425.0,673.0],[423.0,673.0],[423.0,674.0],[421.0,675.0],[421.0,677.0],[420.0,677.0],[420.0,678.0],[419.0,678.0],[419.0,679.0],[418.0,679.0],[418.0,680.0],[416.0,681.0],[416.0,685.0],[415.0,685.0],[415.0,692.0],[414.0,692.0],[414.0,700.0],[415.0,700.0],[415.0,702.0],[413.0,703.0],[413.0,708.0],[414.0,708.0],[414.0,710.0],[413.0,710.0],[413.0,714.0],[412.0,714.0],[412.0,715.0],[413.0,715.0],[413.0,717.0],[414.0,717.0],[414.0,718.0],[415.0,718.0],[415.0,720.0],[416.0,720.0],[417.0,722.0],[419.0,722.0],[419.0,723.0],[421.0,723.0],[421.0,722.0],[424.0,722.0],[424.0,723.0],[433.0,723.0],[433.0,724.0],[434.0,724.0],[435.0,726.0],[438.0,726.0],[438.0,727.0],[439.0,727.0],[439.0,728.0],[441.0,729.0],[441.0,731.0],[442.0,731.0],[442.0,732.0],[443.0,732.0],[444.0,734.0]]}},{"type":"Feature","id":"border-006-024-0001","properties":{"id":"border-006-024-0001","type":"international","leftCountry":"country-006","rightCountry":"country-024"},"geometry":{"type":"LineString","coordinates":[[321.0,538.0],[325.0,540.0],[326.0,551.0],[327.0,551.0],[327.0,554.0],[328.0,554.0],[328.0,558.0],[327.0,558.0],[327.0,559.0]]}},{"type":"Feature","id":"border-006-013-0001","properties":{"id":"border-006-013-0001","type":"international","leftCountry":"country-006","rightCountry":"country-013"},"geometry":{"type":"LineString","coordinates":[[468.0,613.0],[468.0,612.0],[469.0,612.0],[470.0,610.0],[472.0,610.0],[472.0,609.0],[474.0,608.0],[474.0,606.0],[476.0,605.0],[476.0,604.0],[475.0,604.0],[475.0,602.0],[479.0,602.0],[479.0,604.0],[480.0,604.0],[480.0,605.0],[485.0,605.0],[485.0,606.0],[489.0,606.0],[489.0,607.0],[494.0,607.0],[494.0,609.0],[495.0,609.0],[495.0,610.0],[498.0,610.0],[498.0,613.0],[502.0,613.0],[502.0,612.0],[504.0,612.0],[504.0,611.0],[511.0,611.0],[511.0,610.0],[512.0,610.0]]}},{"type":"Feature","id":"border-006-025-0001","properties":{"id":"border-006-025-0001","type":"international","leftCountry":"country-006","rightCountry":"country-025"},"geometry":{"type":"MultiLineString","coordinates":[[[336.0,504.0],[336.0,505.0],[337.0,505.0]],[[337.0,505.0],[337.0,506.0],[336.0,506.0],[336.0,507.0],[337.0,507.0],[337.0,509.0],[335.0,510.0],[334.0,514.0],[333.0,514.0],[333.0,515.0],[331.0,516.0],[331.0,518.0],[329.0,519.0],[329.0,521.0],[327.0,522.0],[327.0,524.0],[325.0,525.0],[325.0,527.0],[324.0,527.0],[324.0,528.0],[322.0,529.0],[322.0,537.0],[321.0,537.0],[321.0,538.0]]]}},{"type":"Feature","id":"border-006-017-0001","properties":{"id":"border-006-017-0001","type":"international","leftCountry":"country-006","rightCountry":"country-017"},"geometry":{"type":"LineString","coordinates":[[484.0,504.0],[484.0,505.0],[486.0,506.0],[486.0,508.0],[487.0,508.0],[487.0,511.0],[488.0,511.0],[488.0,518.0],[487.0,518.0],[487.0,520.0],[486.0,520.0],[486.0,522.0],[485.0,522.0],[484.0,526.0],[483.0,526.0],[483.0,527.0],[482.0,527.0],[482.0,528.0],[481.0,528.0],[481.0,529.0],[480.0,529.0],[480.0,530.0],[478.0,531.0],[477.0,535.0],[475.0,536.0],[475.0,538.0],[474.0,538.0],[474.0,540.0],[473.0,540.0],[473.0,546.0],[474.0,546.0],[474.0,548.0],[475.0,548.0],[475.0,549.0],[477.0,549.0],[477.0,550.0],[480.0,550.0],[480.0,551.0],[484.0,552.0],[484.0,554.0],[485.0,554.0],[485.0,555.0],[486.0,555.0],[486.0,556.0],[487.0,556.0],[487.0,557.0],[488.0,557.0],[489.0,559.0],[495.0,560.0],[495.0,561.0],[497.0,561.0],[498.0,563.0],[500.0,563.0],[501.0,565.0],[503.0,565.0],[503.0,567.0],[504.0,567.0],[504.0,570.0],[505.0,570.0],[505.0,572.0],[506.0,572.0],[506.0,573.0],[507.0,573.0],[508.0,575.0],[513.0,575.0],[513.0,576.0],[514.0,576.0],[514.0,578.0],[512.0,579.0],[512.0,583.0],[511.0,583.0],[511.0,584.0],[509.0,585.0],[509.0,587.0],[510.0,587.0],[510.0,588.0],[511.0,588.0],[511.0,590.0],[512.0,590.0],[512.0,594.0],[511.0,594.0],[511.0,595.0],[509.0,596.0],[509.0,599.0],[511.0,600.0],[511.0,608.0],[512.0,608.0],[512.0,610.0]]}},{"type":"Feature","id":"border-007-008-0001","properties":{"id":"border-007-008-0001","type":"international","leftCountry":"country-007","rightCountry":"country-008"},"geometry":{"type":"LineString","coordinates":[[848.0,487.0],[852.0,487.0],[852.0,489.0],[853.0,489.0],[853.0,491.0],[854.0,491.0],[854.0,492.0],[853.0,492.0],[853.0,494.0],[857.0,494.0],[857.0,495.0],[859.0,495.0],[859.0,496.0],[861.0,497.0],[861.0,498.0],[860.0,498.0],[860.0,500.0],[859.0,500.0],[859.0,502.0],[858.0,502.0],[858.0,505.0],[857.0,505.0],[857.0,506.0],[855.0,506.0],[855.0,508.0],[854.0,508.0],[853.0,512.0],[854.0,512.0],[854.0,515.0],[855.0,515.0],[855.0,517.0],[854.0,517.0],[854.0,518.0],[855.0,518.0],[856.0,522.0],[858.0,523.0],[858.0,525.0],[862.0,525.0],[862.0,526.0],[863.0,526.0],[864.0,528.0],[866.0,528.0],[866.0,533.0],[865.0,533.0],[865.0,537.0]]}},{"type":"Feature","id":"border-007-009-0001","properties":{"id":"border-007-009-0001","type":"international","leftCountry":"country-007","rightCountry":"country-009"},"geometry":{"type":"LineString","coordinates":[[905.0,446.0],[905.0,447.0],[906.0,447.0],[907.0,449.0],[909.0,449.0],[909.0,450.0],[910.0,450.0],[910.0,449.0],[913.0,449.0],[913.0,448.0],[915.0,448.0],[915.0,447.0],[917.0,447.0],[917.0,448.0],[918.0,448.0],[918.0,447.0],[922.0,447.0],[922.0,446.0],[924.0,447.0],[924.0,446.0],[930.0,445.0],[930.0,446.0],[932.0,446.0],[932.0,447.0],[933.0,447.0],[934.0,451.0],[936.0,452.0],[936.0,451.0],[937.0,451.0],[937.0,450.0],[938.0,450.0],[938.0,449.0],[939.0,449.0],[939.0,448.0],[940.0,448.0],[940.0,447.0],[941.0,447.0],[941.0,446.0],[942.0,446.0],[942.0,445.0],[943.0,445.0],[944.0,443.0],[946.0,443.0],[946.0,442.0],[949.0,442.0],[949.0,443.0],[952.0,443.0],[952.0,445.0],[953.0,445.0],[953.0,446.0],[954.0,446.0],[955.0,448.0],[957.0,448.0],[957.0,447.0],[960.0,447.0],[961.0,449.0],[963.0,449.0],[963.0,450.0],[964.0,450.0],[964.0,449.0],[967.0,449.0],[968.0,451.0],[969.0,451.0],[969.0,450.0],[970.0,450.0],[971.0,448.0]]}},{"type":"Feature","id":"border-007-010-0001","properties":{"id":"border-007-010-0001","type":"international","leftCountry":"country-007","rightCountry":"country-010"},"geometry":{"type":"LineString","coordinates":[[848.0,487.0],[848.0,486.0],[847.0,486.0],[847.0,480.0],[848.0,480.0],[848.0,479.0],[855.0,479.0],[855.0,478.0],[856.0,478.0],[856.0,477.0],[858.0,476.0],[858.0,472.0],[860.0,471.0],[860.0,469.0],[861.0,469.0],[861.0,468.0],[862.0,468.0],[863.0,466.0],[865.0,466.0],[865.0,465.0],[866.0,465.0],[866.0,464.0],[867.0,464.0],[868.0,462.0],[870.0,462.0],[870.0,461.0],[874.0,460.0],[874.0,459.0],[875.0,459.0],[875.0,458.0],[877.0,458.0],[877.0,457.0],[888.0,457.0],[888.0,456.0],[891.0,456.0],[891.0,455.0],[893.0,455.0],[893.0,454.0],[894.0,454.0],[895.0,452.0],[898.0,452.0],[898.0,451.0],[899.0,451.0],[899.0,450.0],[900.0,450.0],[901.0,448.0],[903.0,448.0],[903.0,447.0],[905.0,446.0]]}},{"type":"Feature","id":"border-007-019-0001","properties":{"id":"border-007-019-0001","type":"international","leftCountry":"country-007","rightCountry":"country-019"},"geometry":{"type":"LineString","coordinates":[[865.0,537.0],[865.0,538.0],[868.0,538.0],[868.0,537.0],[875.0,537.0],[875.0,538.0],[876.0,538.0],[876.0,537.0],[879.0,537.0],[880.0,535.0],[882.0,535.0],[882.0,534.0],[883.0,534.0],[883.0,532.0],[884.0,532.0],[885.0,530.0],[887.0,530.0],[887.0,529.0],[888.0,529.0],[888.0,530.0],[891.0,530.0],[891.0,531.0],[892.0,531.0],[892.0,532.0],[893.0,532.0],[893.0,533.0],[894.0,533.0],[894.0,534.0],[896.0,535.0],[896.0,537.0],[898.0,537.0],[899.0,539.0],[903.0,540.0],[903.0,541.0],[904.0,541.0],[904.0,542.0],[906.0,543.0],[906.0,545.0],[911.0,545.0],[911.0,544.0],[913.0,544.0]]}},{"type":"Feature","id":"border-008-010-0001","properties":{"id":"border-008-010-0001","type":"international","leftCountry":"country-008","rightCountry":"country-010"},"geometry":{"type":"LineString","coordinates":[[758.0,513.0],[759.0,513.0],[759.0,512.0],[760.0,512.0],[760.0,511.0],[761.0,511.0],[761.0,510.0],[762.0,510.0],[762.0,509.0],[764.0,508.0],[764.0,504.0],[762.0,503.0],[762.0,497.0],[764.0,496.0],[764.0,490.0],[763.0,490.0],[763.0,486.0],[764.0,486.0],[764.0,484.0],[773.0,484.0],[773.0,485.0],[779.0,485.0],[779.0,486.0],[785.0,487.0],[785.0,488.0],[787.0,488.0],[787.0,489.0],[789.0,489.0],[789.0,490.0],[796.0,490.0],[796.0,489.0],[797.0,489.0],[797.0,488.0],[798.0,488.0],[798.0,487.0],[799.0,487.0],[799.0,486.0],[800.0,486.0],[801.0,484.0],[808.0,484.0],[808.0,485.0],[811.0,485.0],[811.0,487.0],[813.0,487.0],[813.0,488.0],[817.0,488.0],[817.0,489.0],[818.0,489.0],[818.0,490.0],[819.0,490.0],[820.0,492.0],[823.0,492.0],[823.0,493.0],[827.0,493.0],[827.0,494.0],[828.0,494.0],[829.0,496.0],[842.0,496.0],[842.0,495.0],[843.0,495.0],[843.0,494.0],[844.0,494.0],[844.0,493.0],[845.0,493.0],[845.0,492.0],[847.0,491.0],[848.0,487.0]]}},{"type":"Feature","id":"border-008-013-0001","properties":{"id":"border-008-013-0001","type":"international","leftCountry":"country-008","rightCountry":"country-013"},"geometry":{"type":"LineString","coordinates":[[455.0,726.0],[456.0,726.0],[456.0,722.0],[457.0,722.0],[457.0,721.0],[458.0,721.0],[458.0,720.0],[459.0,720.0],[460.0,718.0],[463.0,718.0],[463.0,719.0],[465.0,719.0],[465.0,718.0],[466.0,718.0],[466.0,717.0],[468.0,716.0],[469.0,712.0],[470.0,712.0],[470.0,711.0],[474.0,711.0],[474.0,710.0],[475.0,710.0],[476.0,708.0],[479.0,708.0],[479.0,710.0],[480.0,710.0],[480.0,709.0],[484.0,709.0],[484.0,710.0],[485.0,710.0],[484.0,714.0],[486.0,715.0],[486.0,718.0],[487.0,718.0],[487.0,720.0],[488.0,720.0],[488.0,722.0],[489.0,722.0],[489.0,723.0]]}},{"type":"Feature","id":"border-008-014-0001","properties":{"id":"border-008-014-0001","type":"international","leftCountry":"country-008","rightCountry":"country-014"},"geometry":{"type":"LineString","coordinates":[[762.0,781.0],[763.0,781.0],[763.0,780.0],[766.0,780.0],[766.0,778.0],[777.0,778.0],[777.0,777.0],[784.0,777.0],[784.0,776.0],[787.0,776.0]]}},{"type":"Feature","id":"border-008-015-0001","properties":{"id":"border-008-015-0001","type":"international","leftCountry":"country-008","rightCountry":"country-015"},"geometry":{"type":"LineString","coordinates":[[787.0,776.0],[787.0,777.0],[788.0,777.0],[788.0,790.0],[790.0,791.0],[790.0,793.0]]}},{"type":"Feature","id":"border-008-017-0001","properties":{"id":"border-008-017-0001","type":"international","leftCountry":"country-008","rightCountry":"country-017"},"geometry":{"type":"LineString","coordinates":[[758.0,513.0],[759.0,519.0],[760.0,519.0],[760.0,521.0],[761.0,521.0],[761.0,523.0],[762.0,523.0],[762.0,525.0],[763.0,525.0],[763.0,528.0],[764.0,528.0],[764.0,532.0]]}},{"type":"Feature","id":"border-008-018-0001","properties":{"id":"border-008-018-0001","type":"international","leftCountry":"country-008","rightCountry":"country-018"},"geometry":{"type":"LineString","coordinates":[[984.0,777.0],[983.0,779.0],[984.0,779.0],[984.0,780.0],[986.0,780.0],[986.0,781.0],[988.0,782.0],[988.0,784.0],[990.0,784.0],[990.0,785.0],[993.0,785.0],[993.0,784.0],[994.0,784.0],[995.0,782.0],[1003.0,782.0],[1003.0,781.0],[1009.0,780.0],[1009.0,779.0],[1010.0,779.0],[1010.0,777.0]]}},{"type":"Feature","id":"border-008-019-0001","properties":{"id":"border-008-019-0001","type":"international","leftCountry":"country-008","rightCountry":"country-019"},"geometry":{"type":"LineString","coordinates":[[802.0,580.0],[802.0,576.0],[803.0,576.0],[803.0,575.0],[804.0,575.0],[804.0,574.0],[805.0,574.0],[806.0,572.0],[808.0,572.0],[808.0,571.0],[812.0,570.0],[812.0,569.0],[813.0,569.0],[813.0,568.0],[814.0,568.0],[814.0,567.0],[816.0,566.0],[816.0,564.0],[817.0,564.0],[817.0,561.0],[819.0,560.0],[819.0,558.0],[820.0,558.0],[820.0,557.0],[821.0,557.0],[821.0,556.0],[822.0,556.0],[823.0,554.0],[825.0,554.0],[825.0,553.0],[827.0,552.0],[827.0,546.0],[828.0,546.0],[828.0,544.0],[830.0,543.0],[830.0,541.0],[831.0,541.0],[832.0,539.0],[834.0,539.0],[834.0,538.0],[835.0,538.0],[835.0,537.0],[837.0,537.0],[837.0,536.0],[844.0,536.0],[844.0,537.0],[845.0,537.0],[845.0,536.0],[851.0,536.0],[851.0,537.0],[858.0,537.0],[858.0,538.0],[860.0,538.0],[860.0,537.0],[861.0,537.0],[861.0,538.0],[864.0,538.0],[864.0,537.0],[865.0,537.0]]}},{"type":"Feature","id":"border-008-019-0002","properties":{"id":"border-008-019-0002","type":"international","leftCountry":"country-008","rightCountry":"country-019"},"geometry":{"type":"LineString","coordinates":[[924.0,695.0],[925.0,695.0],[926.0,693.0],[933.0,693.0],[933.0,694.0],[935.0,694.0],[935.0,693.0],[936.0,693.0],[936.0,692.0],[937.0,692.0],[937.0,691.0],[938.0,691.0],[939.0,689.0],[941.0,689.0]]}},{"type":"Feature","id":"border-008-019-0003","properties":{"id":"border-008-019-0003","type":"international","leftCountry":"country-008","rightCountry":"country-019"},"geometry":{"type":"LineString","coordinates":[[1269.0,66.0],[1269.0,70.0],[1271.0,71.0],[1271.0,73.0],[1272.0,73.0],[1272.0,76.0],[1270.0,77.0],[1270.0,79.0],[1269.0,79.0],[1269.0,80.0],[1267.0,81.0],[1267.0,83.0],[1266.0,83.0],[1266.0,85.0],[1265.0,85.0],[1265.0,93.0]]}},{"type":"Feature","id":"border-008-019-0004","properties":{"id":"border-008-019-0004","type":"international","leftCountry":"country-008","rightCountry":"country-019"},"geometry":{"type":"LineString","coordinates":[[1534.0,59.0],[1534.0,60.0]]}},{"type":"Feature","id":"border-008-019-0005","properties":{"id":"border-008-019-0005","type":"international","leftCountry":"country-008","rightCountry":"country-019"},"geometry":{"type":"LineString","coordinates":[[1548.0,19.0],[1548.0,20.0]]}},{"type":"Feature","id":"border-008-019-0006","properties":{"id":"border-008-019-0006","type":"international","leftCountry":"country-008","rightCountry":"country-019"},"geometry":{"type":"LineString","coordinates":[[1692.0,278.0],[1693.0,278.0],[1693.0,277.0],[1695.0,276.0],[1695.0,274.0],[1696.0,274.0],[1697.0,272.0],[1704.0,272.0],[1704.0,273.0],[1706.0,273.0],[1706.0,274.0],[1707.0,274.0],[1707.0,275.0],[1709.0,275.0],[1709.0,276.0],[1712.0,276.0],[1712.0,275.0],[1713.0,275.0],[1713.0,274.0],[1715.0,274.0],[1715.0,273.0],[1718.0,273.0],[1718.0,274.0],[1722.0,274.0],[1722.0,275.0],[1726.0,275.0],[1726.0,276.0],[1729.0,276.0],[1729.0,278.0],[1727.0,279.0],[1727.0,281.0],[1726.0,281.0],[1726.0,283.0],[1725.0,283.0],[1725.0,284.0],[1726.0,284.0],[1726.0,285.0],[1727.0,285.0],[1727.0,286.0],[1728.0,286.0],[1729.0,288.0],[1730.0,288.0],[1730.0,287.0],[1731.0,287.0],[1731.0,286.0],[1733.0,285.0],[1733.0,281.0],[1734.0,281.0],[1734.0,280.0],[1743.0,280.0],[1743.0,281.0],[1747.0,281.0],[1747.0,282.0],[1750.0,282.0],[1750.0,283.0],[1752.0,283.0],[1753.0,285.0],[1755.0,285.0],[1755.0,286.0],[1756.0,286.0],[1756.0,287.0],[1757.0,287.0],[1758.0,289.0],[1761.0,289.0],[1761.0,290.0],[1762.0,290.0],[1762.0,294.0],[1761.0,294.0],[1761.0,296.0],[1762.0,296.0],[1763.0,298.0],[1769.0,298.0],[1769.0,299.0],[1771.0,299.0],[1771.0,298.0],[1775.0,298.0],[1775.0,297.0],[1776.0,297.0],[1777.0,295.0],[1778.0,295.0],[1778.0,296.0],[1780.0,296.0],[1780.0,295.0],[1792.0,295.0],[1792.0,296.0],[1794.0,296.0],[1794.0,297.0],[1795.0,297.0],[1794.0,299.0],[1795.0,299.0],[1795.0,300.0],[1796.0,300.0],[1797.0,302.0],[1799.0,302.0],[1799.0,303.0],[1801.0,303.0],[1801.0,304.0],[1803.0,304.0],[1803.0,305.0],[1806.0,305.0],[1806.0,306.0],[1810.0,306.0],[1810.0,307.0],[1811.0,307.0],[1811.0,309.0],[1812.0,309.0],[1812.0,311.0],[1813.0,311.0],[1813.0,312.0],[1814.0,312.0],[1815.0,314.0],[1817.0,314.0],[1817.0,316.0],[1818.0,316.0],[1818.0,317.0]]}},{"type":"Feature","id":"border-008-019-0007","properties":{"id":"border-008-019-0007","type":"international","leftCountry":"country-008","rightCountry":"country-019"},"geometry":{"type":"LineString","coordinates":[[1838.0,410.0],[1839.0,410.0],[1839.0,411.0],[1840.0,411.0],[1840.0,412.0],[1841.0,412.0],[1842.0,414.0],[1844.0,414.0],[1844.0,415.0],[1847.0,415.0],[1847.0,416.0],[1862.0,416.0],[1862.0,417.0],[1864.0,417.0],[1864.0,418.0],[1866.0,419.0],[1866.0,421.0],[1868.0,422.0],[1868.0,424.0],[1869.0,424.0],[1869.0,425.0],[1870.0,425.0],[1871.0,427.0],[1874.0,427.0],[1874.0,428.0],[1876.0,428.0],[1876.0,429.0]]}},{"type":"Feature","id":"border-008-021-0001","properties":{"id":"border-008-021-0001","type":"international","leftCountry":"country-008","rightCountry":"country-021"},"geometry":{"type":"LineString","coordinates":[[764.0,532.0],[766.0,532.0],[766.0,533.0],[768.0,534.0],[769.0,538.0],[770.0,538.0],[770.0,541.0],[771.0,541.0],[771.0,544.0],[772.0,544.0],[772.0,548.0],[773.0,548.0],[773.0,554.0],[774.0,554.0],[774.0,557.0],[775.0,557.0],[775.0,559.0],[776.0,559.0],[776.0,562.0],[777.0,562.0],[778.0,566.0],[779.0,566.0],[779.0,567.0],[781.0,567.0],[781.0,568.0],[783.0,568.0],[783.0,569.0],[784.0,569.0],[785.0,571.0],[789.0,572.0],[790.0,574.0],[794.0,575.0],[795.0,577.0],[797.0,577.0],[797.0,578.0],[798.0,578.0],[798.0,579.0],[799.0,579.0],[800.0,581.0],[802.0,580.0]]}},{"type":"Feature","id":"border-009-010-0001","properties":{"id":"border-009-010-0001","type":"international","leftCountry":"country-009","rightCountry":"country-010"},"geometry":{"type":"LineString","coordinates":[[829.0,378.0],[829.0,379.0],[830.0,379.0]]}},{"type":"Feature","id":"border-009-010-0002","properties":{"id":"border-009-010-0002","type":"international","leftCountry":"country-009","rightCountry":"country-010"},"geometry":{"type":"LineString","coordinates":[[830.0,380.0],[830.0,381.0],[831.0,381.0],[831.0,383.0],[832.0,383.0],[833.0,385.0],[835.0,385.0],[835.0,384.0],[836.0,384.0],[836.0,385.0],[838.0,386.0],[838.0,395.0],[839.0,395.0],[839.0,396.0],[841.0,397.0],[841.0,401.0],[842.0,401.0],[842.0,403.0],[843.0,403.0],[843.0,404.0],[844.0,404.0],[845.0,406.0],[847.0,406.0],[847.0,407.0],[848.0,407.0],[849.0,409.0],[854.0,409.0],[855.0,407.0],[860.0,407.0],[860.0,408.0],[862.0,409.0],[862.0,411.0],[863.0,411.0],[863.0,412.0],[864.0,412.0],[864.0,413.0],[865.0,413.0],[865.0,414.0],[866.0,414.0],[867.0,416.0],[869.0,416.0],[869.0,417.0],[875.0,417.0],[875.0,418.0],[876.0,418.0],[876.0,417.0],[878.0,417.0],[878.0,416.0],[880.0,416.0],[880.0,415.0],[884.0,415.0],[884.0,416.0],[885.0,416.0],[885.0,417.0],[886.0,417.0],[886.0,418.0],[887.0,418.0],[887.0,419.0],[888.0,419.0],[888.0,420.0],[889.0,420.0],[889.0,421.0],[890.0,421.0],[891.0,423.0],[893.0,423.0],[893.0,424.0],[895.0,425.0],[895.0,427.0],[896.0,427.0],[896.0,430.0],[897.0,430.0],[897.0,433.0],[898.0,433.0],[898.0,436.0],[900.0,437.0],[901.0,441.0],[902.0,441.0],[902.0,442.0],[903.0,442.0],[903.0,443.0],[905.0,444.0],[905.0,446.0]]}},{"type":"Feature","id":"border-010-012-0001","properties":{"id":"border-010-012-0001","type":"international","leftCountry":"country-010","rightCountry":"country-012"},"geometry":{"type":"LineString","coordinates":[[737.0,395.0],[735.0,395.0],[735.0,396.0],[734.0,396.0],[734.0,397.0],[732.0,398.0],[732.0,400.0],[731.0,400.0],[731.0,407.0],[730.0,407.0],[730.0,411.0],[729.0,411.0],[729.0,414.0],[728.0,414.0],[728.0,416.0],[727.0,416.0],[726.0,420.0],[725.0,420.0],[725.0,421.0],[724.0,421.0],[724.0,422.0],[723.0,422.0],[723.0,423.0],[722.0,423.0],[722.0,424.0],[720.0,425.0],[720.0,427.0],[719.0,427.0],[719.0,438.0],[718.0,438.0],[718.0,440.0],[717.0,440.0],[717.0,443.0],[716.0,443.0],[716.0,445.0],[714.0,446.0],[714.0,448.0],[713.0,448.0],[713.0,450.0],[712.0,450.0],[712.0,453.0],[711.0,453.0],[711.0,456.0],[710.0,456.0],[710.0,464.0],[711.0,464.0],[711.0,467.0],[710.0,467.0],[710.0,469.0],[709.0,469.0],[709.0,470.0],[708.0,470.0],[708.0,471.0],[707.0,471.0],[707.0,472.0],[706.0,472.0],[706.0,473.0],[705.0,473.0],[705.0,474.0],[703.0,475.0],[703.0,477.0],[702.0,477.0],[702.0,478.0]]}},{"type":"Feature","id":"border-010-017-0001","properties":{"id":"border-010-017-0001","type":"international","leftCountry":"country-010","rightCountry":"country-017"},"geometry":{"type":"LineString","coordinates":[[702.0,478.0],[704.0,479.0],[704.0,482.0],[705.0,482.0],[705.0,484.0],[706.0,484.0],[707.0,488.0],[708.0,488.0],[708.0,489.0],[709.0,489.0],[710.0,491.0],[714.0,492.0],[714.0,493.0],[716.0,494.0],[716.0,496.0],[717.0,496.0],[717.0,497.0],[718.0,497.0],[719.0,499.0],[721.0,499.0],[721.0,500.0],[722.0,500.0],[722.0,499.0],[724.0,499.0],[724.0,500.0],[733.0,500.0],[733.0,501.0],[737.0,501.0],[737.0,502.0],[741.0,503.0],[742.0,505.0],[744.0,505.0],[744.0,506.0],[745.0,506.0],[745.0,507.0],[746.0,507.0],[746.0,508.0],[747.0,508.0],[748.0,510.0],[750.0,510.0],[750.0,511.0],[752.0,511.0],[752.0,512.0],[754.0,512.0],[754.0,513.0],[758.0,513.0]]}},{"type":"Feature","id":"border-011-013-0001","properties":{"id":"border-011-013-0001","type":"international","leftCountry":"country-011","rightCountry":"country-013"},"geometry":{"type":"LineString","coordinates":[[593.0,627.0],[595.0,627.0],[595.0,628.0],[596.0,628.0],[597.0,630.0],[599.0,630.0],[599.0,631.0],[601.0,631.0],[601.0,632.0],[607.0,632.0],[607.0,631.0],[608.0,631.0],[608.0,630.0],[609.0,630.0],[609.0,629.0],[611.0,628.0],[611.0,629.0],[612.0,629.0],[612.0,631.0],[613.0,631.0],[613.0,636.0],[621.0,636.0],[621.0,637.0],[622.0,637.0]]}},{"type":"Feature","id":"border-011-017-0001","properties":{"id":"border-011-017-0001","type":"international","leftCountry":"country-011","rightCountry":"country-017"},"geometry":{"type":"LineString","coordinates":[[593.0,627.0],[593.0,626.0],[592.0,626.0],[592.0,623.0],[591.0,623.0],[591.0,615.0],[592.0,615.0],[592.0,613.0],[593.0,613.0],[594.0,611.0],[597.0,611.0],[597.0,610.0],[603.0,609.0],[603.0,608.0],[605.0,608.0],[605.0,607.0],[608.0,607.0],[608.0,606.0],[636.0,606.0],[636.0,605.0],[642.0,605.0],[642.0,606.0],[645.0,606.0],[645.0,607.0],[653.0,607.0],[653.0,608.0]]}},{"type":"Feature","id":"border-011-021-0001","properties":{"id":"border-011-021-0001","type":"international","leftCountry":"country-011","rightCountry":"country-021"},"geometry":{"type":"LineString","coordinates":[[622.0,637.0],[622.0,636.0],[623.0,636.0],[623.0,634.0],[624.0,634.0],[624.0,633.0],[625.0,633.0],[625.0,632.0],[626.0,632.0],[626.0,631.0],[627.0,631.0],[628.0,629.0],[633.0,629.0],[635.0,633.0],[639.0,634.0],[639.0,633.0],[640.0,633.0],[640.0,632.0],[642.0,631.0],[642.0,628.0],[643.0,628.0],[643.0,626.0],[644.0,626.0],[645.0,622.0],[646.0,622.0],[646.0,621.0],[649.0,621.0],[649.0,620.0],[650.0,620.0],[650.0,613.0],[652.0,613.0],[652.0,612.0],[653.0,612.0],[653.0,608.0]]}},{"type":"Feature","id":"border-024-025-0001","properties":{"id":"border-024-025-0001","type":"international","leftCountry":"country-024","rightCountry":"country-025"},"geometry":{"type":"LineString","coordinates":[[262.0,506.0],[267.0,506.0],[267.0,505.0],[275.0,505.0],[275.0,506.0],[276.0,506.0],[276.0,507.0],[277.0,507.0],[277.0,508.0],[278.0,508.0],[278.0,509.0],[280.0,510.0],[280.0,509.0],[281.0,509.0],[281.0,502.0],[287.0,502.0],[287.0,503.0],[289.0,503.0],[289.0,504.0],[290.0,504.0],[290.0,505.0],[291.0,505.0],[291.0,506.0],[293.0,507.0],[293.0,515.0],[292.0,515.0],[292.0,520.0],[293.0,520.0],[293.0,521.0],[295.0,521.0],[295.0,522.0],[297.0,522.0],[297.0,523.0],[299.0,523.0],[299.0,524.0],[301.0,524.0],[301.0,525.0],[302.0,525.0],[302.0,526.0],[303.0,526.0],[303.0,527.0],[305.0,528.0],[305.0,533.0],[306.0,533.0],[307.0,535.0],[313.0,535.0],[313.0,536.0],[317.0,536.0],[317.0,537.0],[321.0,538.0]]}},{"type":"Feature","id":"border-012-017-0001","properties":{"id":"border-012-017-0001","type":"international","leftCountry":"country-012","rightCountry":"country-017"},"geometry":{"type":"LineString","coordinates":[[624.0,474.0],[624.0,475.0],[623.0,475.0],[623.0,479.0],[624.0,479.0],[624.0,480.0],[625.0,480.0],[625.0,481.0],[626.0,481.0],[626.0,482.0],[627.0,482.0],[627.0,483.0],[628.0,483.0],[629.0,485.0],[631.0,485.0],[631.0,486.0],[632.0,486.0],[632.0,487.0],[633.0,487.0],[633.0,488.0],[634.0,488.0],[634.0,489.0],[635.0,489.0],[635.0,490.0],[636.0,490.0],[637.0,492.0],[638.0,492.0],[638.0,491.0],[642.0,491.0],[642.0,494.0],[643.0,494.0],[643.0,495.0],[642.0,495.0],[642.0,498.0],[643.0,498.0],[644.0,500.0],[648.0,500.0],[648.0,499.0],[653.0,499.0],[653.0,500.0],[654.0,500.0],[654.0,501.0],[655.0,501.0],[656.0,503.0],[659.0,503.0],[659.0,502.0],[660.0,502.0],[660.0,501.0],[661.0,501.0],[662.0,499.0],[665.0,499.0],[665.0,500.0],[666.0,500.0],[666.0,499.0],[667.0,499.0],[667.0,498.0],[669.0,497.0],[669.0,493.0],[668.0,493.0],[668.0,488.0],[669.0,488.0],[669.0,487.0],[668.0,487.0],[668.0,486.0],[667.0,486.0],[666.0,484.0],[661.0,484.0],[661.0,483.0],[657.0,483.0],[657.0,481.0],[658.0,481.0],[658.0,480.0],[664.0,480.0],[664.0,479.0],[665.0,479.0],[665.0,478.0],[667.0,478.0],[667.0,477.0],[671.0,477.0],[671.0,478.0],[678.0,478.0],[678.0,479.0],[680.0,480.0],[680.0,482.0],[681.0,482.0],[682.0,484.0],[687.0,484.0],[687.0,483.0],[688.0,483.0],[688.0,482.0],[689.0,482.0],[689.0,481.0],[691.0,480.0],[691.0,478.0],[693.0,478.0],[694.0,476.0],[697.0,476.0],[697.0,477.0],[701.0,477.0],[701.0,478.0],[702.0,478.0]]}},{"type":"Feature","id":"border-013-017-0001","properties":{"id":"border-013-017-0001","type":"international","leftCountry":"country-013","rightCountry":"country-017"},"geometry":{"type":"LineString","coordinates":[[512.0,610.0],[513.0,610.0],[513.0,612.0],[514.0,612.0],[514.0,613.0],[515.0,613.0],[515.0,614.0],[517.0,615.0],[517.0,617.0],[519.0,617.0],[520.0,619.0],[522.0,619.0],[522.0,620.0],[523.0,620.0],[524.0,622.0],[530.0,622.0],[530.0,623.0],[540.0,623.0],[540.0,624.0],[547.0,624.0],[547.0,626.0],[548.0,626.0],[549.0,628.0],[551.0,628.0],[551.0,630.0],[552.0,630.0],[552.0,635.0],[553.0,635.0],[553.0,637.0],[554.0,637.0],[554.0,638.0],[556.0,638.0],[556.0,637.0],[557.0,637.0],[557.0,636.0],[559.0,636.0],[559.0,635.0],[563.0,635.0],[563.0,636.0],[564.0,636.0],[564.0,637.0],[565.0,637.0],[565.0,638.0],[567.0,639.0],[567.0,638.0],[568.0,638.0],[568.0,637.0],[569.0,637.0],[570.0,635.0],[573.0,635.0],[573.0,634.0],[574.0,634.0],[575.0,632.0],[578.0,632.0],[578.0,631.0],[582.0,631.0],[582.0,632.0],[586.0,633.0],[586.0,632.0],[587.0,632.0],[587.0,631.0],[588.0,631.0],[588.0,630.0],[589.0,630.0],[590.0,628.0],[592.0,628.0],[592.0,627.0],[593.0,627.0]]}},{"type":"Feature","id":"border-013-021-0001","properties":{"id":"border-013-021-0001","type":"international","leftCountry":"country-013","rightCountry":"country-021"},"geometry":{"type":"LineString","coordinates":[[572.0,691.0],[572.0,690.0],[573.0,690.0]]}},{"type":"Feature","id":"border-013-021-0002","properties":{"id":"border-013-021-0002","type":"international","leftCountry":"country-013","rightCountry":"country-021"},"geometry":{"type":"LineString","coordinates":[[622.0,637.0],[623.0,637.0],[623.0,638.0],[624.0,638.0],[624.0,640.0],[625.0,640.0],[625.0,642.0],[624.0,642.0],[624.0,643.0],[622.0,644.0],[622.0,650.0],[623.0,650.0],[623.0,652.0],[624.0,652.0],[623.0,656.0],[622.0,656.0],[622.0,657.0],[620.0,657.0],[620.0,658.0],[604.0,658.0],[604.0,659.0],[602.0,659.0],[602.0,660.0],[599.0,660.0],[599.0,661.0],[595.0,662.0],[595.0,663.0],[594.0,663.0],[594.0,664.0],[593.0,664.0],[593.0,665.0],[591.0,666.0],[591.0,668.0],[590.0,668.0],[590.0,671.0],[589.0,671.0],[589.0,674.0],[588.0,674.0],[588.0,676.0],[587.0,676.0],[587.0,677.0],[586.0,677.0],[586.0,678.0],[585.0,678.0],[584.0,680.0],[582.0,680.0],[582.0,681.0],[578.0,682.0],[577.0,684.0],[575.0,684.0],[575.0,686.0],[573.0,687.0],[573.0,688.0],[574.0,688.0],[574.0,690.0]]}},{"type":"Feature","id":"border-014-015-0001","properties":{"id":"border-014-015-0001","type":"international","leftCountry":"country-014","rightCountry":"country-015"},"geometry":{"type":"LineString","coordinates":[[784.0,719.0],[784.0,720.0],[785.0,720.0],[785.0,727.0],[784.0,727.0],[784.0,729.0],[782.0,730.0],[782.0,733.0],[781.0,733.0],[781.0,734.0],[780.0,734.0],[780.0,735.0],[779.0,735.0],[779.0,736.0],[778.0,736.0],[777.0,738.0],[771.0,738.0],[771.0,743.0],[772.0,743.0],[772.0,744.0],[774.0,744.0],[775.0,746.0],[777.0,746.0],[777.0,747.0],[781.0,748.0],[781.0,749.0],[782.0,749.0],[782.0,750.0],[783.0,750.0],[783.0,751.0],[785.0,752.0],[785.0,754.0],[787.0,755.0],[787.0,757.0],[788.0,757.0],[788.0,759.0],[789.0,759.0],[789.0,761.0],[790.0,761.0],[790.0,771.0],[788.0,772.0],[787.0,776.0]]}},{"type":"Feature","id":"border-014-019-0001","properties":{"id":"border-014-019-0001","type":"international","leftCountry":"country-014","rightCountry":"country-019"},"geometry":{"type":"LineString","coordinates":[[1135.0,794.0],[1135.0,798.0]]}},{"type":"Feature","id":"border-014-019-0002","properties":{"id":"border-014-019-0002","type":"international","leftCountry":"country-014","rightCountry":"country-019"},"geometry":{"type":"LineString","coordinates":[[1151.0,790.0],[1151.0,793.0],[1153.0,794.0]]}},{"type":"Feature","id":"border-014-021-0001","properties":{"id":"border-014-021-0001","type":"international","leftCountry":"country-014","rightCountry":"country-021"},"geometry":{"type":"LineString","coordinates":[[690.0,674.0],[690.0,673.0],[691.0,673.0],[691.0,671.0],[692.0,671.0],[692.0,670.0],[693.0,670.0],[693.0,669.0],[694.0,669.0],[695.0,667.0],[697.0,667.0],[697.0,666.0],[702.0,666.0],[702.0,665.0],[713.0,665.0],[713.0,666.0],[717.0,666.0],[717.0,667.0],[722.0,667.0],[722.0,668.0],[728.0,668.0],[728.0,667.0],[732.0,667.0],[732.0,668.0],[733.0,668.0],[733.0,669.0],[735.0,670.0],[735.0,672.0],[736.0,672.0],[737.0,678.0],[738.0,678.0],[739.0,680.0],[741.0,680.0],[741.0,681.0],[742.0,681.0],[743.0,683.0]]}},{"type":"Feature","id":"border-015-019-0001","properties":{"id":"border-015-019-0001","type":"international","leftCountry":"country-015","rightCountry":"country-019"},"geometry":{"type":"LineString","coordinates":[[839.0,730.0],[839.0,732.0],[840.0,732.0],[841.0,734.0],[843.0,734.0],[843.0,735.0],[847.0,736.0],[847.0,735.0],[848.0,735.0],[848.0,733.0],[850.0,732.0],[850.0,730.0],[849.0,730.0],[849.0,728.0],[847.0,728.0],[847.0,727.0],[846.0,727.0]]}},{"type":"Feature","id":"border-015-019-0002","properties":{"id":"border-015-019-0002","type":"international","leftCountry":"country-015","rightCountry":"country-019"},"geometry":{"type":"LineString","coordinates":[[859.0,726.0],[858.0,726.0],[858.0,728.0],[857.0,728.0],[857.0,729.0],[855.0,730.0],[855.0,733.0],[856.0,733.0],[857.0,735.0],[859.0,735.0],[859.0,738.0],[860.0,738.0],[860.0,739.0],[862.0,739.0]]}},{"type":"Feature","id":"border-015-019-0003","properties":{"id":"border-015-019-0003","type":"international","leftCountry":"country-015","rightCountry":"country-019"},"geometry":{"type":"LineString","coordinates":[[862.0,740.0],[862.0,742.0],[860.0,743.0],[860.0,745.0],[861.0,745.0],[861.0,746.0],[864.0,746.0]]}},{"type":"Feature","id":"border-017-021-0001","properties":{"id":"border-017-021-0001","type":"international","leftCountry":"country-017","rightCountry":"country-021"},"geometry":{"type":"LineString","coordinates":[[653.0,608.0],[654.0,608.0],[654.0,607.0],[656.0,607.0],[657.0,605.0],[661.0,604.0],[661.0,603.0],[664.0,603.0],[664.0,602.0],[671.0,602.0],[671.0,601.0],[673.0,601.0],[673.0,600.0],[675.0,600.0],[675.0,599.0],[679.0,598.0],[680.0,596.0],[682.0,596.0],[683.0,594.0],[685.0,594.0],[686.0,592.0],[688.0,592.0],[688.0,591.0],[689.0,591.0],[689.0,590.0],[690.0,590.0],[691.0,588.0],[693.0,588.0],[693.0,587.0],[697.0,586.0],[697.0,585.0],[698.0,585.0],[699.0,583.0],[701.0,584.0],[701.0,583.0],[702.0,583.0],[703.0,581.0],[705.0,581.0],[705.0,580.0],[707.0,581.0],[707.0,580.0],[708.0,580.0],[708.0,579.0],[709.0,579.0],[710.0,577.0],[712.0,577.0],[712.0,576.0],[713.0,576.0],[714.0,574.0],[717.0,574.0],[717.0,573.0],[719.0,573.0],[719.0,572.0],[721.0,572.0],[721.0,571.0],[723.0,571.0],[723.0,570.0],[725.0,570.0],[725.0,569.0],[727.0,569.0],[727.0,568.0],[730.0,568.0],[731.0,566.0],[733.0,566.0],[733.0,565.0],[734.0,565.0],[734.0,564.0],[735.0,564.0],[735.0,563.0],[736.0,563.0],[736.0,562.0],[737.0,562.0],[737.0,561.0],[738.0,561.0],[738.0,560.0],[740.0,559.0],[740.0,557.0],[741.0,557.0],[741.0,555.0],[742.0,555.0],[743.0,551.0],[744.0,551.0],[745.0,549.0],[747.0,549.0],[748.0,547.0],[750.0,547.0],[751.0,545.0],[753.0,545.0],[754.0,543.0],[756.0,543.0],[756.0,542.0],[757.0,542.0],[757.0,541.0],[759.0,540.0],[760.0,536.0],[761.0,536.0],[761.0,535.0],[762.0,535.0],[762.0,534.0],[763.0,534.0],[764.0,532.0]]}},{"type":"Feature","id":"border-019-020-0001","properties":{"id":"border-019-020-0001","type":"international","leftCountry":"country-019","rightCountry":"country-020"},"geometry":{"type":"LineString","coordinates":[[803.0,626.0],[806.0,626.0],[806.0,625.0]]}},{"type":"Feature","id":"border-019-020-0002","properties":{"id":"border-019-020-0002","type":"international","leftCountry":"country-019","rightCountry":"country-020"},"geometry":{"type":"LineString","coordinates":[[813.0,621.0],[814.0,621.0],[814.0,623.0],[813.0,623.0]]}},{"type":"Feature","id":"border-019-021-0001","properties":{"id":"border-019-021-0001","type":"international","leftCountry":"country-019","rightCountry":"country-021"},"geometry":{"type":"LineString","coordinates":[[803.0,626.0],[802.0,626.0],[802.0,628.0],[801.0,628.0],[801.0,629.0],[799.0,630.0],[799.0,635.0],[800.0,635.0],[800.0,636.0],[801.0,636.0],[801.0,637.0],[803.0,638.0],[803.0,643.0],[802.0,643.0],[801.0,645.0]]}},{"type":"Feature","id":"border-019-021-0002","properties":{"id":"border-019-021-0002","type":"international","leftCountry":"country-019","rightCountry":"country-021"},"geometry":{"type":"LineString","coordinates":[[802.0,580.0],[802.0,581.0],[803.0,581.0],[803.0,582.0],[805.0,582.0],[805.0,583.0],[806.0,583.0],[806.0,584.0],[808.0,585.0],[808.0,587.0],[809.0,587.0],[809.0,598.0],[810.0,598.0],[810.0,600.0],[811.0,600.0],[811.0,602.0],[812.0,602.0],[812.0,605.0],[813.0,605.0],[813.0,609.0],[812.0,609.0],[811.0,613.0],[810.0,613.0],[810.0,614.0],[809.0,614.0],[809.0,615.0],[808.0,615.0],[807.0,617.0],[808.0,617.0],[809.0,619.0],[813.0,620.0],[813.0,621.0]]}},{"type":"Feature","id":"border-019-021-0003","properties":{"id":"border-019-021-0003","type":"international","leftCountry":"country-019","rightCountry":"country-021"},"geometry":{"type":"LineString","coordinates":[[806.0,625.0],[809.0,625.0],[809.0,624.0],[812.0,624.0],[812.0,623.0],[813.0,623.0]]}},{"type":"Feature","id":"border-019-022-0001","properties":{"id":"border-019-022-0001","type":"international","leftCountry":"country-019","rightCountry":"country-022"},"geometry":{"type":"LineString","coordinates":[[1442.0,478.0],[1442.0,481.0],[1441.0,481.0],[1441.0,487.0],[1440.0,487.0],[1439.0,489.0],[1437.0,489.0],[1436.0,487.0],[1421.0,487.0],[1421.0,488.0],[1419.0,489.0],[1419.0,491.0],[1418.0,491.0],[1418.0,497.0],[1417.0,497.0],[1417.0,500.0],[1416.0,500.0],[1416.0,501.0],[1415.0,501.0],[1415.0,502.0],[1414.0,502.0],[1414.0,503.0],[1413.0,503.0],[1413.0,504.0],[1412.0,504.0],[1412.0,505.0],[1411.0,505.0],[1411.0,506.0],[1410.0,506.0],[1410.0,507.0],[1409.0,507.0],[1409.0,508.0],[1408.0,508.0],[1408.0,509.0],[1407.0,509.0],[1406.0,511.0],[1404.0,511.0],[1404.0,512.0],[1403.0,512.0],[1403.0,513.0],[1402.0,513.0],[1402.0,514.0],[1401.0,514.0],[1400.0,516.0],[1398.0,516.0],[1398.0,517.0],[1396.0,517.0],[1396.0,518.0],[1395.0,518.0],[1395.0,520.0],[1394.0,520.0],[1394.0,522.0],[1393.0,522.0],[1393.0,534.0],[1392.0,534.0],[1392.0,535.0],[1391.0,535.0],[1391.0,536.0],[1390.0,536.0],[1390.0,537.0],[1389.0,537.0],[1389.0,538.0],[1388.0,538.0],[1388.0,539.0],[1387.0,539.0],[1387.0,540.0],[1386.0,540.0],[1386.0,541.0],[1385.0,541.0],[1385.0,542.0],[1384.0,542.0],[1384.0,543.0],[1383.0,543.0],[1383.0,544.0],[1382.0,544.0],[1382.0,545.0],[1381.0,545.0],[1380.0,547.0],[1378.0,547.0],[1378.0,548.0],[1375.0,548.0],[1375.0,549.0],[1370.0,549.0],[1370.0,550.0],[1368.0,550.0],[1368.0,551.0],[1366.0,551.0],[1366.0,552.0],[1364.0,552.0],[1364.0,553.0],[1362.0,553.0],[1362.0,554.0],[1358.0,555.0],[1357.0,557.0],[1355.0,557.0],[1355.0,558.0],[1353.0,558.0],[1353.0,559.0],[1349.0,560.0],[1349.0,561.0],[1348.0,561.0],[1348.0,562.0],[1346.0,562.0],[1346.0,563.0],[1343.0,563.0],[1343.0,564.0],[1333.0,564.0],[1333.0,565.0],[1331.0,565.0],[1331.0,566.0],[1327.0,567.0],[1327.0,568.0],[1326.0,568.0],[1326.0,569.0],[1325.0,569.0],[1325.0,570.0],[1324.0,570.0],[1323.0,572.0],[1321.0,572.0],[1321.0,573.0],[1320.0,573.0],[1320.0,574.0],[1319.0,574.0],[1319.0,575.0],[1318.0,575.0],[1318.0,576.0],[1317.0,576.0],[1317.0,577.0],[1315.0,578.0],[1315.0,580.0],[1314.0,580.0],[1314.0,581.0],[1313.0,581.0],[1313.0,582.0],[1312.0,582.0],[1312.0,583.0],[1311.0,583.0],[1311.0,584.0],[1310.0,584.0],[1310.0,585.0],[1309.0,585.0],[1309.0,586.0],[1308.0,586.0],[1307.0,588.0],[1304.0,588.0],[1304.0,589.0],[1302.0,589.0],[1302.0,591.0],[1301.0,591.0],[1301.0,593.0],[1300.0,593.0],[1300.0,595.0],[1299.0,595.0],[1299.0,597.0],[1298.0,597.0],[1298.0,599.0],[1297.0,599.0],[1297.0,601.0],[1296.0,601.0],[1296.0,603.0],[1295.0,603.0],[1295.0,605.0],[1294.0,605.0],[1294.0,608.0],[1293.0,608.0],[1293.0,611.0],[1292.0,611.0],[1292.0,613.0],[1291.0,613.0],[1291.0,616.0],[1290.0,616.0],[1290.0,617.0],[1289.0,617.0],[1289.0,618.0],[1288.0,618.0],[1288.0,619.0],[1287.0,619.0],[1287.0,620.0],[1286.0,620.0],[1286.0,621.0],[1285.0,621.0],[1285.0,622.0],[1283.0,623.0],[1283.0,625.0],[1282.0,625.0],[1282.0,628.0],[1281.0,628.0],[1281.0,629.0],[1280.0,629.0],[1279.0,631.0],[1277.0,631.0],[1277.0,632.0],[1276.0,632.0],[1276.0,637.0],[1277.0,637.0],[1277.0,639.0],[1278.0,639.0],[1278.0,640.0],[1279.0,640.0],[1279.0,641.0],[1280.0,641.0],[1280.0,642.0],[1281.0,642.0],[1281.0,643.0],[1282.0,643.0],[1283.0,645.0],[1282.0,645.0],[1282.0,646.0],[1281.0,646.0],[1281.0,647.0],[1280.0,647.0],[1280.0,648.0],[1279.0,648.0],[1279.0,649.0],[1277.0,650.0],[1277.0,652.0],[1276.0,652.0],[1276.0,660.0],[1277.0,660.0],[1277.0,662.0],[1278.0,662.0],[1279.0,666.0],[1278.0,666.0],[1278.0,667.0],[1277.0,667.0],[1277.0,668.0],[1276.0,668.0],[1276.0,669.0],[1275.0,669.0],[1275.0,670.0],[1274.0,670.0],[1274.0,671.0],[1273.0,671.0],[1273.0,672.0],[1271.0,673.0],[1271.0,675.0],[1270.0,675.0],[1270.0,683.0],[1271.0,683.0],[1271.0,686.0],[1270.0,686.0],[1270.0,687.0],[1269.0,687.0],[1269.0,688.0],[1268.0,688.0],[1267.0,690.0],[1265.0,690.0],[1265.0,691.0],[1261.0,692.0],[1261.0,691.0],[1260.0,691.0],[1260.0,690.0],[1259.0,690.0],[1259.0,689.0],[1258.0,689.0],[1258.0,688.0],[1257.0,688.0],[1257.0,687.0],[1255.0,686.0],[1255.0,684.0],[1253.0,683.0],[1253.0,679.0],[1252.0,679.0],[1252.0,677.0],[1251.0,677.0],[1251.0,675.0],[1250.0,675.0],[1250.0,673.0],[1249.0,673.0],[1249.0,671.0],[1248.0,671.0],[1248.0,668.0],[1247.0,668.0],[1246.0,666.0],[1241.0,666.0],[1241.0,667.0],[1240.0,667.0],[1240.0,670.0],[1239.0,670.0],[1239.0,671.0],[1238.0,671.0],[1238.0,672.0],[1237.0,672.0],[1237.0,673.0],[1236.0,673.0],[1236.0,674.0],[1235.0,674.0],[1235.0,675.0],[1234.0,675.0],[1233.0,677.0],[1230.0,677.0],[1230.0,678.0],[1228.0,678.0],[1228.0,679.0],[1224.0,680.0],[1223.0,682.0],[1221.0,682.0],[1221.0,683.0],[1219.0,683.0],[1219.0,684.0],[1217.0,684.0],[1217.0,685.0],[1215.0,685.0],[1215.0,686.0],[1212.0,686.0],[1212.0,687.0],[1209.0,687.0],[1209.0,688.0],[1205.0,688.0],[1205.0,689.0],[1203.0,689.0],[1203.0,690.0],[1202.0,690.0],[1202.0,689.0],[1200.0,689.0],[1200.0,688.0],[1198.0,688.0],[1198.0,687.0],[1192.0,687.0],[1192.0,688.0],[1190.0,688.0],[1190.0,689.0],[1188.0,689.0],[1188.0,690.0],[1186.0,690.0],[1186.0,691.0],[1182.0,692.0],[1182.0,694.0],[1181.0,694.0],[1181.0,700.0],[1182.0,700.0],[1183.0,704.0],[1185.0,705.0],[1185.0,709.0],[1183.0,710.0],[1183.0,712.0],[1182.0,712.0],[1182.0,713.0],[1181.0,713.0],[1181.0,714.0],[1180.0,714.0],[1180.0,715.0],[1178.0,716.0],[1178.0,718.0],[1176.0,719.0],[1176.0,721.0],[1175.0,721.0],[1175.0,722.0],[1174.0,722.0],[1174.0,723.0],[1173.0,723.0],[1173.0,724.0],[1172.0,724.0],[1172.0,725.0],[1171.0,725.0],[1171.0,726.0],[1170.0,726.0],[1170.0,727.0],[1169.0,727.0],[1169.0,728.0],[1168.0,728.0],[1168.0,729.0],[1167.0,729.0],[1167.0,730.0],[1166.0,730.0],[1165.0,732.0],[1163.0,732.0],[1163.0,733.0],[1161.0,733.0],[1161.0,734.0],[1158.0,734.0],[1158.0,735.0],[1155.0,735.0],[1155.0,736.0],[1151.0,737.0],[1151.0,738.0],[1150.0,738.0],[1150.0,740.0],[1149.0,740.0],[1149.0,749.0],[1148.0,749.0],[1148.0,755.0],[1147.0,755.0],[1147.0,758.0],[1146.0,758.0],[1146.0,770.0],[1147.0,770.0],[1147.0,771.0],[1149.0,771.0],[1149.0,772.0],[1152.0,772.0],[1152.0,773.0],[1153.0,773.0],[1153.0,774.0],[1154.0,774.0],[1154.0,775.0],[1155.0,775.0],[1155.0,776.0],[1156.0,776.0],[1157.0,778.0]]}},{"type":"Feature","id":"border-019-023-0001","properties":{"id":"border-019-023-0001","type":"international","leftCountry":"country-019","rightCountry":"country-023"},"geometry":{"type":"LineString","coordinates":[[1093.0,457.0],[1093.0,456.0],[1098.0,456.0],[1098.0,455.0],[1101.0,455.0],[1101.0,454.0],[1103.0,454.0],[1104.0,452.0],[1106.0,452.0],[1106.0,451.0],[1107.0,451.0],[1107.0,450.0],[1108.0,450.0],[1108.0,449.0],[1109.0,449.0],[1109.0,448.0],[1111.0,447.0],[1111.0,445.0],[1112.0,445.0],[1112.0,440.0],[1113.0,440.0],[1113.0,437.0],[1114.0,437.0],[1114.0,436.0],[1115.0,436.0],[1116.0,434.0],[1118.0,434.0],[1119.0,432.0],[1121.0,432.0],[1121.0,431.0],[1122.0,431.0],[1122.0,430.0],[1124.0,429.0],[1124.0,427.0],[1126.0,426.0],[1126.0,424.0],[1128.0,423.0],[1128.0,421.0],[1130.0,420.0],[1130.0,418.0],[1131.0,418.0],[1131.0,416.0],[1132.0,416.0],[1133.0,414.0],[1138.0,414.0],[1139.0,416.0],[1142.0,416.0],[1142.0,417.0],[1145.0,417.0],[1145.0,418.0],[1148.0,418.0],[1148.0,417.0],[1151.0,417.0],[1151.0,416.0],[1152.0,416.0]]}},{"type":"Feature","id":"border-020-021-0001","properties":{"id":"border-020-021-0001","type":"international","leftCountry":"country-020","rightCountry":"country-021"},"geometry":{"type":"LineString","coordinates":[[654.0,678.0],[654.0,677.0],[655.0,677.0],[655.0,675.0],[656.0,675.0],[656.0,674.0],[658.0,674.0],[658.0,673.0],[660.0,673.0],[660.0,672.0],[668.0,672.0],[668.0,671.0],[669.0,671.0],[670.0,669.0],[673.0,669.0]]}},{"type":"Feature","id":"border-020-021-0002","properties":{"id":"border-020-021-0002","type":"international","leftCountry":"country-020","rightCountry":"country-021"},"geometry":{"type":"LineString","coordinates":[[681.0,676.0],[681.0,678.0],[682.0,678.0],[682.0,679.0],[683.0,679.0],[684.0,681.0]]}},{"type":"Feature","id":"border-020-021-0003","properties":{"id":"border-020-021-0003","type":"international","leftCountry":"country-020","rightCountry":"country-021"},"geometry":{"type":"LineString","coordinates":[[803.0,626.0],[803.0,625.0],[806.0,625.0]]}},{"type":"Feature","id":"border-020-021-0004","properties":{"id":"border-020-021-0004","type":"international","leftCountry":"country-020","rightCountry":"country-021"},"geometry":{"type":"LineString","coordinates":[[813.0,621.0],[813.0,623.0]]}}]}