{"type":"FeatureCollection","features":[{"type":"Feature","id":"unclaimed-001","properties":{"id":"unclaimed-001","type":"unclaimed","source":"countries-mask-reserved-color","rgb":[128,128,128],"polygonCount":5,"holeCount":0},"geometry":{"type":"MultiPolygon","coordinates":[[[[930.0,933.0],[929.0,933.0],[928.0,931.0],[929.0,931.0],[929.0,928.0],[930.0,928.0],[931.0,926.0],[933.0,926.0],[933.0,927.0],[937.0,927.0],[937.0,926.0],[938.0,926.0],[938.0,925.0],[940.0,924.0],[940.0,922.0],[941.0,922.0],[941.0,921.0],[944.0,921.0],[944.0,922.0],[945.0,922.0],[945.0,924.0],[946.0,924.0],[946.0,926.0],[948.0,927.0],[947.0,929.0],[945.0,929.0],[944.0,931.0],[942.0,931.0],[942.0,932.0],[941.0,932.0],[940.0,934.0],[937.0,934.0],[937.0,935.0],[934.0,935.0],[934.0,936.0],[931.0,936.0],[931.0,935.0],[930.0,935.0],[930.0,933.0]]],[[[919.0,958.0],[920.0,958.0],[920.0,959.0],[919.0,959.0],[919.0,958.0]]],[[[991.0,984.0],[995.0,984.0],[995.0,985.0],[991.0,985.0],[991.0,984.0]]],[[[997.0,986.0],[997.0,987.0],[996.0,987.0],[995.0,985.0],[999.0,985.0],[999.0,986.0],[997.0,986.0]]],[[[984.0,979.0],[984.0,983.0],[991.0,983.0],[991.0,984.0],[990.0,984.0],[990.0,985.0],[989.0,985.0],[989.0,984.0],[986.0,984.0],[986.0,985.0],[983.0,985.0],[982.0,987.0],[983.0,987.0],[983.0,989.0],[982.0,989.0],[982.0,990.0],[983.0,990.0],[983.0,991.0],[987.0,991.0],[987.0,990.0],[991.0,990.0],[992.0,992.0],[994.0,992.0],[995.0,994.0],[996.0,994.0],[996.0,995.0],[997.0,995.0],[997.0,998.0],[999.0,999.0],[999.0,1000.0],[1000.0,1000.0],[1000.0,999.0],[1003.0,999.0],[1004.0,1001.0],[1006.0,1001.0],[1006.0,1002.0],[1007.0,1002.0],[1007.0,1004.0],[1006.0,1004.0],[1006.0,1005.0],[1000.0,1005.0],[1000.0,1006.0],[999.0,1006.0],[999.0,1008.0],[1000.0,1008.0],[1000.0,1010.0],[999.0,1010.0],[999.0,1011.0],[997.0,1011.0],[997.0,1012.0],[995.0,1012.0],[995.0,1011.0],[992.0,1011.0],[992.0,1012.0],[990.0,1012.0],[990.0,1011.0],[988.0,1011.0],[988.0,1010.0],[983.0,1010.0],[983.0,1009.0],[981.0,1009.0],[981.0,1008.0],[978.0,1008.0],[977.0,1010.0],[976.0,1010.0],[976.0,1011.0],[970.0,1011.0],[969.0,1013.0],[968.0,1013.0],[968.0,1014.0],[964.0,1014.0],[964.0,1015.0],[963.0,1015.0],[963.0,1017.0],[964.0,1017.0],[964.0,1022.0],[965.0,1022.0],[966.0,1020.0],[968.0,1020.0],[968.0,1019.0],[972.0,1019.0],[972.0,1018.0],[975.0,1018.0],[976.0,1016.0],[978.0,1016.0],[978.0,1015.0],[984.0,1015.0],[984.0,1014.0],[985.0,1014.0],[985.0,1015.0],[989.0,1015.0],[989.0,1016.0],[994.0,1016.0],[994.0,1017.0],[998.0,1017.0],[998.0,1016.0],[1001.0,1016.0],[1001.0,1015.0],[1002.0,1015.0],[1003.0,1017.0],[1004.0,1017.0],[1004.0,1018.0],[1003.0,1018.0],[1003.0,1019.0],[1000.0,1019.0],[999.0,1021.0],[998.0,1021.0],[998.0,1022.0],[997.0,1022.0],[997.0,1023.0],[996.0,1023.0],[996.0,1024.0],[995.0,1024.0],[995.0,1025.0],[985.0,1025.0],[984.0,1027.0],[983.0,1027.0],[983.0,1028.0],[984.0,1028.0],[984.0,1030.0],[985.0,1030.0],[985.0,1032.0],[986.0,1032.0],[986.0,1034.0],[988.0,1035.0],[988.0,1036.0],[990.0,1036.0],[991.0,1038.0],[990.0,1038.0],[990.0,1039.0],[986.0,1039.0],[986.0,1038.0],[981.0,1038.0],[980.0,1036.0],[979.0,1036.0],[979.0,1035.0],[978.0,1035.0],[978.0,1034.0],[977.0,1034.0],[977.0,1033.0],[975.0,1033.0],[975.0,1034.0],[974.0,1034.0],[974.0,1037.0],[972.0,1038.0],[972.0,1039.0],[970.0,1039.0],[970.0,1040.0],[966.0,1040.0],[966.0,1041.0],[963.0,1041.0],[963.0,1042.0],[961.0,1042.0],[960.0,1044.0],[959.0,1044.0],[959.0,1046.0],[960.0,1046.0],[960.0,1049.0],[959.0,1049.0],[959.0,1050.0],[955.0,1050.0],[955.0,1049.0],[954.0,1049.0],[954.0,1047.0],[951.0,1047.0],[951.0,1048.0],[948.0,1048.0],[947.0,1050.0],[946.0,1050.0],[945.0,1048.0],[944.0,1048.0],[944.0,1047.0],[943.0,1047.0],[943.0,1046.0],[942.0,1046.0],[941.0,1048.0],[942.0,1048.0],[942.0,1049.0],[941.0,1049.0],[941.0,1050.0],[937.0,1050.0],[937.0,1051.0],[936.0,1051.0],[936.0,1054.0],[934.0,1055.0],[934.0,1056.0],[932.0,1056.0],[932.0,1055.0],[931.0,1055.0],[931.0,1052.0],[932.0,1052.0],[932.0,1048.0],[930.0,1047.0],[930.0,1046.0],[928.0,1046.0],[928.0,1047.0],[927.0,1047.0],[927.0,1049.0],[929.0,1049.0],[929.0,1050.0],[930.0,1050.0],[930.0,1052.0],[929.0,1052.0],[929.0,1053.0],[927.0,1053.0],[927.0,1055.0],[926.0,1055.0],[926.0,1057.0],[927.0,1057.0],[927.0,1058.0],[926.0,1058.0],[926.0,1059.0],[924.0,1059.0],[924.0,1060.0],[922.0,1060.0],[922.0,1059.0],[921.0,1059.0],[920.0,1061.0],[919.0,1061.0],[919.0,1063.0],[917.0,1064.0],[917.0,1066.0],[918.0,1066.0],[918.0,1069.0],[917.0,1069.0],[917.0,1070.0],[915.0,1070.0],[915.0,1075.0],[914.0,1075.0],[914.0,1076.0],[912.0,1076.0],[912.0,1077.0],[910.0,1077.0],[909.0,1075.0],[908.0,1075.0],[908.0,1073.0],[906.0,1072.0],[906.0,1071.0],[905.0,1071.0],[905.0,1070.0],[904.0,1070.0],[904.0,1068.0],[906.0,1067.0],[906.0,1064.0],[904.0,1064.0],[904.0,1063.0],[901.0,1063.0],[900.0,1065.0],[899.0,1065.0],[899.0,1066.0],[898.0,1066.0],[898.0,1067.0],[891.0,1067.0],[891.0,1066.0],[889.0,1066.0],[888.0,1064.0],[887.0,1064.0],[887.0,1061.0],[888.0,1061.0],[888.0,1057.0],[889.0,1057.0],[889.0,1055.0],[891.0,1055.0],[891.0,1054.0],[892.0,1054.0],[892.0,1052.0],[894.0,1051.0],[894.0,1043.0],[893.0,1043.0],[893.0,1041.0],[891.0,1040.0],[891.0,1039.0],[890.0,1039.0],[890.0,1034.0],[891.0,1034.0],[891.0,1032.0],[892.0,1032.0],[892.0,1029.0],[893.0,1029.0],[893.0,1025.0],[895.0,1024.0],[895.0,1023.0],[896.0,1023.0],[896.0,1022.0],[897.0,1022.0],[897.0,1020.0],[898.0,1020.0],[898.0,1017.0],[899.0,1017.0],[899.0,1015.0],[900.0,1015.0],[900.0,1013.0],[902.0,1012.0],[902.0,1008.0],[906.0,1007.0],[906.0,1006.0],[911.0,1006.0],[911.0,1004.0],[912.0,1004.0],[912.0,995.0],[913.0,995.0],[913.0,992.0],[915.0,991.0],[915.0,989.0],[916.0,989.0],[916.0,972.0],[915.0,972.0],[915.0,968.0],[917.0,968.0],[917.0,965.0],[919.0,964.0],[919.0,962.0],[920.0,962.0],[920.0,959.0],[922.0,960.0],[922.0,959.0],[924.0,959.0],[925.0,957.0],[927.0,957.0],[927.0,956.0],[928.0,956.0],[929.0,954.0],[931.0,954.0],[931.0,952.0],[930.0,952.0],[930.0,951.0],[932.0,950.0],[932.0,947.0],[931.0,947.0],[931.0,945.0],[930.0,945.0],[930.0,941.0],[934.0,939.0],[934.0,940.0],[935.0,940.0],[936.0,942.0],[938.0,942.0],[938.0,943.0],[939.0,943.0],[938.0,949.0],[944.0,949.0],[945.0,947.0],[949.0,946.0],[949.0,947.0],[950.0,947.0],[950.0,951.0],[951.0,951.0],[951.0,953.0],[950.0,953.0],[950.0,954.0],[953.0,954.0],[953.0,955.0],[957.0,956.0],[957.0,957.0],[958.0,957.0],[958.0,958.0],[959.0,958.0],[959.0,959.0],[960.0,959.0],[960.0,960.0],[961.0,960.0],[961.0,961.0],[963.0,962.0],[963.0,964.0],[965.0,964.0],[965.0,965.0],[972.0,965.0],[972.0,964.0],[974.0,964.0],[975.0,962.0],[977.0,962.0],[977.0,963.0],[979.0,964.0],[979.0,971.0],[980.0,971.0],[980.0,972.0],[982.0,972.0],[982.0,973.0],[986.0,972.0],[986.0,973.0],[984.0,974.0],[984.0,978.0],[985.0,978.0],[985.0,979.0],[984.0,979.0]]]]}}]}